lat,lng,place_id,place_type,place_name,subzone_id,city_name,city_id,real_city_name,delivery_subzone_id,delivery_subzone_name,delivery_subzone_id
24.86203100000004,55.09997799999995,3826,DSZ,Dubai World Central,85041,Dubai,51,Dubai,0,Dubai World Central,0
24.86203100000004,55.10997799999995,3826,DSZ,Dubai World Central,85041,Dubai,51,Dubai,0,Dubai World Central,0
24.86203100000004,55.119977999999946,3826,DSZ,Dubai World Central,85041,Dubai,51,Dubai,0,Dubai World Central,0
24.86203100000004,55.129977999999944,3826,DSZ,Dubai World Central,85041,Dubai,51,Dubai,0,Dubai World Central,0
24.86203100000004,55.13997799999994,3826,DSZ,Dubai World Central,85041,Dubai,51,Dubai,0,Dubai World Central,0
24.86203100000004,55.14997799999994,3826,DSZ,Dubai World Central,85041,Dubai,51,Dubai,0,Dubai World Central,0
24.86203100000004,55.15997799999994,3826,DSZ,Dubai World Central,85041,Dubai,51,Dubai,0,Dubai World Central,0
24.86203100000004,55.16997799999994,3826,DSZ,Dubai World Central,85041,Dubai,51,Dubai,0,Dubai World Central,0
24.86203100000004,55.179977999999934,3826,DSZ,Dubai World Central,85041,Dubai,51,Dubai,0,Dubai World Central,0
24.86203100000004,55.18997799999993,3826,DSZ,Dubai World Central,85041,Dubai,51,Dubai,0,Dubai World Central,0
24.872031000000042,55.09997799999995,3826,DSZ,Dubai World Central,85041,Dubai,51,Dubai,0,Dubai World Central,0
24.872031000000042,55.10997799999995,3826,DSZ,Dubai World Central,85041,Dubai,51,Dubai,0,Dubai World Central,0
24.872031000000042,55.119977999999946,3826,DSZ,Dubai World Central,85041,Dubai,51,Dubai,0,Dubai World Central,0
24.872031000000042,55.129977999999944,3826,DSZ,Dubai World Central,85041,Dubai,51,Dubai,0,Dubai World Central,0
24.872031000000042,55.13997799999994,3826,DSZ,Dubai World Central,85041,Dubai,51,Dubai,0,Dubai World Central,0
24.872031000000042,55.14997799999994,3826,DSZ,Dubai World Central,85041,Dubai,51,Dubai,0,Dubai World Central,0
24.872031000000042,55.15997799999994,3826,DSZ,Dubai World Central,85041,Dubai,51,Dubai,0,Dubai World Central,0
24.872031000000042,55.16997799999994,3826,DSZ,Dubai World Central,85041,Dubai,51,Dubai,0,Dubai World Central,0
24.872031000000042,55.179977999999934,3826,DSZ,Dubai World Central,85041,Dubai,51,Dubai,0,Dubai World Central,0
24.872031000000042,55.18997799999993,3826,DSZ,Dubai World Central,85041,Dubai,51,Dubai,0,Dubai World Central,0
24.882031000000044,55.09997799999995,3826,DSZ,Dubai World Central,85041,Dubai,51,Dubai,0,Dubai World Central,0
24.882031000000044,55.10997799999995,3826,DSZ,Dubai World Central,85041,Dubai,51,Dubai,0,Dubai World Central,0
24.882031000000044,55.119977999999946,3826,DSZ,Dubai World Central,85041,Dubai,51,Dubai,0,Dubai World Central,0
24.882031000000044,55.129977999999944,3826,DSZ,Dubai World Central,85041,Dubai,51,Dubai,0,Dubai World Central,0
24.882031000000044,55.13997799999994,3826,DSZ,Dubai World Central,85041,Dubai,51,Dubai,0,Dubai World Central,0
24.882031000000044,55.14997799999994,3826,DSZ,Dubai World Central,85041,Dubai,51,Dubai,0,Dubai World Central,0
24.882031000000044,55.15997799999994,3826,DSZ,Dubai World Central,85041,Dubai,51,Dubai,0,Dubai World Central,0
24.882031000000044,55.16997799999994,3826,DSZ,Dubai World Central,85041,Dubai,51,Dubai,0,Dubai World Central,0
24.882031000000044,55.179977999999934,3826,DSZ,Dubai World Central,85041,Dubai,51,Dubai,0,Dubai World Central,0
24.882031000000044,55.18997799999993,3826,DSZ,Dubai World Central,85041,Dubai,51,Dubai,0,Dubai World Central,0
24.892031000000046,55.09997799999995,3826,DSZ,Dubai World Central,85041,Dubai,51,Dubai,0,Dubai World Central,0
24.892031000000046,55.10997799999995,3826,DSZ,Dubai World Central,85041,Dubai,51,Dubai,0,Dubai World Central,0
24.892031000000046,55.119977999999946,3826,DSZ,Dubai World Central,85041,Dubai,51,Dubai,0,Dubai World Central,0
24.892031000000046,55.129977999999944,3826,DSZ,Dubai World Central,85041,Dubai,51,Dubai,0,Dubai World Central,0
24.892031000000046,55.13997799999994,3826,DSZ,Dubai World Central,85041,Dubai,51,Dubai,0,Dubai World Central,0
24.892031000000046,55.14997799999994,3826,DSZ,Dubai World Central,85041,Dubai,51,Dubai,0,Dubai World Central,0
24.892031000000046,55.15997799999994,3826,DSZ,Dubai World Central,85041,Dubai,51,Dubai,0,Dubai World Central,0
24.892031000000046,55.16997799999994,3826,DSZ,Dubai World Central,85041,Dubai,51,Dubai,0,Dubai World Central,0
24.892031000000046,55.179977999999934,3826,DSZ,Dubai World Central,85041,Dubai,51,Dubai,0,Dubai World Central,0
24.892031000000046,55.18997799999993,3826,DSZ,Dubai World Central,85041,Dubai,51,Dubai,0,Dubai World Central,0
24.902031000000047,55.09997799999995,3826,DSZ,Dubai World Central,85041,Dubai,51,Dubai,0,Dubai World Central,0
24.902031000000047,55.10997799999995,3826,DSZ,Dubai World Central,85041,Dubai,51,Dubai,0,Dubai World Central,0
24.902031000000047,55.119977999999946,3826,DSZ,Dubai World Central,85041,Dubai,51,Dubai,0,Dubai World Central,0
24.902031000000047,55.129977999999944,3826,DSZ,Dubai World Central,85041,Dubai,51,Dubai,0,Dubai World Central,0
24.902031000000047,55.13997799999994,3826,DSZ,Dubai World Central,85041,Dubai,51,Dubai,0,Dubai World Central,0
24.902031000000047,55.14997799999994,3826,DSZ,Dubai World Central,85041,Dubai,51,Dubai,0,Dubai World Central,0
24.902031000000047,55.15997799999994,3826,DSZ,Dubai World Central,85041,Dubai,51,Dubai,0,Dubai World Central,0
24.902031000000047,55.16997799999994,3826,DSZ,Dubai World Central,85041,Dubai,51,Dubai,0,Dubai World Central,0
24.902031000000047,55.179977999999934,3826,DSZ,Dubai World Central,85041,Dubai,51,Dubai,0,Dubai World Central,0
24.902031000000047,55.18997799999993,3826,DSZ,Dubai World Central,85041,Dubai,51,Dubai,0,Dubai World Central,0
24.91203100000005,55.05997799999996,8622,DSZ,Jebel Ali Freezone Extension,0,Dubai,51,Dubai,0,Jebel Ali Freezone Extension,0
24.91203100000005,55.069977999999956,8622,DSZ,Jebel Ali Freezone Extension,0,Dubai,51,Dubai,0,Jebel Ali Freezone Extension,0
24.91203100000005,55.079977999999954,8622,DSZ,Jebel Ali Freezone Extension,0,Dubai,51,Dubai,0,Jebel Ali Freezone Extension,0
24.91203100000005,55.08997799999995,8622,DSZ,Jebel Ali Freezone Extension,0,Dubai,51,Dubai,0,Jebel Ali Freezone Extension,0
24.91203100000005,55.09997799999995,3826,DSZ,Dubai World Central,85041,Dubai,51,Dubai,0,Dubai World Central,0
24.91203100000005,55.10997799999995,3826,DSZ,Dubai World Central,85041,Dubai,51,Dubai,0,Dubai World Central,0
24.91203100000005,55.119977999999946,3826,DSZ,Dubai World Central,85041,Dubai,51,Dubai,0,Dubai World Central,0
24.91203100000005,55.129977999999944,3826,DSZ,Dubai World Central,85041,Dubai,51,Dubai,0,Dubai World Central,0
24.91203100000005,55.13997799999994,3826,DSZ,Dubai World Central,85041,Dubai,51,Dubai,0,Dubai World Central,0
24.91203100000005,55.14997799999994,3826,DSZ,Dubai World Central,85041,Dubai,51,Dubai,0,Dubai World Central,0
24.91203100000005,55.15997799999994,3826,DSZ,Dubai World Central,85041,Dubai,51,Dubai,0,Dubai World Central,0
24.91203100000005,55.16997799999994,3826,DSZ,Dubai World Central,85041,Dubai,51,Dubai,0,Dubai World Central,0
24.91203100000005,55.179977999999934,3826,DSZ,Dubai World Central,85041,Dubai,51,Dubai,0,Dubai World Central,0
24.91203100000005,55.18997799999993,3826,DSZ,Dubai World Central,85041,Dubai,51,Dubai,0,Dubai World Central,0
24.92203100000005,55.05997799999996,8622,DSZ,Jebel Ali Freezone Extension,0,Dubai,51,Dubai,0,Jebel Ali Freezone Extension,0
24.92203100000005,55.069977999999956,8622,DSZ,Jebel Ali Freezone Extension,0,Dubai,51,Dubai,0,Jebel Ali Freezone Extension,0
24.92203100000005,55.079977999999954,8622,DSZ,Jebel Ali Freezone Extension,0,Dubai,51,Dubai,0,Jebel Ali Freezone Extension,0
24.92203100000005,55.08997799999995,8622,DSZ,Jebel Ali Freezone Extension,0,Dubai,51,Dubai,0,Jebel Ali Freezone Extension,0
24.92203100000005,55.09997799999995,8622,DSZ,Jebel Ali Freezone Extension,0,Dubai,51,Dubai,0,Jebel Ali Freezone Extension,0
24.92203100000005,55.10997799999995,8622,DSZ,Jebel Ali Freezone Extension,0,Dubai,51,Dubai,0,Jebel Ali Freezone Extension,0
24.92203100000005,55.119977999999946,3826,DSZ,Dubai World Central,85041,Dubai,51,Dubai,0,Dubai World Central,0
24.92203100000005,55.129977999999944,3826,DSZ,Dubai World Central,85041,Dubai,51,Dubai,0,Dubai World Central,0
24.92203100000005,55.13997799999994,3826,DSZ,Dubai World Central,85041,Dubai,51,Dubai,0,Dubai World Central,0
24.92203100000005,55.14997799999994,3826,DSZ,Dubai World Central,85041,Dubai,51,Dubai,0,Dubai World Central,0
24.92203100000005,55.15997799999994,3826,DSZ,Dubai World Central,85041,Dubai,51,Dubai,0,Dubai World Central,0
24.92203100000005,55.16997799999994,3826,DSZ,Dubai World Central,85041,Dubai,51,Dubai,0,Dubai World Central,0
24.92203100000005,55.179977999999934,3826,DSZ,Dubai World Central,85041,Dubai,51,Dubai,0,Dubai World Central,0
24.92203100000005,55.18997799999993,3826,DSZ,Dubai World Central,85041,Dubai,51,Dubai,0,Dubai World Central,0
24.932031000000052,55.029977999999964,3833,DSZ,Jafza,51003,Dubai,51,Dubai,0,Jafza,0
24.932031000000052,55.03997799999996,3833,DSZ,Jafza,51003,Dubai,51,Dubai,0,Jafza,0
24.932031000000052,55.04997799999996,3833,DSZ,Jafza,51003,Dubai,51,Dubai,0,Jafza,0
24.932031000000052,55.05997799999996,3833,DSZ,Jafza,51003,Dubai,51,Dubai,0,Jafza,0
24.932031000000052,55.069977999999956,3833,DSZ,Jafza,51003,Dubai,51,Dubai,0,Jafza,0
24.932031000000052,55.079977999999954,8622,DSZ,Jebel Ali Freezone Extension,0,Dubai,51,Dubai,0,Jebel Ali Freezone Extension,0
24.932031000000052,55.08997799999995,8622,DSZ,Jebel Ali Freezone Extension,0,Dubai,51,Dubai,0,Jebel Ali Freezone Extension,0
24.932031000000052,55.09997799999995,8622,DSZ,Jebel Ali Freezone Extension,0,Dubai,51,Dubai,0,Jebel Ali Freezone Extension,0
24.932031000000052,55.10997799999995,8622,DSZ,Jebel Ali Freezone Extension,0,Dubai,51,Dubai,0,Jebel Ali Freezone Extension,0
24.932031000000052,55.119977999999946,8622,DSZ,Jebel Ali Freezone Extension,0,Dubai,51,Dubai,0,Jebel Ali Freezone Extension,0
24.932031000000052,55.129977999999944,8622,DSZ,Jebel Ali Freezone Extension,0,Dubai,51,Dubai,0,Jebel Ali Freezone Extension,0
24.932031000000052,55.13997799999994,3826,DSZ,Dubai World Central,85041,Dubai,51,Dubai,0,Dubai World Central,0
24.932031000000052,55.14997799999994,3826,DSZ,Dubai World Central,85041,Dubai,51,Dubai,0,Dubai World Central,0
24.932031000000052,55.15997799999994,3826,DSZ,Dubai World Central,85041,Dubai,51,Dubai,0,Dubai World Central,0
24.932031000000052,55.16997799999994,3826,DSZ,Dubai World Central,85041,Dubai,51,Dubai,0,Dubai World Central,0
24.932031000000052,55.179977999999934,3826,DSZ,Dubai World Central,85041,Dubai,51,Dubai,0,Dubai World Central,0
24.932031000000052,55.18997799999993,3826,DSZ,Dubai World Central,85041,Dubai,51,Dubai,0,Dubai World Central,0
24.942031000000053,55.029977999999964,3833,DSZ,Jafza,51003,Dubai,51,Dubai,0,Jafza,0
24.942031000000053,55.03997799999996,3833,DSZ,Jafza,51003,Dubai,51,Dubai,0,Jafza,0
24.942031000000053,55.04997799999996,3833,DSZ,Jafza,51003,Dubai,51,Dubai,0,Jafza,0
24.942031000000053,55.05997799999996,3833,DSZ,Jafza,51003,Dubai,51,Dubai,0,Jafza,0
24.942031000000053,55.069977999999956,3833,DSZ,Jafza,51003,Dubai,51,Dubai,0,Jafza,0
24.942031000000053,55.079977999999954,8622,DSZ,Jebel Ali Freezone Extension,0,Dubai,51,Dubai,0,Jebel Ali Freezone Extension,0
24.942031000000053,55.08997799999995,8622,DSZ,Jebel Ali Freezone Extension,0,Dubai,51,Dubai,0,Jebel Ali Freezone Extension,0
24.942031000000053,55.09997799999995,8622,DSZ,Jebel Ali Freezone Extension,0,Dubai,51,Dubai,0,Jebel Ali Freezone Extension,0
24.942031000000053,55.10997799999995,8622,DSZ,Jebel Ali Freezone Extension,0,Dubai,51,Dubai,0,Jebel Ali Freezone Extension,0
24.942031000000053,55.119977999999946,8622,DSZ,Jebel Ali Freezone Extension,0,Dubai,51,Dubai,0,Jebel Ali Freezone Extension,0
24.942031000000053,55.129977999999944,8622,DSZ,Jebel Ali Freezone Extension,0,Dubai,51,Dubai,0,Jebel Ali Freezone Extension,0
24.942031000000053,55.13997799999994,8622,DSZ,Jebel Ali Freezone Extension,0,Dubai,51,Dubai,0,Jebel Ali Freezone Extension,0
24.942031000000053,55.14997799999994,3831,DSZ,Dubai Investment Park 1,51001,Dubai,51,Dubai,0,Dubai Investment Park 1,0
24.942031000000053,55.15997799999994,3831,DSZ,Dubai Investment Park 1,51001,Dubai,51,Dubai,0,Dubai Investment Park 1,0
24.942031000000053,55.16997799999994,3831,DSZ,Dubai Investment Park 1,51001,Dubai,51,Dubai,0,Dubai Investment Park 1,0
24.942031000000053,55.179977999999934,3832,DSZ,Dubai Investment Park 2,51001,Dubai,51,Dubai,0,Dubai Investment Park 2,0
24.942031000000053,55.18997799999993,3832,DSZ,Dubai Investment Park 2,51001,Dubai,51,Dubai,0,Dubai Investment Park 2,0
24.942031000000053,55.19997799999993,3832,DSZ,Dubai Investment Park 2,51001,Dubai,51,Dubai,0,Dubai Investment Park 2,0
24.942031000000053,55.20997799999993,3832,DSZ,Dubai Investment Park 2,51001,Dubai,51,Dubai,0,Dubai Investment Park 2,0
24.942031000000053,55.21997799999993,3832,DSZ,Dubai Investment Park 2,51001,Dubai,51,Dubai,0,Dubai Investment Park 2,0
24.942031000000053,55.229977999999925,3832,DSZ,Dubai Investment Park 2,51001,Dubai,51,Dubai,0,Dubai Investment Park 2,0
24.942031000000053,55.23997799999992,3832,DSZ,Dubai Investment Park 2,51001,Dubai,51,Dubai,0,Dubai Investment Park 2,0
24.952031000000055,55.029977999999964,3833,DSZ,Jafza,51003,Dubai,51,Dubai,0,Jafza,0
24.952031000000055,55.03997799999996,3833,DSZ,Jafza,51003,Dubai,51,Dubai,0,Jafza,0
24.952031000000055,55.04997799999996,3833,DSZ,Jafza,51003,Dubai,51,Dubai,0,Jafza,0
24.952031000000055,55.05997799999996,3833,DSZ,Jafza,51003,Dubai,51,Dubai,0,Jafza,0
24.952031000000055,55.069977999999956,3833,DSZ,Jafza,51003,Dubai,51,Dubai,0,Jafza,0
24.952031000000055,55.079977999999954,3833,DSZ,Jafza,51003,Dubai,51,Dubai,0,Jafza,0
24.952031000000055,55.08997799999995,8622,DSZ,Jebel Ali Freezone Extension,0,Dubai,51,Dubai,0,Jebel Ali Freezone Extension,0
24.952031000000055,55.09997799999995,8622,DSZ,Jebel Ali Freezone Extension,0,Dubai,51,Dubai,0,Jebel Ali Freezone Extension,0
24.952031000000055,55.10997799999995,8622,DSZ,Jebel Ali Freezone Extension,0,Dubai,51,Dubai,0,Jebel Ali Freezone Extension,0
24.952031000000055,55.119977999999946,8622,DSZ,Jebel Ali Freezone Extension,0,Dubai,51,Dubai,0,Jebel Ali Freezone Extension,0
24.952031000000055,55.129977999999944,8622,DSZ,Jebel Ali Freezone Extension,0,Dubai,51,Dubai,0,Jebel Ali Freezone Extension,0
24.952031000000055,55.13997799999994,8622,DSZ,Jebel Ali Freezone Extension,0,Dubai,51,Dubai,0,Jebel Ali Freezone Extension,0
24.952031000000055,55.14997799999994,3831,DSZ,Dubai Investment Park 1,51001,Dubai,51,Dubai,0,Dubai Investment Park 1,0
24.952031000000055,55.15997799999994,3831,DSZ,Dubai Investment Park 1,51001,Dubai,51,Dubai,0,Dubai Investment Park 1,0
24.952031000000055,55.16997799999994,3831,DSZ,Dubai Investment Park 1,51001,Dubai,51,Dubai,0,Dubai Investment Park 1,0
24.952031000000055,55.179977999999934,3831,DSZ,Dubai Investment Park 1,51001,Dubai,51,Dubai,0,Dubai Investment Park 1,0
24.952031000000055,55.18997799999993,3832,DSZ,Dubai Investment Park 2,51001,Dubai,51,Dubai,0,Dubai Investment Park 2,0
24.952031000000055,55.19997799999993,3832,DSZ,Dubai Investment Park 2,51001,Dubai,51,Dubai,0,Dubai Investment Park 2,0
24.952031000000055,55.20997799999993,3832,DSZ,Dubai Investment Park 2,51001,Dubai,51,Dubai,0,Dubai Investment Park 2,0
24.952031000000055,55.21997799999993,3832,DSZ,Dubai Investment Park 2,51001,Dubai,51,Dubai,0,Dubai Investment Park 2,0
24.952031000000055,55.229977999999925,3832,DSZ,Dubai Investment Park 2,51001,Dubai,51,Dubai,0,Dubai Investment Park 2,0
24.952031000000055,55.23997799999992,3832,DSZ,Dubai Investment Park 2,51001,Dubai,51,Dubai,0,Dubai Investment Park 2,0
24.952031000000055,55.41997799999989,3868,DSZ,"Sevens Stadium, Dubai",96381,Dubai,51,Dubai,0,"Sevens Stadium, Dubai",0
24.952031000000055,55.429977999999885,3868,DSZ,"Sevens Stadium, Dubai",96381,Dubai,51,Dubai,0,"Sevens Stadium, Dubai",0
24.952031000000055,55.43997799999988,3868,DSZ,"Sevens Stadium, Dubai",96381,Dubai,51,Dubai,0,"Sevens Stadium, Dubai",0
24.952031000000055,55.44997799999988,3868,DSZ,"Sevens Stadium, Dubai",96381,Dubai,51,Dubai,0,"Sevens Stadium, Dubai",0
24.952031000000055,55.45997799999988,3868,DSZ,"Sevens Stadium, Dubai",96381,Dubai,51,Dubai,0,"Sevens Stadium, Dubai",0
24.952031000000055,55.46997799999988,3868,DSZ,"Sevens Stadium, Dubai",96381,Dubai,51,Dubai,0,"Sevens Stadium, Dubai",0
24.952031000000055,55.479977999999875,3868,DSZ,"Sevens Stadium, Dubai",96381,Dubai,51,Dubai,0,"Sevens Stadium, Dubai",0
24.952031000000055,55.48997799999987,3868,DSZ,"Sevens Stadium, Dubai",96381,Dubai,51,Dubai,0,"Sevens Stadium, Dubai",0
24.952031000000055,55.49997799999987,3868,DSZ,"Sevens Stadium, Dubai",96381,Dubai,51,Dubai,0,"Sevens Stadium, Dubai",0
24.952031000000055,55.50997799999987,3868,DSZ,"Sevens Stadium, Dubai",96381,Dubai,51,Dubai,0,"Sevens Stadium, Dubai",0
24.962031000000056,55.029977999999964,3833,DSZ,Jafza,51003,Dubai,51,Dubai,0,Jafza,0
24.962031000000056,55.03997799999996,3833,DSZ,Jafza,51003,Dubai,51,Dubai,0,Jafza,0
24.962031000000056,55.04997799999996,3833,DSZ,Jafza,51003,Dubai,51,Dubai,0,Jafza,0
24.962031000000056,55.05997799999996,3833,DSZ,Jafza,51003,Dubai,51,Dubai,0,Jafza,0
24.962031000000056,55.069977999999956,3833,DSZ,Jafza,51003,Dubai,51,Dubai,0,Jafza,0
24.962031000000056,55.079977999999954,3833,DSZ,Jafza,51003,Dubai,51,Dubai,0,Jafza,0
24.962031000000056,55.08997799999995,8622,DSZ,Jebel Ali Freezone Extension,0,Dubai,51,Dubai,0,Jebel Ali Freezone Extension,0
24.962031000000056,55.09997799999995,8622,DSZ,Jebel Ali Freezone Extension,0,Dubai,51,Dubai,0,Jebel Ali Freezone Extension,0
24.962031000000056,55.10997799999995,8622,DSZ,Jebel Ali Freezone Extension,0,Dubai,51,Dubai,0,Jebel Ali Freezone Extension,0
24.962031000000056,55.119977999999946,8622,DSZ,Jebel Ali Freezone Extension,0,Dubai,51,Dubai,0,Jebel Ali Freezone Extension,0
24.962031000000056,55.129977999999944,8622,DSZ,Jebel Ali Freezone Extension,0,Dubai,51,Dubai,0,Jebel Ali Freezone Extension,0
24.962031000000056,55.13997799999994,3831,DSZ,Dubai Investment Park 1,51001,Dubai,51,Dubai,0,Dubai Investment Park 1,0
24.962031000000056,55.14997799999994,3831,DSZ,Dubai Investment Park 1,51001,Dubai,51,Dubai,0,Dubai Investment Park 1,0
24.962031000000056,55.15997799999994,3831,DSZ,Dubai Investment Park 1,51001,Dubai,51,Dubai,0,Dubai Investment Park 1,0
24.962031000000056,55.16997799999994,3831,DSZ,Dubai Investment Park 1,51001,Dubai,51,Dubai,0,Dubai Investment Park 1,0
24.962031000000056,55.179977999999934,3831,DSZ,Dubai Investment Park 1,51001,Dubai,51,Dubai,0,Dubai Investment Park 1,0
24.962031000000056,55.18997799999993,3832,DSZ,Dubai Investment Park 2,51001,Dubai,51,Dubai,0,Dubai Investment Park 2,0
24.962031000000056,55.19997799999993,3832,DSZ,Dubai Investment Park 2,51001,Dubai,51,Dubai,0,Dubai Investment Park 2,0
24.962031000000056,55.20997799999993,3832,DSZ,Dubai Investment Park 2,51001,Dubai,51,Dubai,0,Dubai Investment Park 2,0
24.962031000000056,55.21997799999993,3832,DSZ,Dubai Investment Park 2,51001,Dubai,51,Dubai,0,Dubai Investment Park 2,0
24.962031000000056,55.229977999999925,3832,DSZ,Dubai Investment Park 2,51001,Dubai,51,Dubai,0,Dubai Investment Park 2,0
24.962031000000056,55.23997799999992,3832,DSZ,Dubai Investment Park 2,51001,Dubai,51,Dubai,0,Dubai Investment Park 2,0
24.962031000000056,55.24997799999992,4714,DSZ,Remraam,0,Dubai,51,Dubai,0,Remraam,0
24.962031000000056,55.25997799999992,4714,DSZ,Remraam,0,Dubai,51,Dubai,0,Remraam,0
24.962031000000056,55.26997799999992,4714,DSZ,Remraam,0,Dubai,51,Dubai,0,Remraam,0
24.962031000000056,55.279977999999915,4714,DSZ,Remraam,0,Dubai,51,Dubai,0,Remraam,0
24.962031000000056,55.28997799999991,4714,DSZ,Remraam,0,Dubai,51,Dubai,0,Remraam,0
24.962031000000056,55.29997799999991,4714,DSZ,Remraam,0,Dubai,51,Dubai,0,Remraam,0
24.962031000000056,55.41997799999989,3868,DSZ,"Sevens Stadium, Dubai",96381,Dubai,51,Dubai,0,"Sevens Stadium, Dubai",0
24.962031000000056,55.429977999999885,3868,DSZ,"Sevens Stadium, Dubai",96381,Dubai,51,Dubai,0,"Sevens Stadium, Dubai",0
24.962031000000056,55.43997799999988,3868,DSZ,"Sevens Stadium, Dubai",96381,Dubai,51,Dubai,0,"Sevens Stadium, Dubai",0
24.962031000000056,55.44997799999988,3868,DSZ,"Sevens Stadium, Dubai",96381,Dubai,51,Dubai,0,"Sevens Stadium, Dubai",0
24.962031000000056,55.45997799999988,3868,DSZ,"Sevens Stadium, Dubai",96381,Dubai,51,Dubai,0,"Sevens Stadium, Dubai",0
24.962031000000056,55.46997799999988,3868,DSZ,"Sevens Stadium, Dubai",96381,Dubai,51,Dubai,0,"Sevens Stadium, Dubai",0
24.962031000000056,55.479977999999875,3868,DSZ,"Sevens Stadium, Dubai",96381,Dubai,51,Dubai,0,"Sevens Stadium, Dubai",0
24.962031000000056,55.48997799999987,3868,DSZ,"Sevens Stadium, Dubai",96381,Dubai,51,Dubai,0,"Sevens Stadium, Dubai",0
24.962031000000056,55.49997799999987,3868,DSZ,"Sevens Stadium, Dubai",96381,Dubai,51,Dubai,0,"Sevens Stadium, Dubai",0
24.962031000000056,55.50997799999987,3868,DSZ,"Sevens Stadium, Dubai",96381,Dubai,51,Dubai,0,"Sevens Stadium, Dubai",0
24.972031000000058,55.029977999999964,3833,DSZ,Jafza,51003,Dubai,51,Dubai,0,Jafza,0
24.972031000000058,55.03997799999996,3833,DSZ,Jafza,51003,Dubai,51,Dubai,0,Jafza,0
24.972031000000058,55.04997799999996,3833,DSZ,Jafza,51003,Dubai,51,Dubai,0,Jafza,0
24.972031000000058,55.05997799999996,3833,DSZ,Jafza,51003,Dubai,51,Dubai,0,Jafza,0
24.972031000000058,55.069977999999956,3833,DSZ,Jafza,51003,Dubai,51,Dubai,0,Jafza,0
24.972031000000058,55.079977999999954,3833,DSZ,Jafza,51003,Dubai,51,Dubai,0,Jafza,0
24.972031000000058,55.08997799999995,3833,DSZ,Jafza,51003,Dubai,51,Dubai,0,Jafza,0
24.972031000000058,55.09997799999995,8622,DSZ,Jebel Ali Freezone Extension,0,Dubai,51,Dubai,0,Jebel Ali Freezone Extension,0
24.972031000000058,55.10997799999995,8622,DSZ,Jebel Ali Freezone Extension,0,Dubai,51,Dubai,0,Jebel Ali Freezone Extension,0
24.972031000000058,55.119977999999946,8622,DSZ,Jebel Ali Freezone Extension,0,Dubai,51,Dubai,0,Jebel Ali Freezone Extension,0
24.972031000000058,55.129977999999944,3834,DSZ,,51004,Dubai,51,Dubai,0, ,0
24.972031000000058,55.13997799999994,3831,DSZ,Dubai Investment Park 1,51001,Dubai,51,Dubai,0,Dubai Investment Park 1,0
24.972031000000058,55.14997799999994,3831,DSZ,Dubai Investment Park 1,51001,Dubai,51,Dubai,0,Dubai Investment Park 1,0
24.972031000000058,55.15997799999994,3831,DSZ,Dubai Investment Park 1,51001,Dubai,51,Dubai,0,Dubai Investment Park 1,0
24.972031000000058,55.16997799999994,3831,DSZ,Dubai Investment Park 1,51001,Dubai,51,Dubai,0,Dubai Investment Park 1,0
24.972031000000058,55.179977999999934,3831,DSZ,Dubai Investment Park 1,51001,Dubai,51,Dubai,0,Dubai Investment Park 1,0
24.972031000000058,55.18997799999993,3832,DSZ,Dubai Investment Park 2,51001,Dubai,51,Dubai,0,Dubai Investment Park 2,0
24.972031000000058,55.19997799999993,3832,DSZ,Dubai Investment Park 2,51001,Dubai,51,Dubai,0,Dubai Investment Park 2,0
24.972031000000058,55.20997799999993,3832,DSZ,Dubai Investment Park 2,51001,Dubai,51,Dubai,0,Dubai Investment Park 2,0
24.972031000000058,55.21997799999993,3832,DSZ,Dubai Investment Park 2,51001,Dubai,51,Dubai,0,Dubai Investment Park 2,0
24.972031000000058,55.229977999999925,3832,DSZ,Dubai Investment Park 2,51001,Dubai,51,Dubai,0,Dubai Investment Park 2,0
24.972031000000058,55.23997799999992,4714,DSZ,Remraam,0,Dubai,51,Dubai,0,Remraam,0
24.972031000000058,55.24997799999992,4714,DSZ,Remraam,0,Dubai,51,Dubai,0,Remraam,0
24.972031000000058,55.25997799999992,4714,DSZ,Remraam,0,Dubai,51,Dubai,0,Remraam,0
24.972031000000058,55.26997799999992,4714,DSZ,Remraam,0,Dubai,51,Dubai,0,Remraam,0
24.972031000000058,55.279977999999915,4714,DSZ,Remraam,0,Dubai,51,Dubai,0,Remraam,0
24.972031000000058,55.28997799999991,4714,DSZ,Remraam,0,Dubai,51,Dubai,0,Remraam,0
24.972031000000058,55.29997799999991,4714,DSZ,Remraam,0,Dubai,51,Dubai,0,Remraam,0
24.972031000000058,55.41997799999989,3868,DSZ,"Sevens Stadium, Dubai",96381,Dubai,51,Dubai,0,"Sevens Stadium, Dubai",0
24.972031000000058,55.429977999999885,3868,DSZ,"Sevens Stadium, Dubai",96381,Dubai,51,Dubai,0,"Sevens Stadium, Dubai",0
24.972031000000058,55.43997799999988,3868,DSZ,"Sevens Stadium, Dubai",96381,Dubai,51,Dubai,0,"Sevens Stadium, Dubai",0
24.972031000000058,55.44997799999988,3868,DSZ,"Sevens Stadium, Dubai",96381,Dubai,51,Dubai,0,"Sevens Stadium, Dubai",0
24.972031000000058,55.45997799999988,3868,DSZ,"Sevens Stadium, Dubai",96381,Dubai,51,Dubai,0,"Sevens Stadium, Dubai",0
24.972031000000058,55.46997799999988,3868,DSZ,"Sevens Stadium, Dubai",96381,Dubai,51,Dubai,0,"Sevens Stadium, Dubai",0
24.972031000000058,55.479977999999875,3868,DSZ,"Sevens Stadium, Dubai",96381,Dubai,51,Dubai,0,"Sevens Stadium, Dubai",0
24.972031000000058,55.48997799999987,3868,DSZ,"Sevens Stadium, Dubai",96381,Dubai,51,Dubai,0,"Sevens Stadium, Dubai",0
24.972031000000058,55.49997799999987,3868,DSZ,"Sevens Stadium, Dubai",96381,Dubai,51,Dubai,0,"Sevens Stadium, Dubai",0
24.972031000000058,55.50997799999987,3868,DSZ,"Sevens Stadium, Dubai",96381,Dubai,51,Dubai,0,"Sevens Stadium, Dubai",0
24.98203100000006,55.029977999999964,3833,DSZ,Jafza,51003,Dubai,51,Dubai,0,Jafza,0
24.98203100000006,55.03997799999996,3833,DSZ,Jafza,51003,Dubai,51,Dubai,0,Jafza,0
24.98203100000006,55.04997799999996,3833,DSZ,Jafza,51003,Dubai,51,Dubai,0,Jafza,0
24.98203100000006,55.05997799999996,3833,DSZ,Jafza,51003,Dubai,51,Dubai,0,Jafza,0
24.98203100000006,55.069977999999956,3833,DSZ,Jafza,51003,Dubai,51,Dubai,0,Jafza,0
24.98203100000006,55.079977999999954,3833,DSZ,Jafza,51003,Dubai,51,Dubai,0,Jafza,0
24.98203100000006,55.08997799999995,3833,DSZ,Jafza,51003,Dubai,51,Dubai,0,Jafza,0
24.98203100000006,55.09997799999995,3834,DSZ,,51004,Dubai,51,Dubai,0, ,0
24.98203100000006,55.10997799999995,3834,DSZ,,51004,Dubai,51,Dubai,0, ,0
24.98203100000006,55.119977999999946,3834,DSZ,,51004,Dubai,51,Dubai,0, ,0
24.98203100000006,55.129977999999944,3834,DSZ,,51004,Dubai,51,Dubai,0, ,0
24.98203100000006,55.13997799999994,3834,DSZ,,51004,Dubai,51,Dubai,0, ,0
24.98203100000006,55.14997799999994,3831,DSZ,Dubai Investment Park 1,51001,Dubai,51,Dubai,0,Dubai Investment Park 1,0
24.98203100000006,55.15997799999994,3831,DSZ,Dubai Investment Park 1,51001,Dubai,51,Dubai,0,Dubai Investment Park 1,0
24.98203100000006,55.16997799999994,3831,DSZ,Dubai Investment Park 1,51001,Dubai,51,Dubai,0,Dubai Investment Park 1,0
24.98203100000006,55.179977999999934,3831,DSZ,Dubai Investment Park 1,51001,Dubai,51,Dubai,0,Dubai Investment Park 1,0
24.98203100000006,55.18997799999993,3832,DSZ,Dubai Investment Park 2,51001,Dubai,51,Dubai,0,Dubai Investment Park 2,0
24.98203100000006,55.19997799999993,3832,DSZ,Dubai Investment Park 2,51001,Dubai,51,Dubai,0,Dubai Investment Park 2,0
24.98203100000006,55.20997799999993,3832,DSZ,Dubai Investment Park 2,51001,Dubai,51,Dubai,0,Dubai Investment Park 2,0
24.98203100000006,55.21997799999993,3832,DSZ,Dubai Investment Park 2,51001,Dubai,51,Dubai,0,Dubai Investment Park 2,0
24.98203100000006,55.229977999999925,4714,DSZ,Remraam,0,Dubai,51,Dubai,0,Remraam,0
24.98203100000006,55.23997799999992,4714,DSZ,Remraam,0,Dubai,51,Dubai,0,Remraam,0
24.98203100000006,55.24997799999992,4714,DSZ,Remraam,0,Dubai,51,Dubai,0,Remraam,0
24.98203100000006,55.25997799999992,4714,DSZ,Remraam,0,Dubai,51,Dubai,0,Remraam,0
24.98203100000006,55.26997799999992,4714,DSZ,Remraam,0,Dubai,51,Dubai,0,Remraam,0
24.98203100000006,55.279977999999915,4714,DSZ,Remraam,0,Dubai,51,Dubai,0,Remraam,0
24.98203100000006,55.28997799999991,4714,DSZ,Remraam,0,Dubai,51,Dubai,0,Remraam,0
24.98203100000006,55.29997799999991,7977,DSZ,Layan Community,0,Dubai,51,Dubai,0,Layan Community,0
24.98203100000006,55.30997799999991,7977,DSZ,Layan Community,0,Dubai,51,Dubai,0,Layan Community,0
24.98203100000006,55.31997799999991,7977,DSZ,Layan Community,0,Dubai,51,Dubai,0,Layan Community,0
24.98203100000006,55.329977999999905,7977,DSZ,Layan Community,0,Dubai,51,Dubai,0,Layan Community,0
24.98203100000006,55.41997799999989,3868,DSZ,"Sevens Stadium, Dubai",96381,Dubai,51,Dubai,0,"Sevens Stadium, Dubai",0
24.98203100000006,55.429977999999885,3868,DSZ,"Sevens Stadium, Dubai",96381,Dubai,51,Dubai,0,"Sevens Stadium, Dubai",0
24.98203100000006,55.43997799999988,3868,DSZ,"Sevens Stadium, Dubai",96381,Dubai,51,Dubai,0,"Sevens Stadium, Dubai",0
24.98203100000006,55.44997799999988,3868,DSZ,"Sevens Stadium, Dubai",96381,Dubai,51,Dubai,0,"Sevens Stadium, Dubai",0
24.98203100000006,55.45997799999988,3868,DSZ,"Sevens Stadium, Dubai",96381,Dubai,51,Dubai,0,"Sevens Stadium, Dubai",0
24.98203100000006,55.46997799999988,3868,DSZ,"Sevens Stadium, Dubai",96381,Dubai,51,Dubai,0,"Sevens Stadium, Dubai",0
24.98203100000006,55.479977999999875,3868,DSZ,"Sevens Stadium, Dubai",96381,Dubai,51,Dubai,0,"Sevens Stadium, Dubai",0
24.98203100000006,55.48997799999987,3868,DSZ,"Sevens Stadium, Dubai",96381,Dubai,51,Dubai,0,"Sevens Stadium, Dubai",0
24.98203100000006,55.49997799999987,3868,DSZ,"Sevens Stadium, Dubai",96381,Dubai,51,Dubai,0,"Sevens Stadium, Dubai",0
24.98203100000006,55.50997799999987,3868,DSZ,"Sevens Stadium, Dubai",96381,Dubai,51,Dubai,0,"Sevens Stadium, Dubai",0
24.99203100000006,55.029977999999964,3833,DSZ,Jafza,51003,Dubai,51,Dubai,0,Jafza,0
24.99203100000006,55.03997799999996,3833,DSZ,Jafza,51003,Dubai,51,Dubai,0,Jafza,0
24.99203100000006,55.04997799999996,3833,DSZ,Jafza,51003,Dubai,51,Dubai,0,Jafza,0
24.99203100000006,55.05997799999996,3833,DSZ,Jafza,51003,Dubai,51,Dubai,0,Jafza,0
24.99203100000006,55.069977999999956,3833,DSZ,Jafza,51003,Dubai,51,Dubai,0,Jafza,0
24.99203100000006,55.079977999999954,3833,DSZ,Jafza,51003,Dubai,51,Dubai,0,Jafza,0
24.99203100000006,55.08997799999995,3833,DSZ,Jafza,51003,Dubai,51,Dubai,0,Jafza,0
24.99203100000006,55.09997799999995,3834,DSZ,,51004,Dubai,51,Dubai,0, ,0
24.99203100000006,55.10997799999995,3834,DSZ,,51004,Dubai,51,Dubai,0, ,0
24.99203100000006,55.119977999999946,3834,DSZ,,51004,Dubai,51,Dubai,0, ,0
24.99203100000006,55.129977999999944,3834,DSZ,,51004,Dubai,51,Dubai,0, ,0
24.99203100000006,55.13997799999994,3834,DSZ,,51004,Dubai,51,Dubai,0, ,0
24.99203100000006,55.14997799999994,3831,DSZ,Dubai Investment Park 1,51001,Dubai,51,Dubai,0,Dubai Investment Park 1,0
24.99203100000006,55.15997799999994,3837,DSZ,Green Community Village,51002,Dubai,51,Dubai,0,Green Community Village,0
24.99203100000006,55.16997799999994,3837,DSZ,Green Community Village,51002,Dubai,51,Dubai,0,Green Community Village,0
24.99203100000006,55.179977999999934,3837,DSZ,Green Community Village,51002,Dubai,51,Dubai,0,Green Community Village,0
24.99203100000006,55.18997799999993,3832,DSZ,Dubai Investment Park 2,51001,Dubai,51,Dubai,0,Dubai Investment Park 2,0
24.99203100000006,55.19997799999993,3832,DSZ,Dubai Investment Park 2,51001,Dubai,51,Dubai,0,Dubai Investment Park 2,0
24.99203100000006,55.20997799999993,3832,DSZ,Dubai Investment Park 2,51001,Dubai,51,Dubai,0,Dubai Investment Park 2,0
24.99203100000006,55.21997799999993,3832,DSZ,Dubai Investment Park 2,51001,Dubai,51,Dubai,0,Dubai Investment Park 2,0
24.99203100000006,55.229977999999925,4714,DSZ,Remraam,0,Dubai,51,Dubai,0,Remraam,0
24.99203100000006,55.23997799999992,4714,DSZ,Remraam,0,Dubai,51,Dubai,0,Remraam,0
24.99203100000006,55.24997799999992,4714,DSZ,Remraam,0,Dubai,51,Dubai,0,Remraam,0
24.99203100000006,55.25997799999992,4714,DSZ,Remraam,0,Dubai,51,Dubai,0,Remraam,0
24.99203100000006,55.26997799999992,4714,DSZ,Remraam,0,Dubai,51,Dubai,0,Remraam,0
24.99203100000006,55.279977999999915,4714,DSZ,Remraam,0,Dubai,51,Dubai,0,Remraam,0
24.99203100000006,55.28997799999991,7977,DSZ,Layan Community,0,Dubai,51,Dubai,0,Layan Community,0
24.99203100000006,55.29997799999991,7977,DSZ,Layan Community,0,Dubai,51,Dubai,0,Layan Community,0
24.99203100000006,55.30997799999991,7977,DSZ,Layan Community,0,Dubai,51,Dubai,0,Layan Community,0
24.99203100000006,55.31997799999991,7977,DSZ,Layan Community,0,Dubai,51,Dubai,0,Layan Community,0
24.99203100000006,55.329977999999905,7977,DSZ,Layan Community,0,Dubai,51,Dubai,0,Layan Community,0
24.99203100000006,55.41997799999989,3868,DSZ,"Sevens Stadium, Dubai",96381,Dubai,51,Dubai,0,"Sevens Stadium, Dubai",0
24.99203100000006,55.429977999999885,3868,DSZ,"Sevens Stadium, Dubai",96381,Dubai,51,Dubai,0,"Sevens Stadium, Dubai",0
24.99203100000006,55.43997799999988,3868,DSZ,"Sevens Stadium, Dubai",96381,Dubai,51,Dubai,0,"Sevens Stadium, Dubai",0
24.99203100000006,55.44997799999988,3868,DSZ,"Sevens Stadium, Dubai",96381,Dubai,51,Dubai,0,"Sevens Stadium, Dubai",0
24.99203100000006,55.45997799999988,3868,DSZ,"Sevens Stadium, Dubai",96381,Dubai,51,Dubai,0,"Sevens Stadium, Dubai",0
24.99203100000006,55.46997799999988,3868,DSZ,"Sevens Stadium, Dubai",96381,Dubai,51,Dubai,0,"Sevens Stadium, Dubai",0
24.99203100000006,55.479977999999875,3868,DSZ,"Sevens Stadium, Dubai",96381,Dubai,51,Dubai,0,"Sevens Stadium, Dubai",0
24.99203100000006,55.48997799999987,3868,DSZ,"Sevens Stadium, Dubai",96381,Dubai,51,Dubai,0,"Sevens Stadium, Dubai",0
24.99203100000006,55.49997799999987,3868,DSZ,"Sevens Stadium, Dubai",96381,Dubai,51,Dubai,0,"Sevens Stadium, Dubai",0
24.99203100000006,55.50997799999987,3868,DSZ,"Sevens Stadium, Dubai",96381,Dubai,51,Dubai,0,"Sevens Stadium, Dubai",0
25.002031000000063,55.029977999999964,3833,DSZ,Jafza,51003,Dubai,51,Dubai,0,Jafza,0
25.002031000000063,55.03997799999996,3833,DSZ,Jafza,51003,Dubai,51,Dubai,0,Jafza,0
25.002031000000063,55.04997799999996,3833,DSZ,Jafza,51003,Dubai,51,Dubai,0,Jafza,0
25.002031000000063,55.05997799999996,3833,DSZ,Jafza,51003,Dubai,51,Dubai,0,Jafza,0
25.002031000000063,55.069977999999956,3833,DSZ,Jafza,51003,Dubai,51,Dubai,0,Jafza,0
25.002031000000063,55.079977999999954,3833,DSZ,Jafza,51003,Dubai,51,Dubai,0,Jafza,0
25.002031000000063,55.08997799999995,3834,DSZ,,51004,Dubai,51,Dubai,0, ,0
25.002031000000063,55.09997799999995,3834,DSZ,,51004,Dubai,51,Dubai,0, ,0
25.002031000000063,55.10997799999995,3834,DSZ,,51004,Dubai,51,Dubai,0, ,0
25.002031000000063,55.119977999999946,3834,DSZ,,51004,Dubai,51,Dubai,0, ,0
25.002031000000063,55.129977999999944,3834,DSZ,,51004,Dubai,51,Dubai,0, ,0
25.002031000000063,55.13997799999994,3834,DSZ,,51004,Dubai,51,Dubai,0, ,0
25.002031000000063,55.14997799999994,3837,DSZ,Green Community Village,51002,Dubai,51,Dubai,0,Green Community Village,0
25.002031000000063,55.15997799999994,3837,DSZ,Green Community Village,51002,Dubai,51,Dubai,0,Green Community Village,0
25.002031000000063,55.16997799999994,3837,DSZ,Green Community Village,51002,Dubai,51,Dubai,0,Green Community Village,0
25.002031000000063,55.179977999999934,3837,DSZ,Green Community Village,51002,Dubai,51,Dubai,0,Green Community Village,0
25.002031000000063,55.18997799999993,3837,DSZ,Green Community Village,51002,Dubai,51,Dubai,0,Green Community Village,0
25.002031000000063,55.19997799999993,3832,DSZ,Dubai Investment Park 2,51001,Dubai,51,Dubai,0,Dubai Investment Park 2,0
25.002031000000063,55.20997799999993,3832,DSZ,Dubai Investment Park 2,51001,Dubai,51,Dubai,0,Dubai Investment Park 2,0
25.002031000000063,55.21997799999993,4714,DSZ,Remraam,0,Dubai,51,Dubai,0,Remraam,0
25.002031000000063,55.229977999999925,4714,DSZ,Remraam,0,Dubai,51,Dubai,0,Remraam,0
25.002031000000063,55.23997799999992,4714,DSZ,Remraam,0,Dubai,51,Dubai,0,Remraam,0
25.002031000000063,55.24997799999992,4714,DSZ,Remraam,0,Dubai,51,Dubai,0,Remraam,0
25.002031000000063,55.25997799999992,4714,DSZ,Remraam,0,Dubai,51,Dubai,0,Remraam,0
25.002031000000063,55.26997799999992,4714,DSZ,Remraam,0,Dubai,51,Dubai,0,Remraam,0
25.002031000000063,55.279977999999915,7977,DSZ,Layan Community,0,Dubai,51,Dubai,0,Layan Community,0
25.002031000000063,55.28997799999991,7977,DSZ,Layan Community,0,Dubai,51,Dubai,0,Layan Community,0
25.002031000000063,55.29997799999991,7977,DSZ,Layan Community,0,Dubai,51,Dubai,0,Layan Community,0
25.002031000000063,55.30997799999991,7977,DSZ,Layan Community,0,Dubai,51,Dubai,0,Layan Community,0
25.002031000000063,55.31997799999991,7977,DSZ,Layan Community,0,Dubai,51,Dubai,0,Layan Community,0
25.002031000000063,55.329977999999905,7977,DSZ,Layan Community,0,Dubai,51,Dubai,0,Layan Community,0
25.002031000000063,55.41997799999989,3868,DSZ,"Sevens Stadium, Dubai",96381,Dubai,51,Dubai,0,"Sevens Stadium, Dubai",0
25.002031000000063,55.429977999999885,3868,DSZ,"Sevens Stadium, Dubai",96381,Dubai,51,Dubai,0,"Sevens Stadium, Dubai",0
25.002031000000063,55.43997799999988,3868,DSZ,"Sevens Stadium, Dubai",96381,Dubai,51,Dubai,0,"Sevens Stadium, Dubai",0
25.002031000000063,55.44997799999988,3868,DSZ,"Sevens Stadium, Dubai",96381,Dubai,51,Dubai,0,"Sevens Stadium, Dubai",0
25.002031000000063,55.45997799999988,3868,DSZ,"Sevens Stadium, Dubai",96381,Dubai,51,Dubai,0,"Sevens Stadium, Dubai",0
25.002031000000063,55.46997799999988,3868,DSZ,"Sevens Stadium, Dubai",96381,Dubai,51,Dubai,0,"Sevens Stadium, Dubai",0
25.002031000000063,55.479977999999875,3868,DSZ,"Sevens Stadium, Dubai",96381,Dubai,51,Dubai,0,"Sevens Stadium, Dubai",0
25.002031000000063,55.48997799999987,3868,DSZ,"Sevens Stadium, Dubai",96381,Dubai,51,Dubai,0,"Sevens Stadium, Dubai",0
25.002031000000063,55.49997799999987,3868,DSZ,"Sevens Stadium, Dubai",96381,Dubai,51,Dubai,0,"Sevens Stadium, Dubai",0
25.002031000000063,55.50997799999987,3868,DSZ,"Sevens Stadium, Dubai",96381,Dubai,51,Dubai,0,"Sevens Stadium, Dubai",0
25.012031000000064,55.029977999999964,3833,DSZ,Jafza,51003,Dubai,51,Dubai,0,Jafza,0
25.012031000000064,55.03997799999996,3833,DSZ,Jafza,51003,Dubai,51,Dubai,0,Jafza,0
25.012031000000064,55.04997799999996,3833,DSZ,Jafza,51003,Dubai,51,Dubai,0,Jafza,0
25.012031000000064,55.05997799999996,3833,DSZ,Jafza,51003,Dubai,51,Dubai,0,Jafza,0
25.012031000000064,55.069977999999956,3833,DSZ,Jafza,51003,Dubai,51,Dubai,0,Jafza,0
25.012031000000064,55.079977999999954,3834,DSZ,,51004,Dubai,51,Dubai,0, ,0
25.012031000000064,55.08997799999995,3834,DSZ,,51004,Dubai,51,Dubai,0, ,0
25.012031000000064,55.09997799999995,3834,DSZ,,51004,Dubai,51,Dubai,0, ,0
25.012031000000064,55.10997799999995,3834,DSZ,,51004,Dubai,51,Dubai,0, ,0
25.012031000000064,55.119977999999946,3834,DSZ,,51004,Dubai,51,Dubai,0, ,0
25.012031000000064,55.129977999999944,3835,DSZ,Jebel Ali Village,82228,Dubai,51,Dubai,0,Jebel Ali Village,0
25.012031000000064,55.13997799999994,4726,DSZ,Al Furjan,51102,Dubai,51,Dubai,0,Al Furjan,0
25.012031000000064,55.14997799999994,4726,DSZ,Al Furjan,51102,Dubai,51,Dubai,0,Al Furjan,0
25.012031000000064,55.15997799999994,3837,DSZ,Green Community Village,51002,Dubai,51,Dubai,0,Green Community Village,0
25.012031000000064,55.16997799999994,3837,DSZ,Green Community Village,51002,Dubai,51,Dubai,0,Green Community Village,0
25.012031000000064,55.179977999999934,3837,DSZ,Green Community Village,51002,Dubai,51,Dubai,0,Green Community Village,0
25.012031000000064,55.18997799999993,4713,DSZ,International Media Production Zone,85051,Dubai,51,Dubai,0,International Media Production Zone,0
25.012031000000064,55.19997799999993,4713,DSZ,International Media Production Zone,85051,Dubai,51,Dubai,0,International Media Production Zone,0
25.012031000000064,55.20997799999993,4713,DSZ,International Media Production Zone,85051,Dubai,51,Dubai,0,International Media Production Zone,0
25.012031000000064,55.21997799999993,3825,DSZ,Dubai Sports City,85051,Dubai,51,Dubai,0,Dubai Sports City,0
25.012031000000064,55.229977999999925,4714,DSZ,Remraam,0,Dubai,51,Dubai,0,Remraam,0
25.012031000000064,55.23997799999992,4714,DSZ,Remraam,0,Dubai,51,Dubai,0,Remraam,0
25.012031000000064,55.24997799999992,4714,DSZ,Remraam,0,Dubai,51,Dubai,0,Remraam,0
25.012031000000064,55.25997799999992,4714,DSZ,Remraam,0,Dubai,51,Dubai,0,Remraam,0
25.012031000000064,55.26997799999992,7977,DSZ,Layan Community,0,Dubai,51,Dubai,0,Layan Community,0
25.012031000000064,55.279977999999915,7977,DSZ,Layan Community,0,Dubai,51,Dubai,0,Layan Community,0
25.012031000000064,55.28997799999991,7977,DSZ,Layan Community,0,Dubai,51,Dubai,0,Layan Community,0
25.012031000000064,55.29997799999991,7977,DSZ,Layan Community,0,Dubai,51,Dubai,0,Layan Community,0
25.012031000000064,55.30997799999991,7977,DSZ,Layan Community,0,Dubai,51,Dubai,0,Layan Community,0
25.012031000000064,55.31997799999991,7977,DSZ,Layan Community,0,Dubai,51,Dubai,0,Layan Community,0
25.012031000000064,55.329977999999905,7977,DSZ,Layan Community,0,Dubai,51,Dubai,0,Layan Community,0
25.012031000000064,55.41997799999989,3868,DSZ,"Sevens Stadium, Dubai",96381,Dubai,51,Dubai,0,"Sevens Stadium, Dubai",0
25.012031000000064,55.429977999999885,3868,DSZ,"Sevens Stadium, Dubai",96381,Dubai,51,Dubai,0,"Sevens Stadium, Dubai",0
25.012031000000064,55.43997799999988,3868,DSZ,"Sevens Stadium, Dubai",96381,Dubai,51,Dubai,0,"Sevens Stadium, Dubai",0
25.012031000000064,55.44997799999988,3868,DSZ,"Sevens Stadium, Dubai",96381,Dubai,51,Dubai,0,"Sevens Stadium, Dubai",0
25.012031000000064,55.45997799999988,3868,DSZ,"Sevens Stadium, Dubai",96381,Dubai,51,Dubai,0,"Sevens Stadium, Dubai",0
25.012031000000064,55.46997799999988,3868,DSZ,"Sevens Stadium, Dubai",96381,Dubai,51,Dubai,0,"Sevens Stadium, Dubai",0
25.012031000000064,55.479977999999875,3868,DSZ,"Sevens Stadium, Dubai",96381,Dubai,51,Dubai,0,"Sevens Stadium, Dubai",0
25.012031000000064,55.48997799999987,3868,DSZ,"Sevens Stadium, Dubai",96381,Dubai,51,Dubai,0,"Sevens Stadium, Dubai",0
25.012031000000064,55.49997799999987,3868,DSZ,"Sevens Stadium, Dubai",96381,Dubai,51,Dubai,0,"Sevens Stadium, Dubai",0
25.012031000000064,55.50997799999987,3868,DSZ,"Sevens Stadium, Dubai",96381,Dubai,51,Dubai,0,"Sevens Stadium, Dubai",0
25.022031000000066,55.079977999999954,3834,DSZ,,51004,Dubai,51,Dubai,0, ,0
25.022031000000066,55.08997799999995,3834,DSZ,,51004,Dubai,51,Dubai,0, ,0
25.022031000000066,55.09997799999995,3835,DSZ,Jebel Ali Village,82228,Dubai,51,Dubai,0,Jebel Ali Village,0
25.022031000000066,55.10997799999995,3835,DSZ,Jebel Ali Village,82228,Dubai,51,Dubai,0,Jebel Ali Village,0
25.022031000000066,55.119977999999946,3835,DSZ,Jebel Ali Village,82228,Dubai,51,Dubai,0,Jebel Ali Village,0
25.022031000000066,55.129977999999944,3835,DSZ,Jebel Ali Village,82228,Dubai,51,Dubai,0,Jebel Ali Village,0
25.022031000000066,55.13997799999994,4726,DSZ,Al Furjan,51102,Dubai,51,Dubai,0,Al Furjan,0
25.022031000000066,55.14997799999994,4726,DSZ,Al Furjan,51102,Dubai,51,Dubai,0,Al Furjan,0
25.022031000000066,55.15997799999994,4726,DSZ,Al Furjan,51102,Dubai,51,Dubai,0,Al Furjan,0
25.022031000000066,55.16997799999994,4713,DSZ,International Media Production Zone,85051,Dubai,51,Dubai,0,International Media Production Zone,0
25.022031000000066,55.179977999999934,4713,DSZ,International Media Production Zone,85051,Dubai,51,Dubai,0,International Media Production Zone,0
25.022031000000066,55.18997799999993,4713,DSZ,International Media Production Zone,85051,Dubai,51,Dubai,0,International Media Production Zone,0
25.022031000000066,55.19997799999993,4713,DSZ,International Media Production Zone,85051,Dubai,51,Dubai,0,International Media Production Zone,0
25.022031000000066,55.21997799999993,3825,DSZ,Dubai Sports City,85051,Dubai,51,Dubai,0,Dubai Sports City,0
25.022031000000066,55.229977999999925,3825,DSZ,Dubai Sports City,85051,Dubai,51,Dubai,0,Dubai Sports City,0
25.022031000000066,55.23997799999992,4714,DSZ,Remraam,0,Dubai,51,Dubai,0,Remraam,0
25.022031000000066,55.24997799999992,7978,DSZ,Dubai Studio City,0,Dubai,51,Dubai,0,Dubai Studio City,0
25.022031000000066,55.25997799999992,7977,DSZ,Layan Community,0,Dubai,51,Dubai,0,Layan Community,0
25.022031000000066,55.26997799999992,7977,DSZ,Layan Community,0,Dubai,51,Dubai,0,Layan Community,0
25.022031000000066,55.279977999999915,7977,DSZ,Layan Community,0,Dubai,51,Dubai,0,Layan Community,0
25.022031000000066,55.28997799999991,7977,DSZ,Layan Community,0,Dubai,51,Dubai,0,Layan Community,0
25.022031000000066,55.29997799999991,7977,DSZ,Layan Community,0,Dubai,51,Dubai,0,Layan Community,0
25.022031000000066,55.30997799999991,7977,DSZ,Layan Community,0,Dubai,51,Dubai,0,Layan Community,0
25.022031000000066,55.31997799999991,7977,DSZ,Layan Community,0,Dubai,51,Dubai,0,Layan Community,0
25.022031000000066,55.329977999999905,7977,DSZ,Layan Community,0,Dubai,51,Dubai,0,Layan Community,0
25.022031000000066,55.3399779999999,3866,DSZ,Dubai Land,51603,Dubai,51,Dubai,0,Dubai Land,0
25.022031000000066,55.3499779999999,3866,DSZ,Dubai Land,51603,Dubai,51,Dubai,0,Dubai Land,0
25.022031000000066,55.41997799999989,3868,DSZ,"Sevens Stadium, Dubai",96381,Dubai,51,Dubai,0,"Sevens Stadium, Dubai",0
25.022031000000066,55.429977999999885,3868,DSZ,"Sevens Stadium, Dubai",96381,Dubai,51,Dubai,0,"Sevens Stadium, Dubai",0
25.022031000000066,55.43997799999988,3868,DSZ,"Sevens Stadium, Dubai",96381,Dubai,51,Dubai,0,"Sevens Stadium, Dubai",0
25.022031000000066,55.44997799999988,3868,DSZ,"Sevens Stadium, Dubai",96381,Dubai,51,Dubai,0,"Sevens Stadium, Dubai",0
25.022031000000066,55.45997799999988,3868,DSZ,"Sevens Stadium, Dubai",96381,Dubai,51,Dubai,0,"Sevens Stadium, Dubai",0
25.022031000000066,55.46997799999988,3868,DSZ,"Sevens Stadium, Dubai",96381,Dubai,51,Dubai,0,"Sevens Stadium, Dubai",0
25.022031000000066,55.479977999999875,3868,DSZ,"Sevens Stadium, Dubai",96381,Dubai,51,Dubai,0,"Sevens Stadium, Dubai",0
25.022031000000066,55.48997799999987,3868,DSZ,"Sevens Stadium, Dubai",96381,Dubai,51,Dubai,0,"Sevens Stadium, Dubai",0
25.022031000000066,55.49997799999987,3868,DSZ,"Sevens Stadium, Dubai",96381,Dubai,51,Dubai,0,"Sevens Stadium, Dubai",0
25.022031000000066,55.50997799999987,3868,DSZ,"Sevens Stadium, Dubai",96381,Dubai,51,Dubai,0,"Sevens Stadium, Dubai",0
25.032031000000067,55.079977999999954,3838,DSZ,"The Gardens, Dubai",51107,Dubai,51,Dubai,0,"The Gardens, Dubai",0
25.032031000000067,55.08997799999995,3838,DSZ,"The Gardens, Dubai",51107,Dubai,51,Dubai,0,"The Gardens, Dubai",0
25.032031000000067,55.09997799999995,3838,DSZ,"The Gardens, Dubai",51107,Dubai,51,Dubai,0,"The Gardens, Dubai",0
25.032031000000067,55.10997799999995,3838,DSZ,"The Gardens, Dubai",51107,Dubai,51,Dubai,0,"The Gardens, Dubai",0
25.032031000000067,55.119977999999946,3838,DSZ,"The Gardens, Dubai",51107,Dubai,51,Dubai,0,"The Gardens, Dubai",0
25.032031000000067,55.129977999999944,3835,DSZ,Jebel Ali Village,82228,Dubai,51,Dubai,0,Jebel Ali Village,0
25.032031000000067,55.13997799999994,3835,DSZ,Jebel Ali Village,82228,Dubai,51,Dubai,0,Jebel Ali Village,0
25.032031000000067,55.14997799999994,4726,DSZ,Al Furjan,51102,Dubai,51,Dubai,0,Al Furjan,0
25.032031000000067,55.15997799999994,4726,DSZ,Al Furjan,51102,Dubai,51,Dubai,0,Al Furjan,0
25.032031000000067,55.16997799999994,4713,DSZ,International Media Production Zone,85051,Dubai,51,Dubai,0,International Media Production Zone,0
25.032031000000067,55.179977999999934,4713,DSZ,International Media Production Zone,85051,Dubai,51,Dubai,0,International Media Production Zone,0
25.032031000000067,55.18997799999993,4713,DSZ,International Media Production Zone,85051,Dubai,51,Dubai,0,International Media Production Zone,0
25.032031000000067,55.19997799999993,4713,DSZ,International Media Production Zone,85051,Dubai,51,Dubai,0,International Media Production Zone,0
25.032031000000067,55.20997799999993,3825,DSZ,Dubai Sports City,85051,Dubai,51,Dubai,0,Dubai Sports City,0
25.032031000000067,55.21997799999993,3825,DSZ,Dubai Sports City,85051,Dubai,51,Dubai,0,Dubai Sports City,0
25.032031000000067,55.229977999999925,3825,DSZ,Dubai Sports City,85051,Dubai,51,Dubai,0,Dubai Sports City,0
25.032031000000067,55.23997799999992,3827,DSZ,Motor City,51308,Dubai,51,Dubai,0,Motor City,0
25.032031000000067,55.24997799999992,7978,DSZ,Dubai Studio City,0,Dubai,51,Dubai,0,Dubai Studio City,0
25.032031000000067,55.25997799999992,7978,DSZ,Dubai Studio City,0,Dubai,51,Dubai,0,Dubai Studio City,0
25.032031000000067,55.26997799999992,7977,DSZ,Layan Community,0,Dubai,51,Dubai,0,Layan Community,0
25.032031000000067,55.279977999999915,7977,DSZ,Layan Community,0,Dubai,51,Dubai,0,Layan Community,0
25.032031000000067,55.28997799999991,7977,DSZ,Layan Community,0,Dubai,51,Dubai,0,Layan Community,0
25.032031000000067,55.29997799999991,7977,DSZ,Layan Community,0,Dubai,51,Dubai,0,Layan Community,0
25.032031000000067,55.30997799999991,7977,DSZ,Layan Community,0,Dubai,51,Dubai,0,Layan Community,0
25.032031000000067,55.31997799999991,7977,DSZ,Layan Community,0,Dubai,51,Dubai,0,Layan Community,0
25.032031000000067,55.329977999999905,3866,DSZ,Dubai Land,51603,Dubai,51,Dubai,0,Dubai Land,0
25.032031000000067,55.3399779999999,3866,DSZ,Dubai Land,51603,Dubai,51,Dubai,0,Dubai Land,0
25.032031000000067,55.3499779999999,3866,DSZ,Dubai Land,51603,Dubai,51,Dubai,0,Dubai Land,0
25.032031000000067,55.41997799999989,3868,DSZ,"Sevens Stadium, Dubai",96381,Dubai,51,Dubai,0,"Sevens Stadium, Dubai",0
25.032031000000067,55.429977999999885,3868,DSZ,"Sevens Stadium, Dubai",96381,Dubai,51,Dubai,0,"Sevens Stadium, Dubai",0
25.032031000000067,55.43997799999988,3868,DSZ,"Sevens Stadium, Dubai",96381,Dubai,51,Dubai,0,"Sevens Stadium, Dubai",0
25.032031000000067,55.44997799999988,3868,DSZ,"Sevens Stadium, Dubai",96381,Dubai,51,Dubai,0,"Sevens Stadium, Dubai",0
25.032031000000067,55.45997799999988,3868,DSZ,"Sevens Stadium, Dubai",96381,Dubai,51,Dubai,0,"Sevens Stadium, Dubai",0
25.032031000000067,55.46997799999988,3868,DSZ,"Sevens Stadium, Dubai",96381,Dubai,51,Dubai,0,"Sevens Stadium, Dubai",0
25.032031000000067,55.479977999999875,3868,DSZ,"Sevens Stadium, Dubai",96381,Dubai,51,Dubai,0,"Sevens Stadium, Dubai",0
25.032031000000067,55.48997799999987,3868,DSZ,"Sevens Stadium, Dubai",96381,Dubai,51,Dubai,0,"Sevens Stadium, Dubai",0
25.032031000000067,55.49997799999987,3868,DSZ,"Sevens Stadium, Dubai",96381,Dubai,51,Dubai,0,"Sevens Stadium, Dubai",0
25.032031000000067,55.50997799999987,3868,DSZ,"Sevens Stadium, Dubai",96381,Dubai,51,Dubai,0,"Sevens Stadium, Dubai",0
25.04203100000007,55.079977999999954,3838,DSZ,"The Gardens, Dubai",51107,Dubai,51,Dubai,0,"The Gardens, Dubai",0
25.04203100000007,55.08997799999995,3838,DSZ,"The Gardens, Dubai",51107,Dubai,51,Dubai,0,"The Gardens, Dubai",0
25.04203100000007,55.09997799999995,3838,DSZ,"The Gardens, Dubai",51107,Dubai,51,Dubai,0,"The Gardens, Dubai",0
25.04203100000007,55.10997799999995,3838,DSZ,"The Gardens, Dubai",51107,Dubai,51,Dubai,0,"The Gardens, Dubai",0
25.04203100000007,55.119977999999946,3838,DSZ,"The Gardens, Dubai",51107,Dubai,51,Dubai,0,"The Gardens, Dubai",0
25.04203100000007,55.129977999999944,3838,DSZ,"The Gardens, Dubai",51107,Dubai,51,Dubai,0,"The Gardens, Dubai",0
25.04203100000007,55.13997799999994,3836,DSZ,Discovery Gardens,51102,Dubai,51,Dubai,0,Discovery Gardens,0
25.04203100000007,55.14997799999994,3836,DSZ,Discovery Gardens,51102,Dubai,51,Dubai,0,Discovery Gardens,0
25.04203100000007,55.15997799999994,7980,DSZ,Jumeirah Park,0,Dubai,51,Dubai,0,Jumeirah Park,0
25.04203100000007,55.16997799999994,7980,DSZ,Jumeirah Park,0,Dubai,51,Dubai,0,Jumeirah Park,0
25.04203100000007,55.179977999999934,4716,DSZ,Jumeirah Village Triangle,0,Dubai,51,Dubai,0,Jumeirah Village Triangle,0
25.04203100000007,55.18997799999993,4716,DSZ,Jumeirah Village Triangle,0,Dubai,51,Dubai,0,Jumeirah Village Triangle,0
25.04203100000007,55.19997799999993,4716,DSZ,Jumeirah Village Triangle,0,Dubai,51,Dubai,0,Jumeirah Village Triangle,0
25.04203100000007,55.20997799999993,3825,DSZ,Dubai Sports City,85051,Dubai,51,Dubai,0,Dubai Sports City,0
25.04203100000007,55.21997799999993,3825,DSZ,Dubai Sports City,85051,Dubai,51,Dubai,0,Dubai Sports City,0
25.04203100000007,55.24997799999992,7978,DSZ,Dubai Studio City,0,Dubai,51,Dubai,0,Dubai Studio City,0
25.04203100000007,55.25997799999992,7978,DSZ,Dubai Studio City,0,Dubai,51,Dubai,0,Dubai Studio City,0
25.04203100000007,55.26997799999992,3824,DSZ,Arabian Ranches,51302,Dubai,51,Dubai,0,Arabian Ranches,0
25.04203100000007,55.279977999999915,3824,DSZ,Arabian Ranches,51302,Dubai,51,Dubai,0,Arabian Ranches,0
25.04203100000007,55.28997799999991,3824,DSZ,Arabian Ranches,51302,Dubai,51,Dubai,0,Arabian Ranches,0
25.04203100000007,55.29997799999991,7977,DSZ,Layan Community,0,Dubai,51,Dubai,0,Layan Community,0
25.04203100000007,55.30997799999991,3866,DSZ,Dubai Land,51603,Dubai,51,Dubai,0,Dubai Land,0
25.04203100000007,55.31997799999991,3866,DSZ,Dubai Land,51603,Dubai,51,Dubai,0,Dubai Land,0
25.04203100000007,55.329977999999905,3866,DSZ,Dubai Land,51603,Dubai,51,Dubai,0,Dubai Land,0
25.04203100000007,55.3399779999999,3866,DSZ,Dubai Land,51603,Dubai,51,Dubai,0,Dubai Land,0
25.04203100000007,55.3499779999999,3866,DSZ,Dubai Land,51603,Dubai,51,Dubai,0,Dubai Land,0
25.05203100000007,55.079977999999954,3838,DSZ,"The Gardens, Dubai",51107,Dubai,51,Dubai,0,"The Gardens, Dubai",0
25.05203100000007,55.08997799999995,3838,DSZ,"The Gardens, Dubai",51107,Dubai,51,Dubai,0,"The Gardens, Dubai",0
25.05203100000007,55.09997799999995,3838,DSZ,"The Gardens, Dubai",51107,Dubai,51,Dubai,0,"The Gardens, Dubai",0
25.05203100000007,55.10997799999995,3838,DSZ,"The Gardens, Dubai",51107,Dubai,51,Dubai,0,"The Gardens, Dubai",0
25.05203100000007,55.119977999999946,3838,DSZ,"The Gardens, Dubai",51107,Dubai,51,Dubai,0,"The Gardens, Dubai",0
25.05203100000007,55.129977999999944,3838,DSZ,"The Gardens, Dubai",51107,Dubai,51,Dubai,0,"The Gardens, Dubai",0
25.05203100000007,55.13997799999994,3836,DSZ,Discovery Gardens,51102,Dubai,51,Dubai,0,Discovery Gardens,0
25.05203100000007,55.14997799999994,7980,DSZ,Jumeirah Park,0,Dubai,51,Dubai,0,Jumeirah Park,0
25.05203100000007,55.15997799999994,3850,DSZ,Jumeirah Islands,51105,Dubai,51,Dubai,0,Jumeirah Islands,0
25.05203100000007,55.16997799999994,3850,DSZ,Jumeirah Islands,51105,Dubai,51,Dubai,0,Jumeirah Islands,0
25.05203100000007,55.179977999999934,7724,DSZ,"Springs, Emirates Hills",0,Dubai,51,Dubai,0,"Springs, Emirates Hills",0
25.05203100000007,55.18997799999993,4716,DSZ,Jumeirah Village Triangle,0,Dubai,51,Dubai,0,Jumeirah Village Triangle,0
25.05203100000007,55.19997799999993,3790,DSZ,Jumeirah Village Circle,84681,Dubai,51,Dubai,0,Jumeirah Village Circle,0
25.05203100000007,55.20997799999993,3790,DSZ,Jumeirah Village Circle,84681,Dubai,51,Dubai,0,Jumeirah Village Circle,0
25.05203100000007,55.21997799999993,3790,DSZ,Jumeirah Village Circle,84681,Dubai,51,Dubai,0,Jumeirah Village Circle,0
25.05203100000007,55.229977999999925,3827,DSZ,Motor City,51308,Dubai,51,Dubai,0,Motor City,0
25.05203100000007,55.23997799999992,3827,DSZ,Motor City,51308,Dubai,51,Dubai,0,Motor City,0
25.05203100000007,55.24997799999992,7978,DSZ,Dubai Studio City,0,Dubai,51,Dubai,0,Dubai Studio City,0
25.05203100000007,55.25997799999992,3824,DSZ,Arabian Ranches,51302,Dubai,51,Dubai,0,Arabian Ranches,0
25.05203100000007,55.26997799999992,3824,DSZ,Arabian Ranches,51302,Dubai,51,Dubai,0,Arabian Ranches,0
25.05203100000007,55.279977999999915,3824,DSZ,Arabian Ranches,51302,Dubai,51,Dubai,0,Arabian Ranches,0
25.05203100000007,55.28997799999991,3824,DSZ,Arabian Ranches,51302,Dubai,51,Dubai,0,Arabian Ranches,0
25.05203100000007,55.29997799999991,3866,DSZ,Dubai Land,51603,Dubai,51,Dubai,0,Dubai Land,0
25.05203100000007,55.30997799999991,3866,DSZ,Dubai Land,51603,Dubai,51,Dubai,0,Dubai Land,0
25.05203100000007,55.31997799999991,3866,DSZ,Dubai Land,51603,Dubai,51,Dubai,0,Dubai Land,0
25.05203100000007,55.329977999999905,3866,DSZ,Dubai Land,51603,Dubai,51,Dubai,0,Dubai Land,0
25.05203100000007,55.3399779999999,3866,DSZ,Dubai Land,51603,Dubai,51,Dubai,0,Dubai Land,0
25.05203100000007,55.3499779999999,8460,DSZ,The Villa,0,Dubai,51,Dubai,0,The Villa,0
25.05203100000007,55.3599779999999,8460,DSZ,The Villa,0,Dubai,51,Dubai,0,The Villa,0
25.05203100000007,55.3699779999999,8460,DSZ,The Villa,0,Dubai,51,Dubai,0,The Villa,0
25.05203100000007,55.379977999999895,8460,DSZ,The Villa,0,Dubai,51,Dubai,0,The Villa,0
25.05203100000007,55.38997799999989,8467,DSZ,Sky Courts,0,Dubai,51,Dubai,0,Sky Courts,0
25.05203100000007,55.39997799999989,8467,DSZ,Sky Courts,0,Dubai,51,Dubai,0,Sky Courts,0
25.05203100000007,55.40997799999989,8467,DSZ,Sky Courts,0,Dubai,51,Dubai,0,Sky Courts,0
25.05203100000007,55.41997799999989,8467,DSZ,Sky Courts,0,Dubai,51,Dubai,0,Sky Courts,0
25.05203100000007,55.429977999999885,8467,DSZ,Sky Courts,0,Dubai,51,Dubai,0,Sky Courts,0
25.062031000000072,55.079977999999954,3838,DSZ,"The Gardens, Dubai",51107,Dubai,51,Dubai,0,"The Gardens, Dubai",0
25.062031000000072,55.08997799999995,3838,DSZ,"The Gardens, Dubai",51107,Dubai,51,Dubai,0,"The Gardens, Dubai",0
25.062031000000072,55.09997799999995,3838,DSZ,"The Gardens, Dubai",51107,Dubai,51,Dubai,0,"The Gardens, Dubai",0
25.062031000000072,55.10997799999995,3838,DSZ,"The Gardens, Dubai",51107,Dubai,51,Dubai,0,"The Gardens, Dubai",0
25.062031000000072,55.119977999999946,3838,DSZ,"The Gardens, Dubai",51107,Dubai,51,Dubai,0,"The Gardens, Dubai",0
25.062031000000072,55.129977999999944,7979,DSZ,Jumeirah Heights,0,Dubai,51,Dubai,0,Jumeirah Heights,0
25.062031000000072,55.13997799999994,3851,DSZ,Jumeirah Lake Towers JLT,51106,Dubai,51,Dubai,0,Jumeirah Lake Towers JLT,0
25.062031000000072,55.14997799999994,7979,DSZ,Jumeirah Heights,0,Dubai,51,Dubai,0,Jumeirah Heights,0
25.062031000000072,55.15997799999994,3850,DSZ,Jumeirah Islands,51105,Dubai,51,Dubai,0,Jumeirah Islands,0
25.062031000000072,55.16997799999994,7725,DSZ,"Meadows, Emirates Hills",0,Dubai,51,Dubai,0,"Meadows, Emirates Hills",0
25.062031000000072,55.179977999999934,7724,DSZ,"Springs, Emirates Hills",0,Dubai,51,Dubai,0,"Springs, Emirates Hills",0
25.062031000000072,55.18997799999993,7724,DSZ,"Springs, Emirates Hills",0,Dubai,51,Dubai,0,"Springs, Emirates Hills",0
25.062031000000072,55.19997799999993,3790,DSZ,Jumeirah Village Circle,84681,Dubai,51,Dubai,0,Jumeirah Village Circle,0
25.062031000000072,55.20997799999993,3790,DSZ,Jumeirah Village Circle,84681,Dubai,51,Dubai,0,Jumeirah Village Circle,0
25.062031000000072,55.21997799999993,3790,DSZ,Jumeirah Village Circle,84681,Dubai,51,Dubai,0,Jumeirah Village Circle,0
25.062031000000072,55.229977999999925,3789,DSZ,Al Barsha South,51306,Dubai,51,Dubai,0,Al Barsha South,0
25.062031000000072,55.23997799999992,3789,DSZ,Al Barsha South,51306,Dubai,51,Dubai,0,Al Barsha South,0
25.062031000000072,55.24997799999992,3827,DSZ,Motor City,51308,Dubai,51,Dubai,0,Motor City,0
25.062031000000072,55.25997799999992,3824,DSZ,Arabian Ranches,51302,Dubai,51,Dubai,0,Arabian Ranches,0
25.062031000000072,55.26997799999992,3824,DSZ,Arabian Ranches,51302,Dubai,51,Dubai,0,Arabian Ranches,0
25.062031000000072,55.279977999999915,3824,DSZ,Arabian Ranches,51302,Dubai,51,Dubai,0,Arabian Ranches,0
25.062031000000072,55.28997799999991,3824,DSZ,Arabian Ranches,51302,Dubai,51,Dubai,0,Arabian Ranches,0
25.062031000000072,55.29997799999991,3866,DSZ,Dubai Land,51603,Dubai,51,Dubai,0,Dubai Land,0
25.062031000000072,55.30997799999991,3866,DSZ,Dubai Land,51603,Dubai,51,Dubai,0,Dubai Land,0
25.062031000000072,55.31997799999991,3866,DSZ,Dubai Land,51603,Dubai,51,Dubai,0,Dubai Land,0
25.062031000000072,55.329977999999905,3866,DSZ,Dubai Land,51603,Dubai,51,Dubai,0,Dubai Land,0
25.062031000000072,55.3399779999999,3866,DSZ,Dubai Land,51603,Dubai,51,Dubai,0,Dubai Land,0
25.062031000000072,55.3499779999999,8460,DSZ,The Villa,0,Dubai,51,Dubai,0,The Villa,0
25.062031000000072,55.3599779999999,8460,DSZ,The Villa,0,Dubai,51,Dubai,0,The Villa,0
25.062031000000072,55.3699779999999,8460,DSZ,The Villa,0,Dubai,51,Dubai,0,The Villa,0
25.062031000000072,55.379977999999895,8467,DSZ,Sky Courts,0,Dubai,51,Dubai,0,Sky Courts,0
25.062031000000072,55.38997799999989,8467,DSZ,Sky Courts,0,Dubai,51,Dubai,0,Sky Courts,0
25.062031000000072,55.39997799999989,8467,DSZ,Sky Courts,0,Dubai,51,Dubai,0,Sky Courts,0
25.062031000000072,55.40997799999989,8467,DSZ,Sky Courts,0,Dubai,51,Dubai,0,Sky Courts,0
25.062031000000072,55.41997799999989,8467,DSZ,Sky Courts,0,Dubai,51,Dubai,0,Sky Courts,0
25.062031000000072,55.429977999999885,8467,DSZ,Sky Courts,0,Dubai,51,Dubai,0,Sky Courts,0
25.072031000000074,55.079977999999954,3838,DSZ,"The Gardens, Dubai",51107,Dubai,51,Dubai,0,"The Gardens, Dubai",0
25.072031000000074,55.08997799999995,3849,DSZ,Jumeirah Beach Residence JBR,51203,Dubai,51,Dubai,0,Jumeirah Beach Residence JBR,0
25.072031000000074,55.09997799999995,3849,DSZ,Jumeirah Beach Residence JBR,51203,Dubai,51,Dubai,0,Jumeirah Beach Residence JBR,0
25.072031000000074,55.10997799999995,3849,DSZ,Jumeirah Beach Residence JBR,51203,Dubai,51,Dubai,0,Jumeirah Beach Residence JBR,0
25.072031000000074,55.119977999999946,3849,DSZ,Jumeirah Beach Residence JBR,51203,Dubai,51,Dubai,0,Jumeirah Beach Residence JBR,0
25.072031000000074,55.129977999999944,3849,DSZ,Jumeirah Beach Residence JBR,51203,Dubai,51,Dubai,0,Jumeirah Beach Residence JBR,0
25.072031000000074,55.13997799999994,3851,DSZ,Jumeirah Lake Towers JLT,51106,Dubai,51,Dubai,0,Jumeirah Lake Towers JLT,0
25.072031000000074,55.14997799999994,3851,DSZ,Jumeirah Lake Towers JLT,51106,Dubai,51,Dubai,0,Jumeirah Lake Towers JLT,0
25.072031000000074,55.15997799999994,7726,DSZ,"Lakes, Emirates Hills",0,Dubai,51,Dubai,0,"Lakes, Emirates Hills",0
25.072031000000074,55.16997799999994,7726,DSZ,"Lakes, Emirates Hills",0,Dubai,51,Dubai,0,"Lakes, Emirates Hills",0
25.072031000000074,55.179977999999934,7725,DSZ,"Meadows, Emirates Hills",0,Dubai,51,Dubai,0,"Meadows, Emirates Hills",0
25.072031000000074,55.18997799999993,7724,DSZ,"Springs, Emirates Hills",0,Dubai,51,Dubai,0,"Springs, Emirates Hills",0
25.072031000000074,55.19997799999993,3790,DSZ,Jumeirah Village Circle,84681,Dubai,51,Dubai,0,Jumeirah Village Circle,0
25.072031000000074,55.20997799999993,3790,DSZ,Jumeirah Village Circle,84681,Dubai,51,Dubai,0,Jumeirah Village Circle,0
25.072031000000074,55.21997799999993,3789,DSZ,Al Barsha South,51306,Dubai,51,Dubai,0,Al Barsha South,0
25.072031000000074,55.229977999999925,3789,DSZ,Al Barsha South,51306,Dubai,51,Dubai,0,Al Barsha South,0
25.072031000000074,55.23997799999992,3789,DSZ,Al Barsha South,51306,Dubai,51,Dubai,0,Al Barsha South,0
25.072031000000074,55.24997799999992,3789,DSZ,Al Barsha South,51306,Dubai,51,Dubai,0,Al Barsha South,0
25.072031000000074,55.25997799999992,3824,DSZ,Arabian Ranches,51302,Dubai,51,Dubai,0,Arabian Ranches,0
25.072031000000074,55.26997799999992,3824,DSZ,Arabian Ranches,51302,Dubai,51,Dubai,0,Arabian Ranches,0
25.072031000000074,55.279977999999915,3824,DSZ,Arabian Ranches,51302,Dubai,51,Dubai,0,Arabian Ranches,0
25.072031000000074,55.28997799999991,3866,DSZ,Dubai Land,51603,Dubai,51,Dubai,0,Dubai Land,0
25.072031000000074,55.29997799999991,3866,DSZ,Dubai Land,51603,Dubai,51,Dubai,0,Dubai Land,0
25.072031000000074,55.31997799999991,3866,DSZ,Dubai Land,51603,Dubai,51,Dubai,0,Dubai Land,0
25.072031000000074,55.329977999999905,3866,DSZ,Dubai Land,51603,Dubai,51,Dubai,0,Dubai Land,0
25.072031000000074,55.3399779999999,8460,DSZ,The Villa,0,Dubai,51,Dubai,0,The Villa,0
25.072031000000074,55.3499779999999,8460,DSZ,The Villa,0,Dubai,51,Dubai,0,The Villa,0
25.072031000000074,55.3599779999999,8460,DSZ,The Villa,0,Dubai,51,Dubai,0,The Villa,0
25.072031000000074,55.3699779999999,8460,DSZ,The Villa,0,Dubai,51,Dubai,0,The Villa,0
25.072031000000074,55.379977999999895,8467,DSZ,Sky Courts,0,Dubai,51,Dubai,0,Sky Courts,0
25.072031000000074,55.38997799999989,8467,DSZ,Sky Courts,0,Dubai,51,Dubai,0,Sky Courts,0
25.072031000000074,55.39997799999989,8467,DSZ,Sky Courts,0,Dubai,51,Dubai,0,Sky Courts,0
25.072031000000074,55.40997799999989,8467,DSZ,Sky Courts,0,Dubai,51,Dubai,0,Sky Courts,0
25.072031000000074,55.41997799999989,8467,DSZ,Sky Courts,0,Dubai,51,Dubai,0,Sky Courts,0
25.072031000000074,55.429977999999885,8467,DSZ,Sky Courts,0,Dubai,51,Dubai,0,Sky Courts,0
25.072031000000074,55.43997799999988,3852,DSZ,"Academic City, Dubai",51601,Dubai,51,Dubai,0,"Academic City, Dubai",0
25.072031000000074,55.44997799999988,3852,DSZ,"Academic City, Dubai",51601,Dubai,51,Dubai,0,"Academic City, Dubai",0
25.082031000000075,55.079977999999954,3838,DSZ,"The Gardens, Dubai",51107,Dubai,51,Dubai,0,"The Gardens, Dubai",0
25.082031000000075,55.08997799999995,3849,DSZ,Jumeirah Beach Residence JBR,51203,Dubai,51,Dubai,0,Jumeirah Beach Residence JBR,0
25.082031000000075,55.09997799999995,3849,DSZ,Jumeirah Beach Residence JBR,51203,Dubai,51,Dubai,0,Jumeirah Beach Residence JBR,0
25.082031000000075,55.10997799999995,3849,DSZ,Jumeirah Beach Residence JBR,51203,Dubai,51,Dubai,0,Jumeirah Beach Residence JBR,0
25.082031000000075,55.119977999999946,3849,DSZ,Jumeirah Beach Residence JBR,51203,Dubai,51,Dubai,0,Jumeirah Beach Residence JBR,0
25.082031000000075,55.129977999999944,3849,DSZ,Jumeirah Beach Residence JBR,51203,Dubai,51,Dubai,0,Jumeirah Beach Residence JBR,0
25.082031000000075,55.13997799999994,3849,DSZ,Jumeirah Beach Residence JBR,51203,Dubai,51,Dubai,0,Jumeirah Beach Residence JBR,0
25.082031000000075,55.14997799999994,3847,DSZ,Dubai Marina,51201,Dubai,51,Dubai,0,Dubai Marina,0
25.082031000000075,55.15997799999994,7726,DSZ,"Lakes, Emirates Hills",0,Dubai,51,Dubai,0,"Lakes, Emirates Hills",0
25.082031000000075,55.16997799999994,7726,DSZ,"Lakes, Emirates Hills",0,Dubai,51,Dubai,0,"Lakes, Emirates Hills",0
25.082031000000075,55.179977999999934,7726,DSZ,"Lakes, Emirates Hills",0,Dubai,51,Dubai,0,"Lakes, Emirates Hills",0
25.082031000000075,55.18997799999993,3788,DSZ,Al Barsha 3,51305,Dubai,51,Dubai,0,Al Barsha 3,0
25.082031000000075,55.19997799999993,3788,DSZ,Al Barsha 3,51305,Dubai,51,Dubai,0,Al Barsha 3,0
25.082031000000075,55.20997799999993,3787,DSZ,Al Barsha 2,51304,Dubai,51,Dubai,0,Al Barsha 2,0
25.082031000000075,55.21997799999993,3789,DSZ,Al Barsha South,51306,Dubai,51,Dubai,0,Al Barsha South,0
25.082031000000075,55.229977999999925,3789,DSZ,Al Barsha South,51306,Dubai,51,Dubai,0,Al Barsha South,0
25.082031000000075,55.23997799999992,3789,DSZ,Al Barsha South,51306,Dubai,51,Dubai,0,Al Barsha South,0
25.082031000000075,55.24997799999992,3789,DSZ,Al Barsha South,51306,Dubai,51,Dubai,0,Al Barsha South,0
25.082031000000075,55.25997799999992,3789,DSZ,Al Barsha South,51306,Dubai,51,Dubai,0,Al Barsha South,0
25.082031000000075,55.26997799999992,3824,DSZ,Arabian Ranches,51302,Dubai,51,Dubai,0,Arabian Ranches,0
25.082031000000075,55.279977999999915,3824,DSZ,Arabian Ranches,51302,Dubai,51,Dubai,0,Arabian Ranches,0
25.082031000000075,55.28997799999991,3866,DSZ,Dubai Land,51603,Dubai,51,Dubai,0,Dubai Land,0
25.082031000000075,55.29997799999991,3866,DSZ,Dubai Land,51603,Dubai,51,Dubai,0,Dubai Land,0
25.082031000000075,55.30997799999991,3866,DSZ,Dubai Land,51603,Dubai,51,Dubai,0,Dubai Land,0
25.082031000000075,55.31997799999991,4727,DSZ,Al Barari,0,Dubai,51,Dubai,0,Al Barari,0
25.082031000000075,55.329977999999905,4727,DSZ,Al Barari,0,Dubai,51,Dubai,0,Al Barari,0
25.082031000000075,55.3399779999999,8460,DSZ,The Villa,0,Dubai,51,Dubai,0,The Villa,0
25.082031000000075,55.3499779999999,8460,DSZ,The Villa,0,Dubai,51,Dubai,0,The Villa,0
25.082031000000075,55.3599779999999,8460,DSZ,The Villa,0,Dubai,51,Dubai,0,The Villa,0
25.082031000000075,55.3699779999999,8460,DSZ,The Villa,0,Dubai,51,Dubai,0,The Villa,0
25.082031000000075,55.379977999999895,8467,DSZ,Sky Courts,0,Dubai,51,Dubai,0,Sky Courts,0
25.082031000000075,55.38997799999989,8467,DSZ,Sky Courts,0,Dubai,51,Dubai,0,Sky Courts,0
25.082031000000075,55.39997799999989,8467,DSZ,Sky Courts,0,Dubai,51,Dubai,0,Sky Courts,0
25.082031000000075,55.40997799999989,8467,DSZ,Sky Courts,0,Dubai,51,Dubai,0,Sky Courts,0
25.082031000000075,55.41997799999989,8467,DSZ,Sky Courts,0,Dubai,51,Dubai,0,Sky Courts,0
25.082031000000075,55.429977999999885,3852,DSZ,"Academic City, Dubai",51601,Dubai,51,Dubai,0,"Academic City, Dubai",0
25.082031000000075,55.43997799999988,3852,DSZ,"Academic City, Dubai",51601,Dubai,51,Dubai,0,"Academic City, Dubai",0
25.082031000000075,55.44997799999988,3852,DSZ,"Academic City, Dubai",51601,Dubai,51,Dubai,0,"Academic City, Dubai",0
25.092031000000077,55.079977999999954,8459,DSZ,Fronds,0,Dubai,51,Dubai,0,Fronds,0
25.092031000000077,55.08997799999995,3849,DSZ,Jumeirah Beach Residence JBR,51203,Dubai,51,Dubai,0,Jumeirah Beach Residence JBR,0
25.092031000000077,55.09997799999995,3849,DSZ,Jumeirah Beach Residence JBR,51203,Dubai,51,Dubai,0,Jumeirah Beach Residence JBR,0
25.092031000000077,55.10997799999995,3849,DSZ,Jumeirah Beach Residence JBR,51203,Dubai,51,Dubai,0,Jumeirah Beach Residence JBR,0
25.092031000000077,55.119977999999946,3849,DSZ,Jumeirah Beach Residence JBR,51203,Dubai,51,Dubai,0,Jumeirah Beach Residence JBR,0
25.092031000000077,55.129977999999944,3849,DSZ,Jumeirah Beach Residence JBR,51203,Dubai,51,Dubai,0,Jumeirah Beach Residence JBR,0
25.092031000000077,55.13997799999994,3847,DSZ,Dubai Marina,51201,Dubai,51,Dubai,0,Dubai Marina,0
25.092031000000077,55.14997799999994,3882,DSZ,Dubai Media City,51205,Dubai,51,Dubai,0,Dubai Media City,0
25.092031000000077,55.15997799999994,3880,DSZ,Dubai Internet City,51202,Dubai,51,Dubai,0,Dubai Internet City,0
25.092031000000077,55.16997799999994,3883,DSZ,The Greens,51310,Dubai,51,Dubai,0,The Greens,0
25.092031000000077,55.179977999999934,5531,DSZ,Barsha Heights (TECOM),0,Dubai,51,Dubai,0,Barsha Heights (TECOM),0
25.092031000000077,55.18997799999993,3788,DSZ,Al Barsha 3,51305,Dubai,51,Dubai,0,Al Barsha 3,0
25.092031000000077,55.19997799999993,3788,DSZ,Al Barsha 3,51305,Dubai,51,Dubai,0,Al Barsha 3,0
25.092031000000077,55.20997799999993,3787,DSZ,Al Barsha 2,51304,Dubai,51,Dubai,0,Al Barsha 2,0
25.092031000000077,55.21997799999993,3787,DSZ,Al Barsha 2,51304,Dubai,51,Dubai,0,Al Barsha 2,0
25.092031000000077,55.229977999999925,3787,DSZ,Al Barsha 2,51304,Dubai,51,Dubai,0,Al Barsha 2,0
25.092031000000077,55.23997799999992,3789,DSZ,Al Barsha South,51306,Dubai,51,Dubai,0,Al Barsha South,0
25.092031000000077,55.24997799999992,3789,DSZ,Al Barsha South,51306,Dubai,51,Dubai,0,Al Barsha South,0
25.092031000000077,55.25997799999992,3789,DSZ,Al Barsha South,51306,Dubai,51,Dubai,0,Al Barsha South,0
25.092031000000077,55.26997799999992,3789,DSZ,Al Barsha South,51306,Dubai,51,Dubai,0,Al Barsha South,0
25.092031000000077,55.279977999999915,4727,DSZ,Al Barari,0,Dubai,51,Dubai,0,Al Barari,0
25.092031000000077,55.28997799999991,4727,DSZ,Al Barari,0,Dubai,51,Dubai,0,Al Barari,0
25.092031000000077,55.29997799999991,4727,DSZ,Al Barari,0,Dubai,51,Dubai,0,Al Barari,0
25.092031000000077,55.30997799999991,4727,DSZ,Al Barari,0,Dubai,51,Dubai,0,Al Barari,0
25.092031000000077,55.31997799999991,4727,DSZ,Al Barari,0,Dubai,51,Dubai,0,Al Barari,0
25.092031000000077,55.329977999999905,4727,DSZ,Al Barari,0,Dubai,51,Dubai,0,Al Barari,0
25.092031000000077,55.3399779999999,8460,DSZ,The Villa,0,Dubai,51,Dubai,0,The Villa,0
25.092031000000077,55.3499779999999,8460,DSZ,The Villa,0,Dubai,51,Dubai,0,The Villa,0
25.092031000000077,55.3599779999999,8460,DSZ,The Villa,0,Dubai,51,Dubai,0,The Villa,0
25.092031000000077,55.3699779999999,8460,DSZ,The Villa,0,Dubai,51,Dubai,0,The Villa,0
25.092031000000077,55.379977999999895,8467,DSZ,Sky Courts,0,Dubai,51,Dubai,0,Sky Courts,0
25.092031000000077,55.38997799999989,8467,DSZ,Sky Courts,0,Dubai,51,Dubai,0,Sky Courts,0
25.092031000000077,55.39997799999989,8467,DSZ,Sky Courts,0,Dubai,51,Dubai,0,Sky Courts,0
25.092031000000077,55.40997799999989,8467,DSZ,Sky Courts,0,Dubai,51,Dubai,0,Sky Courts,0
25.092031000000077,55.41997799999989,3852,DSZ,"Academic City, Dubai",51601,Dubai,51,Dubai,0,"Academic City, Dubai",0
25.092031000000077,55.429977999999885,3852,DSZ,"Academic City, Dubai",51601,Dubai,51,Dubai,0,"Academic City, Dubai",0
25.092031000000077,55.43997799999988,3852,DSZ,"Academic City, Dubai",51601,Dubai,51,Dubai,0,"Academic City, Dubai",0
25.092031000000077,55.44997799999988,3852,DSZ,"Academic City, Dubai",51601,Dubai,51,Dubai,0,"Academic City, Dubai",0
25.10203100000008,55.079977999999954,8459,DSZ,Fronds,0,Dubai,51,Dubai,0,Fronds,0
25.10203100000008,55.08997799999995,8459,DSZ,Fronds,0,Dubai,51,Dubai,0,Fronds,0
25.10203100000008,55.09997799999995,8459,DSZ,Fronds,0,Dubai,51,Dubai,0,Fronds,0
25.10203100000008,55.10997799999995,8459,DSZ,Fronds,0,Dubai,51,Dubai,0,Fronds,0
25.10203100000008,55.119977999999946,8459,DSZ,Fronds,0,Dubai,51,Dubai,0,Fronds,0
25.10203100000008,55.129977999999944,8458,DSZ,Golden Mile,0,Dubai,51,Dubai,0,Golden Mile,0
25.10203100000008,55.13997799999994,8458,DSZ,Golden Mile,0,Dubai,51,Dubai,0,Golden Mile,0
25.10203100000008,55.14997799999994,8458,DSZ,Golden Mile,0,Dubai,51,Dubai,0,Golden Mile,0
25.10203100000008,55.15997799999994,3881,DSZ,Dubai Knowledge Park,51204,Dubai,51,Dubai,0,Dubai Knowledge Park,0
25.10203100000008,55.16997799999994,3881,DSZ,Dubai Knowledge Park,51204,Dubai,51,Dubai,0,Dubai Knowledge Park,0
25.10203100000008,55.179977999999934,5531,DSZ,Barsha Heights (TECOM),0,Dubai,51,Dubai,0,Barsha Heights (TECOM),0
25.10203100000008,55.18997799999993,3788,DSZ,Al Barsha 3,51305,Dubai,51,Dubai,0,Al Barsha 3,0
25.10203100000008,55.19997799999993,3786,DSZ,Al Barsha 1,51303,Dubai,51,Dubai,0,Al Barsha 1,0
25.10203100000008,55.20997799999993,3787,DSZ,Al Barsha 2,51304,Dubai,51,Dubai,0,Al Barsha 2,0
25.10203100000008,55.21997799999993,3787,DSZ,Al Barsha 2,51304,Dubai,51,Dubai,0,Al Barsha 2,0
25.10203100000008,55.229977999999925,3787,DSZ,Al Barsha 2,51304,Dubai,51,Dubai,0,Al Barsha 2,0
25.10203100000008,55.23997799999992,8466,DSZ,Al Quoz Industrial Area 4,0,Dubai,51,Dubai,0,Al Quoz Industrial Area 4,0
25.10203100000008,55.24997799999992,8466,DSZ,Al Quoz Industrial Area 4,0,Dubai,51,Dubai,0,Al Quoz Industrial Area 4,0
25.10203100000008,55.25997799999992,8466,DSZ,Al Quoz Industrial Area 4,0,Dubai,51,Dubai,0,Al Quoz Industrial Area 4,0
25.10203100000008,55.26997799999992,8466,DSZ,Al Quoz Industrial Area 4,0,Dubai,51,Dubai,0,Al Quoz Industrial Area 4,0
25.10203100000008,55.279977999999915,4727,DSZ,Al Barari,0,Dubai,51,Dubai,0,Al Barari,0
25.10203100000008,55.28997799999991,4727,DSZ,Al Barari,0,Dubai,51,Dubai,0,Al Barari,0
25.10203100000008,55.29997799999991,4727,DSZ,Al Barari,0,Dubai,51,Dubai,0,Al Barari,0
25.10203100000008,55.30997799999991,4727,DSZ,Al Barari,0,Dubai,51,Dubai,0,Al Barari,0
25.10203100000008,55.31997799999991,4727,DSZ,Al Barari,0,Dubai,51,Dubai,0,Al Barari,0
25.10203100000008,55.329977999999905,4727,DSZ,Al Barari,0,Dubai,51,Dubai,0,Al Barari,0
25.10203100000008,55.3399779999999,4727,DSZ,Al Barari,0,Dubai,51,Dubai,0,Al Barari,0
25.10203100000008,55.3499779999999,8460,DSZ,The Villa,0,Dubai,51,Dubai,0,The Villa,0
25.10203100000008,55.3599779999999,10474,DSZ,Liwan (Queue Point),0,Dubai,51,Dubai,0,Liwan (Queue Point),0
25.10203100000008,55.3699779999999,10474,DSZ,Liwan (Queue Point),0,Dubai,51,Dubai,0,Liwan (Queue Point),0
25.10203100000008,55.379977999999895,8467,DSZ,Sky Courts,0,Dubai,51,Dubai,0,Sky Courts,0
25.10203100000008,55.38997799999989,8467,DSZ,Sky Courts,0,Dubai,51,Dubai,0,Sky Courts,0
25.10203100000008,55.39997799999989,3852,DSZ,"Academic City, Dubai",51601,Dubai,51,Dubai,0,"Academic City, Dubai",0
25.10203100000008,55.40997799999989,3852,DSZ,"Academic City, Dubai",51601,Dubai,51,Dubai,0,"Academic City, Dubai",0
25.10203100000008,55.41997799999989,3852,DSZ,"Academic City, Dubai",51601,Dubai,51,Dubai,0,"Academic City, Dubai",0
25.10203100000008,55.429977999999885,3852,DSZ,"Academic City, Dubai",51601,Dubai,51,Dubai,0,"Academic City, Dubai",0
25.10203100000008,55.43997799999988,3852,DSZ,"Academic City, Dubai",51601,Dubai,51,Dubai,0,"Academic City, Dubai",0
25.10203100000008,55.44997799999988,3852,DSZ,"Academic City, Dubai",51601,Dubai,51,Dubai,0,"Academic City, Dubai",0
25.11203100000008,55.079977999999954,8459,DSZ,Fronds,0,Dubai,51,Dubai,0,Fronds,0
25.11203100000008,55.08997799999995,8459,DSZ,Fronds,0,Dubai,51,Dubai,0,Fronds,0
25.11203100000008,55.09997799999995,8459,DSZ,Fronds,0,Dubai,51,Dubai,0,Fronds,0
25.11203100000008,55.10997799999995,8459,DSZ,Fronds,0,Dubai,51,Dubai,0,Fronds,0
25.11203100000008,55.119977999999946,8459,DSZ,Fronds,0,Dubai,51,Dubai,0,Fronds,0
25.11203100000008,55.129977999999944,8459,DSZ,Fronds,0,Dubai,51,Dubai,0,Fronds,0
25.11203100000008,55.13997799999994,8458,DSZ,Golden Mile,0,Dubai,51,Dubai,0,Golden Mile,0
25.11203100000008,55.14997799999994,8458,DSZ,Golden Mile,0,Dubai,51,Dubai,0,Golden Mile,0
25.11203100000008,55.15997799999994,3881,DSZ,Dubai Knowledge Park,51204,Dubai,51,Dubai,0,Dubai Knowledge Park,0
25.11203100000008,55.16997799999994,3881,DSZ,Dubai Knowledge Park,51204,Dubai,51,Dubai,0,Dubai Knowledge Park,0
25.11203100000008,55.179977999999934,3878,DSZ,Al Sufouh 1,51101,Dubai,51,Dubai,0,Al Sufouh 1,0
25.11203100000008,55.18997799999993,3786,DSZ,Al Barsha 1,51303,Dubai,51,Dubai,0,Al Barsha 1,0
25.11203100000008,55.19997799999993,3786,DSZ,Al Barsha 1,51303,Dubai,51,Dubai,0,Al Barsha 1,0
25.11203100000008,55.20997799999993,3791,DSZ,Mall Of The Emirates,51307,Dubai,51,Dubai,0,Mall Of The Emirates,0
25.11203100000008,55.21997799999993,8466,DSZ,Al Quoz Industrial Area 4,0,Dubai,51,Dubai,0,Al Quoz Industrial Area 4,0
25.11203100000008,55.229977999999925,8466,DSZ,Al Quoz Industrial Area 4,0,Dubai,51,Dubai,0,Al Quoz Industrial Area 4,0
25.11203100000008,55.23997799999992,8466,DSZ,Al Quoz Industrial Area 4,0,Dubai,51,Dubai,0,Al Quoz Industrial Area 4,0
25.11203100000008,55.24997799999992,8466,DSZ,Al Quoz Industrial Area 4,0,Dubai,51,Dubai,0,Al Quoz Industrial Area 4,0
25.11203100000008,55.26997799999992,8464,DSZ,Al Quoz Industrial Area 2,0,Dubai,51,Dubai,0,Al Quoz Industrial Area 2,0
25.11203100000008,55.279977999999915,4727,DSZ,Al Barari,0,Dubai,51,Dubai,0,Al Barari,0
25.11203100000008,55.28997799999991,4727,DSZ,Al Barari,0,Dubai,51,Dubai,0,Al Barari,0
25.11203100000008,55.29997799999991,4727,DSZ,Al Barari,0,Dubai,51,Dubai,0,Al Barari,0
25.11203100000008,55.30997799999991,4727,DSZ,Al Barari,0,Dubai,51,Dubai,0,Al Barari,0
25.11203100000008,55.31997799999991,4727,DSZ,Al Barari,0,Dubai,51,Dubai,0,Al Barari,0
25.11203100000008,55.329977999999905,4727,DSZ,Al Barari,0,Dubai,51,Dubai,0,Al Barari,0
25.11203100000008,55.3399779999999,4727,DSZ,Al Barari,0,Dubai,51,Dubai,0,Al Barari,0
25.11203100000008,55.3499779999999,10474,DSZ,Liwan (Queue Point),0,Dubai,51,Dubai,0,Liwan (Queue Point),0
25.11203100000008,55.3599779999999,10474,DSZ,Liwan (Queue Point),0,Dubai,51,Dubai,0,Liwan (Queue Point),0
25.11203100000008,55.3699779999999,10474,DSZ,Liwan (Queue Point),0,Dubai,51,Dubai,0,Liwan (Queue Point),0
25.11203100000008,55.379977999999895,3861,DSZ,Silicon Oasis,51611,Dubai,51,Dubai,0,Silicon Oasis,0
25.11203100000008,55.38997799999989,3852,DSZ,"Academic City, Dubai",51601,Dubai,51,Dubai,0,"Academic City, Dubai",0
25.11203100000008,55.39997799999989,3852,DSZ,"Academic City, Dubai",51601,Dubai,51,Dubai,0,"Academic City, Dubai",0
25.11203100000008,55.40997799999989,3852,DSZ,"Academic City, Dubai",51601,Dubai,51,Dubai,0,"Academic City, Dubai",0
25.11203100000008,55.41997799999989,3852,DSZ,"Academic City, Dubai",51601,Dubai,51,Dubai,0,"Academic City, Dubai",0
25.11203100000008,55.429977999999885,3852,DSZ,"Academic City, Dubai",51601,Dubai,51,Dubai,0,"Academic City, Dubai",0
25.11203100000008,55.43997799999988,3852,DSZ,"Academic City, Dubai",51601,Dubai,51,Dubai,0,"Academic City, Dubai",0
25.11203100000008,55.44997799999988,3852,DSZ,"Academic City, Dubai",51601,Dubai,51,Dubai,0,"Academic City, Dubai",0
25.12203100000008,55.079977999999954,8459,DSZ,Fronds,0,Dubai,51,Dubai,0,Fronds,0
25.12203100000008,55.08997799999995,8459,DSZ,Fronds,0,Dubai,51,Dubai,0,Fronds,0
25.12203100000008,55.09997799999995,8459,DSZ,Fronds,0,Dubai,51,Dubai,0,Fronds,0
25.12203100000008,55.10997799999995,8459,DSZ,Fronds,0,Dubai,51,Dubai,0,Fronds,0
25.12203100000008,55.119977999999946,8459,DSZ,Fronds,0,Dubai,51,Dubai,0,Fronds,0
25.12203100000008,55.129977999999944,8459,DSZ,Fronds,0,Dubai,51,Dubai,0,Fronds,0
25.12203100000008,55.13997799999994,8459,DSZ,Fronds,0,Dubai,51,Dubai,0,Fronds,0
25.12203100000008,55.14997799999994,8458,DSZ,Golden Mile,0,Dubai,51,Dubai,0,Golden Mile,0
25.12203100000008,55.15997799999994,3881,DSZ,Dubai Knowledge Park,51204,Dubai,51,Dubai,0,Dubai Knowledge Park,0
25.12203100000008,55.16997799999994,3878,DSZ,Al Sufouh 1,51101,Dubai,51,Dubai,0,Al Sufouh 1,0
25.12203100000008,55.179977999999934,3878,DSZ,Al Sufouh 1,51101,Dubai,51,Dubai,0,Al Sufouh 1,0
25.12203100000008,55.18997799999993,3878,DSZ,Al Sufouh 1,51101,Dubai,51,Dubai,0,Al Sufouh 1,0
25.12203100000008,55.19997799999993,3791,DSZ,Mall Of The Emirates,51307,Dubai,51,Dubai,0,Mall Of The Emirates,0
25.12203100000008,55.21997799999993,8465,DSZ,Al Quoz Industrial Area 3,0,Dubai,51,Dubai,0,Al Quoz Industrial Area 3,0
25.12203100000008,55.229977999999925,8466,DSZ,Al Quoz Industrial Area 4,0,Dubai,51,Dubai,0,Al Quoz Industrial Area 4,0
25.12203100000008,55.23997799999992,8466,DSZ,Al Quoz Industrial Area 4,0,Dubai,51,Dubai,0,Al Quoz Industrial Area 4,0
25.12203100000008,55.24997799999992,8464,DSZ,Al Quoz Industrial Area 2,0,Dubai,51,Dubai,0,Al Quoz Industrial Area 2,0
25.12203100000008,55.25997799999992,8464,DSZ,Al Quoz Industrial Area 2,0,Dubai,51,Dubai,0,Al Quoz Industrial Area 2,0
25.12203100000008,55.26997799999992,8464,DSZ,Al Quoz Industrial Area 2,0,Dubai,51,Dubai,0,Al Quoz Industrial Area 2,0
25.12203100000008,55.279977999999915,3783,DSZ,Al Quoz 2,51301,Dubai,51,Dubai,0,Al Quoz 2,0
25.12203100000008,55.28997799999991,4727,DSZ,Al Barari,0,Dubai,51,Dubai,0,Al Barari,0
25.12203100000008,55.29997799999991,4727,DSZ,Al Barari,0,Dubai,51,Dubai,0,Al Barari,0
25.12203100000008,55.30997799999991,4727,DSZ,Al Barari,0,Dubai,51,Dubai,0,Al Barari,0
25.12203100000008,55.31997799999991,4727,DSZ,Al Barari,0,Dubai,51,Dubai,0,Al Barari,0
25.12203100000008,55.329977999999905,4727,DSZ,Al Barari,0,Dubai,51,Dubai,0,Al Barari,0
25.12203100000008,55.3399779999999,3865,DSZ,Nad Al Sheba 4,51608,Dubai,51,Dubai,0,Nad Al Sheba 4,0
25.12203100000008,55.3499779999999,3865,DSZ,Nad Al Sheba 4,51608,Dubai,51,Dubai,0,Nad Al Sheba 4,0
25.12203100000008,55.3599779999999,10474,DSZ,Liwan (Queue Point),0,Dubai,51,Dubai,0,Liwan (Queue Point),0
25.12203100000008,55.3699779999999,10474,DSZ,Liwan (Queue Point),0,Dubai,51,Dubai,0,Liwan (Queue Point),0
25.12203100000008,55.379977999999895,3861,DSZ,Silicon Oasis,51611,Dubai,51,Dubai,0,Silicon Oasis,0
25.12203100000008,55.38997799999989,3861,DSZ,Silicon Oasis,51611,Dubai,51,Dubai,0,Silicon Oasis,0
25.12203100000008,55.39997799999989,3861,DSZ,Silicon Oasis,51611,Dubai,51,Dubai,0,Silicon Oasis,0
25.12203100000008,55.40997799999989,3852,DSZ,"Academic City, Dubai",51601,Dubai,51,Dubai,0,"Academic City, Dubai",0
25.12203100000008,55.41997799999989,3852,DSZ,"Academic City, Dubai",51601,Dubai,51,Dubai,0,"Academic City, Dubai",0
25.12203100000008,55.429977999999885,3852,DSZ,"Academic City, Dubai",51601,Dubai,51,Dubai,0,"Academic City, Dubai",0
25.12203100000008,55.43997799999988,3852,DSZ,"Academic City, Dubai",51601,Dubai,51,Dubai,0,"Academic City, Dubai",0
25.12203100000008,55.44997799999988,3823,DSZ,Warsan,78056,Dubai,51,Dubai,0,Warsan,0
25.12203100000008,55.45997799999988,3823,DSZ,Warsan,78056,Dubai,51,Dubai,0,Warsan,0
25.12203100000008,55.46997799999988,3823,DSZ,Warsan,78056,Dubai,51,Dubai,0,Warsan,0
25.12203100000008,55.479977999999875,3823,DSZ,Warsan,78056,Dubai,51,Dubai,0,Warsan,0
25.132031000000083,55.079977999999954,8459,DSZ,Fronds,0,Dubai,51,Dubai,0,Fronds,0
25.132031000000083,55.08997799999995,8459,DSZ,Fronds,0,Dubai,51,Dubai,0,Fronds,0
25.132031000000083,55.09997799999995,8459,DSZ,Fronds,0,Dubai,51,Dubai,0,Fronds,0
25.132031000000083,55.10997799999995,8459,DSZ,Fronds,0,Dubai,51,Dubai,0,Fronds,0
25.132031000000083,55.119977999999946,8459,DSZ,Fronds,0,Dubai,51,Dubai,0,Fronds,0
25.132031000000083,55.129977999999944,8459,DSZ,Fronds,0,Dubai,51,Dubai,0,Fronds,0
25.132031000000083,55.13997799999994,8459,DSZ,Fronds,0,Dubai,51,Dubai,0,Fronds,0
25.132031000000083,55.14997799999994,8459,DSZ,Fronds,0,Dubai,51,Dubai,0,Fronds,0
25.132031000000083,55.15997799999994,3878,DSZ,Al Sufouh 1,51101,Dubai,51,Dubai,0,Al Sufouh 1,0
25.132031000000083,55.16997799999994,3878,DSZ,Al Sufouh 1,51101,Dubai,51,Dubai,0,Al Sufouh 1,0
25.132031000000083,55.179977999999934,3878,DSZ,Al Sufouh 1,51101,Dubai,51,Dubai,0,Al Sufouh 1,0
25.132031000000083,55.18997799999993,7723,DSZ,Umm Suqeim 3,0,Dubai,51,Dubai,0,Umm Suqeim 3,0
25.132031000000083,55.19997799999993,7720,DSZ,Umm Al Sheif,0,Dubai,51,Dubai,0,Umm Al Sheif,0
25.132031000000083,55.20997799999993,7720,DSZ,Umm Al Sheif,0,Dubai,51,Dubai,0,Umm Al Sheif,0
25.132031000000083,55.21997799999993,8465,DSZ,Al Quoz Industrial Area 3,0,Dubai,51,Dubai,0,Al Quoz Industrial Area 3,0
25.132031000000083,55.229977999999925,8465,DSZ,Al Quoz Industrial Area 3,0,Dubai,51,Dubai,0,Al Quoz Industrial Area 3,0
25.132031000000083,55.23997799999992,8464,DSZ,Al Quoz Industrial Area 2,0,Dubai,51,Dubai,0,Al Quoz Industrial Area 2,0
25.132031000000083,55.24997799999992,8464,DSZ,Al Quoz Industrial Area 2,0,Dubai,51,Dubai,0,Al Quoz Industrial Area 2,0
25.132031000000083,55.25997799999992,8464,DSZ,Al Quoz Industrial Area 2,0,Dubai,51,Dubai,0,Al Quoz Industrial Area 2,0
25.132031000000083,55.26997799999992,3783,DSZ,Al Quoz 2,51301,Dubai,51,Dubai,0,Al Quoz 2,0
25.132031000000083,55.279977999999915,3783,DSZ,Al Quoz 2,51301,Dubai,51,Dubai,0,Al Quoz 2,0
25.132031000000083,55.28997799999991,3783,DSZ,Al Quoz 2,51301,Dubai,51,Dubai,0,Al Quoz 2,0
25.132031000000083,55.29997799999991,3867,DSZ,Meydan,51605,Dubai,51,Dubai,0,Meydan,0
25.132031000000083,55.30997799999991,3862,DSZ,Nad Al Sheba 1,51608,Dubai,51,Dubai,0,Nad Al Sheba 1,0
25.132031000000083,55.31997799999991,3862,DSZ,Nad Al Sheba 1,51608,Dubai,51,Dubai,0,Nad Al Sheba 1,0
25.132031000000083,55.329977999999905,3862,DSZ,Nad Al Sheba 1,51608,Dubai,51,Dubai,0,Nad Al Sheba 1,0
25.132031000000083,55.3399779999999,3865,DSZ,Nad Al Sheba 4,51608,Dubai,51,Dubai,0,Nad Al Sheba 4,0
25.132031000000083,55.3499779999999,3865,DSZ,Nad Al Sheba 4,51608,Dubai,51,Dubai,0,Nad Al Sheba 4,0
25.132031000000083,55.3599779999999,3865,DSZ,Nad Al Sheba 4,51608,Dubai,51,Dubai,0,Nad Al Sheba 4,0
25.132031000000083,55.3699779999999,3865,DSZ,Nad Al Sheba 4,51608,Dubai,51,Dubai,0,Nad Al Sheba 4,0
25.132031000000083,55.379977999999895,3861,DSZ,Silicon Oasis,51611,Dubai,51,Dubai,0,Silicon Oasis,0
25.132031000000083,55.38997799999989,3861,DSZ,Silicon Oasis,51611,Dubai,51,Dubai,0,Silicon Oasis,0
25.132031000000083,55.39997799999989,8621,DSZ,International City Phase 2,0,Dubai,51,Dubai,0,International City Phase 2,0
25.132031000000083,55.40997799999989,8621,DSZ,International City Phase 2,0,Dubai,51,Dubai,0,International City Phase 2,0
25.132031000000083,55.41997799999989,3852,DSZ,"Academic City, Dubai",51601,Dubai,51,Dubai,0,"Academic City, Dubai",0
25.132031000000083,55.429977999999885,8621,DSZ,International City Phase 2,0,Dubai,51,Dubai,0,International City Phase 2,0
25.132031000000083,55.43997799999988,3823,DSZ,Warsan,78056,Dubai,51,Dubai,0,Warsan,0
25.132031000000083,55.44997799999988,3823,DSZ,Warsan,78056,Dubai,51,Dubai,0,Warsan,0
25.132031000000083,55.45997799999988,3823,DSZ,Warsan,78056,Dubai,51,Dubai,0,Warsan,0
25.132031000000083,55.46997799999988,3823,DSZ,Warsan,78056,Dubai,51,Dubai,0,Warsan,0
25.132031000000083,55.479977999999875,3823,DSZ,Warsan,78056,Dubai,51,Dubai,0,Warsan,0
25.142031000000085,55.079977999999954,8459,DSZ,Fronds,0,Dubai,51,Dubai,0,Fronds,0
25.142031000000085,55.08997799999995,8459,DSZ,Fronds,0,Dubai,51,Dubai,0,Fronds,0
25.142031000000085,55.09997799999995,8459,DSZ,Fronds,0,Dubai,51,Dubai,0,Fronds,0
25.142031000000085,55.10997799999995,8459,DSZ,Fronds,0,Dubai,51,Dubai,0,Fronds,0
25.142031000000085,55.119977999999946,8459,DSZ,Fronds,0,Dubai,51,Dubai,0,Fronds,0
25.142031000000085,55.129977999999944,8459,DSZ,Fronds,0,Dubai,51,Dubai,0,Fronds,0
25.142031000000085,55.13997799999994,8459,DSZ,Fronds,0,Dubai,51,Dubai,0,Fronds,0
25.142031000000085,55.14997799999994,8459,DSZ,Fronds,0,Dubai,51,Dubai,0,Fronds,0
25.142031000000085,55.15997799999994,3878,DSZ,Al Sufouh 1,51101,Dubai,51,Dubai,0,Al Sufouh 1,0
25.142031000000085,55.16997799999994,7723,DSZ,Umm Suqeim 3,0,Dubai,51,Dubai,0,Umm Suqeim 3,0
25.142031000000085,55.179977999999934,7723,DSZ,Umm Suqeim 3,0,Dubai,51,Dubai,0,Umm Suqeim 3,0
25.142031000000085,55.18997799999993,7723,DSZ,Umm Suqeim 3,0,Dubai,51,Dubai,0,Umm Suqeim 3,0
25.142031000000085,55.19997799999993,7723,DSZ,Umm Suqeim 3,0,Dubai,51,Dubai,0,Umm Suqeim 3,0
25.142031000000085,55.20997799999993,7719,DSZ,"Al Manara, Umm Suqeim",0,Dubai,51,Dubai,0,"Al Manara, Umm Suqeim",0
25.142031000000085,55.21997799999993,7719,DSZ,"Al Manara, Umm Suqeim",0,Dubai,51,Dubai,0,"Al Manara, Umm Suqeim",0
25.142031000000085,55.229977999999925,8463,DSZ,Al Quoz Industrial Area 1,0,Dubai,51,Dubai,0,Al Quoz Industrial Area 1,0
25.142031000000085,55.23997799999992,8463,DSZ,Al Quoz Industrial Area 1,0,Dubai,51,Dubai,0,Al Quoz Industrial Area 1,0
25.142031000000085,55.24997799999992,8464,DSZ,Al Quoz Industrial Area 2,0,Dubai,51,Dubai,0,Al Quoz Industrial Area 2,0
25.142031000000085,55.25997799999992,3785,DSZ,Al Quoz 4,51301,Dubai,51,Dubai,0,Al Quoz 4,0
25.142031000000085,55.26997799999992,3783,DSZ,Al Quoz 2,51301,Dubai,51,Dubai,0,Al Quoz 2,0
25.142031000000085,55.279977999999915,3783,DSZ,Al Quoz 2,51301,Dubai,51,Dubai,0,Al Quoz 2,0
25.142031000000085,55.28997799999991,3867,DSZ,Meydan,51605,Dubai,51,Dubai,0,Meydan,0
25.142031000000085,55.29997799999991,3867,DSZ,Meydan,51605,Dubai,51,Dubai,0,Meydan,0
25.142031000000085,55.30997799999991,3862,DSZ,Nad Al Sheba 1,51608,Dubai,51,Dubai,0,Nad Al Sheba 1,0
25.142031000000085,55.31997799999991,3862,DSZ,Nad Al Sheba 1,51608,Dubai,51,Dubai,0,Nad Al Sheba 1,0
25.142031000000085,55.329977999999905,3862,DSZ,Nad Al Sheba 1,51608,Dubai,51,Dubai,0,Nad Al Sheba 1,0
25.142031000000085,55.3399779999999,3863,DSZ,Nad Al Sheba 2,51608,Dubai,51,Dubai,0,Nad Al Sheba 2,0
25.142031000000085,55.3499779999999,3865,DSZ,Nad Al Sheba 4,51608,Dubai,51,Dubai,0,Nad Al Sheba 4,0
25.142031000000085,55.3599779999999,3865,DSZ,Nad Al Sheba 4,51608,Dubai,51,Dubai,0,Nad Al Sheba 4,0
25.142031000000085,55.3699779999999,3865,DSZ,Nad Al Sheba 4,51608,Dubai,51,Dubai,0,Nad Al Sheba 4,0
25.142031000000085,55.379977999999895,3864,DSZ,Nad Al Sheba 3,51608,Dubai,51,Dubai,0,Nad Al Sheba 3,0
25.142031000000085,55.38997799999989,8621,DSZ,International City Phase 2,0,Dubai,51,Dubai,0,International City Phase 2,0
25.142031000000085,55.39997799999989,8621,DSZ,International City Phase 2,0,Dubai,51,Dubai,0,International City Phase 2,0
25.142031000000085,55.40997799999989,8621,DSZ,International City Phase 2,0,Dubai,51,Dubai,0,International City Phase 2,0
25.142031000000085,55.41997799999989,8621,DSZ,International City Phase 2,0,Dubai,51,Dubai,0,International City Phase 2,0
25.142031000000085,55.429977999999885,3823,DSZ,Warsan,78056,Dubai,51,Dubai,0,Warsan,0
25.142031000000085,55.43997799999988,3823,DSZ,Warsan,78056,Dubai,51,Dubai,0,Warsan,0
25.142031000000085,55.44997799999988,3823,DSZ,Warsan,78056,Dubai,51,Dubai,0,Warsan,0
25.142031000000085,55.45997799999988,3823,DSZ,Warsan,78056,Dubai,51,Dubai,0,Warsan,0
25.142031000000085,55.46997799999988,3823,DSZ,Warsan,78056,Dubai,51,Dubai,0,Warsan,0
25.142031000000085,55.479977999999875,3823,DSZ,Warsan,78056,Dubai,51,Dubai,0,Warsan,0
25.142031000000085,55.48997799999987,3857,DSZ,Al Warqa 5,78056,Dubai,51,Dubai,0,Al Warqa 5,0
25.142031000000085,55.49997799999987,3857,DSZ,Al Warqa 5,78056,Dubai,51,Dubai,0,Al Warqa 5,0
25.152031000000086,55.079977999999954,8459,DSZ,Fronds,0,Dubai,51,Dubai,0,Fronds,0
25.152031000000086,55.08997799999995,8459,DSZ,Fronds,0,Dubai,51,Dubai,0,Fronds,0
25.152031000000086,55.09997799999995,8459,DSZ,Fronds,0,Dubai,51,Dubai,0,Fronds,0
25.152031000000086,55.10997799999995,8459,DSZ,Fronds,0,Dubai,51,Dubai,0,Fronds,0
25.152031000000086,55.119977999999946,8459,DSZ,Fronds,0,Dubai,51,Dubai,0,Fronds,0
25.152031000000086,55.129977999999944,8459,DSZ,Fronds,0,Dubai,51,Dubai,0,Fronds,0
25.152031000000086,55.13997799999994,8459,DSZ,Fronds,0,Dubai,51,Dubai,0,Fronds,0
25.152031000000086,55.14997799999994,8459,DSZ,Fronds,0,Dubai,51,Dubai,0,Fronds,0
25.152031000000086,55.15997799999994,7723,DSZ,Umm Suqeim 3,0,Dubai,51,Dubai,0,Umm Suqeim 3,0
25.152031000000086,55.16997799999994,7723,DSZ,Umm Suqeim 3,0,Dubai,51,Dubai,0,Umm Suqeim 3,0
25.152031000000086,55.179977999999934,7723,DSZ,Umm Suqeim 3,0,Dubai,51,Dubai,0,Umm Suqeim 3,0
25.152031000000086,55.18997799999993,7722,DSZ,Umm Suqeim 2,0,Dubai,51,Dubai,0,Umm Suqeim 2,0
25.152031000000086,55.19997799999993,7722,DSZ,Umm Suqeim 2,0,Dubai,51,Dubai,0,Umm Suqeim 2,0
25.152031000000086,55.20997799999993,7722,DSZ,Umm Suqeim 2,0,Dubai,51,Dubai,0,Umm Suqeim 2,0
25.152031000000086,55.21997799999993,3840,DSZ,Al Safa 2,51401,Dubai,51,Dubai,0,Al Safa 2,0
25.152031000000086,55.229977999999925,8463,DSZ,Al Quoz Industrial Area 1,0,Dubai,51,Dubai,0,Al Quoz Industrial Area 1,0
25.152031000000086,55.23997799999992,3784,DSZ,Al Quoz 3,51301,Dubai,51,Dubai,0,Al Quoz 3,0
25.152031000000086,55.24997799999992,3785,DSZ,Al Quoz 4,51301,Dubai,51,Dubai,0,Al Quoz 4,0
25.152031000000086,55.25997799999992,3785,DSZ,Al Quoz 4,51301,Dubai,51,Dubai,0,Al Quoz 4,0
25.152031000000086,55.26997799999992,3783,DSZ,Al Quoz 2,51301,Dubai,51,Dubai,0,Al Quoz 2,0
25.152031000000086,55.279977999999915,3783,DSZ,Al Quoz 2,51301,Dubai,51,Dubai,0,Al Quoz 2,0
25.152031000000086,55.28997799999991,3867,DSZ,Meydan,51605,Dubai,51,Dubai,0,Meydan,0
25.152031000000086,55.29997799999991,3867,DSZ,Meydan,51605,Dubai,51,Dubai,0,Meydan,0
25.152031000000086,55.30997799999991,3862,DSZ,Nad Al Sheba 1,51608,Dubai,51,Dubai,0,Nad Al Sheba 1,0
25.152031000000086,55.31997799999991,3862,DSZ,Nad Al Sheba 1,51608,Dubai,51,Dubai,0,Nad Al Sheba 1,0
25.152031000000086,55.329977999999905,3862,DSZ,Nad Al Sheba 1,51608,Dubai,51,Dubai,0,Nad Al Sheba 1,0
25.152031000000086,55.3399779999999,3863,DSZ,Nad Al Sheba 2,51608,Dubai,51,Dubai,0,Nad Al Sheba 2,0
25.152031000000086,55.3499779999999,3863,DSZ,Nad Al Sheba 2,51608,Dubai,51,Dubai,0,Nad Al Sheba 2,0
25.152031000000086,55.3599779999999,3863,DSZ,Nad Al Sheba 2,51608,Dubai,51,Dubai,0,Nad Al Sheba 2,0
25.152031000000086,55.3699779999999,3864,DSZ,Nad Al Sheba 3,51608,Dubai,51,Dubai,0,Nad Al Sheba 3,0
25.152031000000086,55.379977999999895,3864,DSZ,Nad Al Sheba 3,51608,Dubai,51,Dubai,0,Nad Al Sheba 3,0
25.152031000000086,55.38997799999989,3864,DSZ,Nad Al Sheba 3,51608,Dubai,51,Dubai,0,Nad Al Sheba 3,0
25.152031000000086,55.39997799999989,8621,DSZ,International City Phase 2,0,Dubai,51,Dubai,0,International City Phase 2,0
25.152031000000086,55.40997799999989,8621,DSZ,International City Phase 2,0,Dubai,51,Dubai,0,International City Phase 2,0
25.152031000000086,55.41997799999989,3823,DSZ,Warsan,78056,Dubai,51,Dubai,0,Warsan,0
25.152031000000086,55.429977999999885,3823,DSZ,Warsan,78056,Dubai,51,Dubai,0,Warsan,0
25.152031000000086,55.43997799999988,3823,DSZ,Warsan,78056,Dubai,51,Dubai,0,Warsan,0
25.152031000000086,55.44997799999988,3823,DSZ,Warsan,78056,Dubai,51,Dubai,0,Warsan,0
25.152031000000086,55.45997799999988,3823,DSZ,Warsan,78056,Dubai,51,Dubai,0,Warsan,0
25.152031000000086,55.46997799999988,3823,DSZ,Warsan,78056,Dubai,51,Dubai,0,Warsan,0
25.152031000000086,55.479977999999875,3857,DSZ,Al Warqa 5,78056,Dubai,51,Dubai,0,Al Warqa 5,0
25.152031000000086,55.48997799999987,3857,DSZ,Al Warqa 5,78056,Dubai,51,Dubai,0,Al Warqa 5,0
25.152031000000086,55.49997799999987,3857,DSZ,Al Warqa 5,78056,Dubai,51,Dubai,0,Al Warqa 5,0
25.162031000000088,55.079977999999954,8459,DSZ,Fronds,0,Dubai,51,Dubai,0,Fronds,0
25.162031000000088,55.08997799999995,8459,DSZ,Fronds,0,Dubai,51,Dubai,0,Fronds,0
25.162031000000088,55.09997799999995,8459,DSZ,Fronds,0,Dubai,51,Dubai,0,Fronds,0
25.162031000000088,55.10997799999995,8459,DSZ,Fronds,0,Dubai,51,Dubai,0,Fronds,0
25.162031000000088,55.119977999999946,8459,DSZ,Fronds,0,Dubai,51,Dubai,0,Fronds,0
25.162031000000088,55.129977999999944,8459,DSZ,Fronds,0,Dubai,51,Dubai,0,Fronds,0
25.162031000000088,55.13997799999994,8459,DSZ,Fronds,0,Dubai,51,Dubai,0,Fronds,0
25.162031000000088,55.14997799999994,8459,DSZ,Fronds,0,Dubai,51,Dubai,0,Fronds,0
25.162031000000088,55.15997799999994,7723,DSZ,Umm Suqeim 3,0,Dubai,51,Dubai,0,Umm Suqeim 3,0
25.162031000000088,55.16997799999994,7722,DSZ,Umm Suqeim 2,0,Dubai,51,Dubai,0,Umm Suqeim 2,0
25.162031000000088,55.179977999999934,7722,DSZ,Umm Suqeim 2,0,Dubai,51,Dubai,0,Umm Suqeim 2,0
25.162031000000088,55.18997799999993,7722,DSZ,Umm Suqeim 2,0,Dubai,51,Dubai,0,Umm Suqeim 2,0
25.162031000000088,55.19997799999993,7722,DSZ,Umm Suqeim 2,0,Dubai,51,Dubai,0,Umm Suqeim 2,0
25.162031000000088,55.20997799999993,7721,DSZ,Umm Suqeim 1,0,Dubai,51,Dubai,0,Umm Suqeim 1,0
25.162031000000088,55.21997799999993,7721,DSZ,Umm Suqeim 1,0,Dubai,51,Dubai,0,Umm Suqeim 1,0
25.162031000000088,55.229977999999925,3840,DSZ,Al Safa 2,51401,Dubai,51,Dubai,0,Al Safa 2,0
25.162031000000088,55.23997799999992,3784,DSZ,Al Quoz 3,51301,Dubai,51,Dubai,0,Al Quoz 3,0
25.162031000000088,55.24997799999992,3784,DSZ,Al Quoz 3,51301,Dubai,51,Dubai,0,Al Quoz 3,0
25.162031000000088,55.25997799999992,3782,DSZ,Al Quoz 1,51301,Dubai,51,Dubai,0,Al Quoz 1,0
25.162031000000088,55.26997799999992,3783,DSZ,Al Quoz 2,51301,Dubai,51,Dubai,0,Al Quoz 2,0
25.162031000000088,55.279977999999915,18227,DSZ,Mohammed Bin Rashid City (MBR City),0,Dubai,51,Dubai,0,Mohammed Bin Rashid City (MBR City),0
25.162031000000088,55.28997799999991,18227,DSZ,Mohammed Bin Rashid City (MBR City),0,Dubai,51,Dubai,0,Mohammed Bin Rashid City (MBR City),0
25.162031000000088,55.29997799999991,3867,DSZ,Meydan,51605,Dubai,51,Dubai,0,Meydan,0
25.162031000000088,55.30997799999991,3862,DSZ,Nad Al Sheba 1,51608,Dubai,51,Dubai,0,Nad Al Sheba 1,0
25.162031000000088,55.31997799999991,3862,DSZ,Nad Al Sheba 1,51608,Dubai,51,Dubai,0,Nad Al Sheba 1,0
25.162031000000088,55.329977999999905,3862,DSZ,Nad Al Sheba 1,51608,Dubai,51,Dubai,0,Nad Al Sheba 1,0
25.162031000000088,55.3399779999999,3863,DSZ,Nad Al Sheba 2,51608,Dubai,51,Dubai,0,Nad Al Sheba 2,0
25.162031000000088,55.3499779999999,3863,DSZ,Nad Al Sheba 2,51608,Dubai,51,Dubai,0,Nad Al Sheba 2,0
25.162031000000088,55.3599779999999,3863,DSZ,Nad Al Sheba 2,51608,Dubai,51,Dubai,0,Nad Al Sheba 2,0
25.162031000000088,55.3699779999999,3864,DSZ,Nad Al Sheba 3,51608,Dubai,51,Dubai,0,Nad Al Sheba 3,0
25.162031000000088,55.379977999999895,3864,DSZ,Nad Al Sheba 3,51608,Dubai,51,Dubai,0,Nad Al Sheba 3,0
25.162031000000088,55.38997799999989,3864,DSZ,Nad Al Sheba 3,51608,Dubai,51,Dubai,0,Nad Al Sheba 3,0
25.162031000000088,55.39997799999989,3858,DSZ,International City,51604,Dubai,51,Dubai,0,International City,0
25.162031000000088,55.40997799999989,3858,DSZ,International City,51604,Dubai,51,Dubai,0,International City,0
25.162031000000088,55.41997799999989,3858,DSZ,International City,51604,Dubai,51,Dubai,0,International City,0
25.162031000000088,55.429977999999885,3823,DSZ,Warsan,78056,Dubai,51,Dubai,0,Warsan,0
25.162031000000088,55.43997799999988,3823,DSZ,Warsan,78056,Dubai,51,Dubai,0,Warsan,0
25.162031000000088,55.44997799999988,3823,DSZ,Warsan,78056,Dubai,51,Dubai,0,Warsan,0
25.162031000000088,55.45997799999988,3857,DSZ,Al Warqa 5,78056,Dubai,51,Dubai,0,Al Warqa 5,0
25.162031000000088,55.46997799999988,3857,DSZ,Al Warqa 5,78056,Dubai,51,Dubai,0,Al Warqa 5,0
25.162031000000088,55.479977999999875,3857,DSZ,Al Warqa 5,78056,Dubai,51,Dubai,0,Al Warqa 5,0
25.162031000000088,55.48997799999987,3857,DSZ,Al Warqa 5,78056,Dubai,51,Dubai,0,Al Warqa 5,0
25.162031000000088,55.49997799999987,3857,DSZ,Al Warqa 5,78056,Dubai,51,Dubai,0,Al Warqa 5,0
25.17203100000009,55.14997799999994,7723,DSZ,Umm Suqeim 3,0,Dubai,51,Dubai,0,Umm Suqeim 3,0
25.17203100000009,55.15997799999994,7722,DSZ,Umm Suqeim 2,0,Dubai,51,Dubai,0,Umm Suqeim 2,0
25.17203100000009,55.16997799999994,7722,DSZ,Umm Suqeim 2,0,Dubai,51,Dubai,0,Umm Suqeim 2,0
25.17203100000009,55.179977999999934,7722,DSZ,Umm Suqeim 2,0,Dubai,51,Dubai,0,Umm Suqeim 2,0
25.17203100000009,55.18997799999993,7722,DSZ,Umm Suqeim 2,0,Dubai,51,Dubai,0,Umm Suqeim 2,0
25.17203100000009,55.19997799999993,7721,DSZ,Umm Suqeim 1,0,Dubai,51,Dubai,0,Umm Suqeim 1,0
25.17203100000009,55.20997799999993,7721,DSZ,Umm Suqeim 1,0,Dubai,51,Dubai,0,Umm Suqeim 1,0
25.17203100000009,55.21997799999993,7721,DSZ,Umm Suqeim 1,0,Dubai,51,Dubai,0,Umm Suqeim 1,0
25.17203100000009,55.229977999999925,3839,DSZ,Al Safa 1,51401,Dubai,51,Dubai,0,Al Safa 1,0
25.17203100000009,55.23997799999992,3839,DSZ,Al Safa 1,51401,Dubai,51,Dubai,0,Al Safa 1,0
25.17203100000009,55.24997799999992,3782,DSZ,Al Quoz 1,51301,Dubai,51,Dubai,0,Al Quoz 1,0
25.17203100000009,55.25997799999992,3782,DSZ,Al Quoz 1,51301,Dubai,51,Dubai,0,Al Quoz 1,0
25.17203100000009,55.26997799999992,3801,DSZ,Business Bay,51702,Dubai,51,Dubai,0,Business Bay,0
25.17203100000009,55.279977999999915,18227,DSZ,Mohammed Bin Rashid City (MBR City),0,Dubai,51,Dubai,0,Mohammed Bin Rashid City (MBR City),0
25.17203100000009,55.28997799999991,18227,DSZ,Mohammed Bin Rashid City (MBR City),0,Dubai,51,Dubai,0,Mohammed Bin Rashid City (MBR City),0
25.17203100000009,55.29997799999991,3867,DSZ,Meydan,51605,Dubai,51,Dubai,0,Meydan,0
25.17203100000009,55.30997799999991,3867,DSZ,Meydan,51605,Dubai,51,Dubai,0,Meydan,0
25.17203100000009,55.31997799999991,3862,DSZ,Nad Al Sheba 1,51608,Dubai,51,Dubai,0,Nad Al Sheba 1,0
25.17203100000009,55.329977999999905,3863,DSZ,Nad Al Sheba 2,51608,Dubai,51,Dubai,0,Nad Al Sheba 2,0
25.17203100000009,55.3399779999999,3863,DSZ,Nad Al Sheba 2,51608,Dubai,51,Dubai,0,Nad Al Sheba 2,0
25.17203100000009,55.3499779999999,3863,DSZ,Nad Al Sheba 2,51608,Dubai,51,Dubai,0,Nad Al Sheba 2,0
25.17203100000009,55.3599779999999,7996,DSZ,Ras Al Khor Industrial,0,Dubai,51,Dubai,0,Ras Al Khor Industrial,0
25.17203100000009,55.3699779999999,7996,DSZ,Ras Al Khor Industrial,0,Dubai,51,Dubai,0,Ras Al Khor Industrial,0
25.17203100000009,55.379977999999895,7996,DSZ,Ras Al Khor Industrial,0,Dubai,51,Dubai,0,Ras Al Khor Industrial,0
25.17203100000009,55.38997799999989,3858,DSZ,International City,51604,Dubai,51,Dubai,0,International City,0
25.17203100000009,55.39997799999989,3858,DSZ,International City,51604,Dubai,51,Dubai,0,International City,0
25.17203100000009,55.40997799999989,3858,DSZ,International City,51604,Dubai,51,Dubai,0,International City,0
25.17203100000009,55.41997799999989,3858,DSZ,International City,51604,Dubai,51,Dubai,0,International City,0
25.17203100000009,55.429977999999885,3856,DSZ,Al Warqa 4,78056,Dubai,51,Dubai,0,Al Warqa 4,0
25.17203100000009,55.43997799999988,3857,DSZ,Al Warqa 5,78056,Dubai,51,Dubai,0,Al Warqa 5,0
25.17203100000009,55.44997799999988,3857,DSZ,Al Warqa 5,78056,Dubai,51,Dubai,0,Al Warqa 5,0
25.17203100000009,55.45997799999988,3857,DSZ,Al Warqa 5,78056,Dubai,51,Dubai,0,Al Warqa 5,0
25.17203100000009,55.46997799999988,3857,DSZ,Al Warqa 5,78056,Dubai,51,Dubai,0,Al Warqa 5,0
25.17203100000009,55.479977999999875,3857,DSZ,Al Warqa 5,78056,Dubai,51,Dubai,0,Al Warqa 5,0
25.17203100000009,55.48997799999987,3857,DSZ,Al Warqa 5,78056,Dubai,51,Dubai,0,Al Warqa 5,0
25.17203100000009,55.49997799999987,3857,DSZ,Al Warqa 5,78056,Dubai,51,Dubai,0,Al Warqa 5,0
25.18203100000009,55.14997799999994,7723,DSZ,Umm Suqeim 3,0,Dubai,51,Dubai,0,Umm Suqeim 3,0
25.18203100000009,55.15997799999994,7722,DSZ,Umm Suqeim 2,0,Dubai,51,Dubai,0,Umm Suqeim 2,0
25.18203100000009,55.16997799999994,7722,DSZ,Umm Suqeim 2,0,Dubai,51,Dubai,0,Umm Suqeim 2,0
25.18203100000009,55.179977999999934,7721,DSZ,Umm Suqeim 1,0,Dubai,51,Dubai,0,Umm Suqeim 1,0
25.18203100000009,55.18997799999993,7721,DSZ,Umm Suqeim 1,0,Dubai,51,Dubai,0,Umm Suqeim 1,0
25.18203100000009,55.19997799999993,3843,DSZ,Jumeirah 3,51404,Dubai,51,Dubai,0,Jumeirah 3,0
25.18203100000009,55.20997799999993,3843,DSZ,Jumeirah 3,51404,Dubai,51,Dubai,0,Jumeirah 3,0
25.18203100000009,55.21997799999993,3843,DSZ,Jumeirah 3,51404,Dubai,51,Dubai,0,Jumeirah 3,0
25.18203100000009,55.229977999999925,3843,DSZ,Jumeirah 3,51404,Dubai,51,Dubai,0,Jumeirah 3,0
25.18203100000009,55.23997799999992,3839,DSZ,Al Safa 1,51401,Dubai,51,Dubai,0,Al Safa 1,0
25.18203100000009,55.24997799999992,3839,DSZ,Al Safa 1,51401,Dubai,51,Dubai,0,Al Safa 1,0
25.18203100000009,55.25997799999992,3801,DSZ,Business Bay,51702,Dubai,51,Dubai,0,Business Bay,0
25.18203100000009,55.26997799999992,3801,DSZ,Business Bay,51702,Dubai,51,Dubai,0,Business Bay,0
25.18203100000009,55.279977999999915,3801,DSZ,Business Bay,51702,Dubai,51,Dubai,0,Business Bay,0
25.18203100000009,55.28997799999991,7999,DSZ,"Design District, Dubai",0,Dubai,51,Dubai,0,"Design District, Dubai",0
25.18203100000009,55.29997799999991,7999,DSZ,"Design District, Dubai",0,Dubai,51,Dubai,0,"Design District, Dubai",0
25.18203100000009,55.30997799999991,7999,DSZ,"Design District, Dubai",0,Dubai,51,Dubai,0,"Design District, Dubai",0
25.18203100000009,55.31997799999991,7999,DSZ,"Design District, Dubai",0,Dubai,51,Dubai,0,"Design District, Dubai",0
25.18203100000009,55.329977999999905,3860,DSZ,Ras Al Khor,51610,Dubai,51,Dubai,0,Ras Al Khor,0
25.18203100000009,55.3399779999999,3860,DSZ,Ras Al Khor,51610,Dubai,51,Dubai,0,Ras Al Khor,0
25.18203100000009,55.3499779999999,3860,DSZ,Ras Al Khor,51610,Dubai,51,Dubai,0,Ras Al Khor,0
25.18203100000009,55.3599779999999,7996,DSZ,Ras Al Khor Industrial,0,Dubai,51,Dubai,0,Ras Al Khor Industrial,0
25.18203100000009,55.3699779999999,7996,DSZ,Ras Al Khor Industrial,0,Dubai,51,Dubai,0,Ras Al Khor Industrial,0
25.18203100000009,55.379977999999895,7996,DSZ,Ras Al Khor Industrial,0,Dubai,51,Dubai,0,Ras Al Khor Industrial,0
25.18203100000009,55.38997799999989,3853,DSZ,Al Warqa 1,78056,Dubai,51,Dubai,0,Al Warqa 1,0
25.18203100000009,55.39997799999989,3853,DSZ,Al Warqa 1,78056,Dubai,51,Dubai,0,Al Warqa 1,0
25.18203100000009,55.40997799999989,3853,DSZ,Al Warqa 1,78056,Dubai,51,Dubai,0,Al Warqa 1,0
25.18203100000009,55.41997799999989,3855,DSZ,Al Warqa 3,78056,Dubai,51,Dubai,0,Al Warqa 3,0
25.18203100000009,55.429977999999885,3856,DSZ,Al Warqa 4,78056,Dubai,51,Dubai,0,Al Warqa 4,0
25.18203100000009,55.43997799999988,3856,DSZ,Al Warqa 4,78056,Dubai,51,Dubai,0,Al Warqa 4,0
25.18203100000009,55.44997799999988,3857,DSZ,Al Warqa 5,78056,Dubai,51,Dubai,0,Al Warqa 5,0
25.18203100000009,55.45997799999988,3857,DSZ,Al Warqa 5,78056,Dubai,51,Dubai,0,Al Warqa 5,0
25.18203100000009,55.46997799999988,3857,DSZ,Al Warqa 5,78056,Dubai,51,Dubai,0,Al Warqa 5,0
25.18203100000009,55.479977999999875,3857,DSZ,Al Warqa 5,78056,Dubai,51,Dubai,0,Al Warqa 5,0
25.18203100000009,55.48997799999987,3857,DSZ,Al Warqa 5,78056,Dubai,51,Dubai,0,Al Warqa 5,0
25.18203100000009,55.49997799999987,3857,DSZ,Al Warqa 5,78056,Dubai,51,Dubai,0,Al Warqa 5,0
25.192031000000092,55.15997799999994,7722,DSZ,Umm Suqeim 2,0,Dubai,51,Dubai,0,Umm Suqeim 2,0
25.192031000000092,55.16997799999994,7721,DSZ,Umm Suqeim 1,0,Dubai,51,Dubai,0,Umm Suqeim 1,0
25.192031000000092,55.179977999999934,3843,DSZ,Jumeirah 3,51404,Dubai,51,Dubai,0,Jumeirah 3,0
25.192031000000092,55.18997799999993,3843,DSZ,Jumeirah 3,51404,Dubai,51,Dubai,0,Jumeirah 3,0
25.192031000000092,55.19997799999993,3843,DSZ,Jumeirah 3,51404,Dubai,51,Dubai,0,Jumeirah 3,0
25.192031000000092,55.20997799999993,3846,DSZ,Jumeirah Road,51405,Dubai,51,Dubai,0,Jumeirah Road,0
25.192031000000092,55.21997799999993,3846,DSZ,Jumeirah Road,51405,Dubai,51,Dubai,0,Jumeirah Road,0
25.192031000000092,55.229977999999925,3846,DSZ,Jumeirah Road,51405,Dubai,51,Dubai,0,Jumeirah Road,0
25.192031000000092,55.23997799999992,3842,DSZ,Jumeirah 2,51403,Dubai,51,Dubai,0,Jumeirah 2,0
25.192031000000092,55.24997799999992,11019,DSZ,"Al Wasl, Jumeirah, Dubai",0,Dubai,51,Dubai,0,"Al Wasl, Jumeirah, Dubai",0
25.192031000000092,55.25997799999992,11019,DSZ,"Al Wasl, Jumeirah, Dubai",0,Dubai,51,Dubai,0,"Al Wasl, Jumeirah, Dubai",0
25.192031000000092,55.26997799999992,3802,DSZ,Downtown Dubai,51701,Dubai,51,Dubai,0,Downtown Dubai,0
25.192031000000092,55.279977999999915,3802,DSZ,Downtown Dubai,51701,Dubai,51,Dubai,0,Downtown Dubai,0
25.192031000000092,55.28997799999991,7999,DSZ,"Design District, Dubai",0,Dubai,51,Dubai,0,"Design District, Dubai",0
25.192031000000092,55.29997799999991,7999,DSZ,"Design District, Dubai",0,Dubai,51,Dubai,0,"Design District, Dubai",0
25.192031000000092,55.30997799999991,7999,DSZ,"Design District, Dubai",0,Dubai,51,Dubai,0,"Design District, Dubai",0
25.192031000000092,55.31997799999991,7999,DSZ,"Design District, Dubai",0,Dubai,51,Dubai,0,"Design District, Dubai",0
25.192031000000092,55.329977999999905,3860,DSZ,Ras Al Khor,51610,Dubai,51,Dubai,0,Ras Al Khor,0
25.192031000000092,55.3399779999999,3860,DSZ,Ras Al Khor,51610,Dubai,51,Dubai,0,Ras Al Khor,0
25.192031000000092,55.3499779999999,3860,DSZ,Ras Al Khor,51610,Dubai,51,Dubai,0,Ras Al Khor,0
25.192031000000092,55.3599779999999,3860,DSZ,Ras Al Khor,51610,Dubai,51,Dubai,0,Ras Al Khor,0
25.192031000000092,55.3699779999999,10429,DSZ,Nadd Al Hamar,0,Dubai,51,Dubai,0,Nadd Al Hamar,0
25.192031000000092,55.379977999999895,10429,DSZ,Nadd Al Hamar,0,Dubai,51,Dubai,0,Nadd Al Hamar,0
25.192031000000092,55.38997799999989,10429,DSZ,Nadd Al Hamar,0,Dubai,51,Dubai,0,Nadd Al Hamar,0
25.192031000000092,55.39997799999989,3853,DSZ,Al Warqa 1,78056,Dubai,51,Dubai,0,Al Warqa 1,0
25.192031000000092,55.40997799999989,3853,DSZ,Al Warqa 1,78056,Dubai,51,Dubai,0,Al Warqa 1,0
25.192031000000092,55.41997799999989,3855,DSZ,Al Warqa 3,78056,Dubai,51,Dubai,0,Al Warqa 3,0
25.192031000000092,55.429977999999885,3856,DSZ,Al Warqa 4,78056,Dubai,51,Dubai,0,Al Warqa 4,0
25.192031000000092,55.43997799999988,3856,DSZ,Al Warqa 4,78056,Dubai,51,Dubai,0,Al Warqa 4,0
25.192031000000092,55.44997799999988,3857,DSZ,Al Warqa 5,78056,Dubai,51,Dubai,0,Al Warqa 5,0
25.192031000000092,55.45997799999988,3857,DSZ,Al Warqa 5,78056,Dubai,51,Dubai,0,Al Warqa 5,0
25.192031000000092,55.46997799999988,3857,DSZ,Al Warqa 5,78056,Dubai,51,Dubai,0,Al Warqa 5,0
25.192031000000092,55.479977999999875,3857,DSZ,Al Warqa 5,78056,Dubai,51,Dubai,0,Al Warqa 5,0
25.192031000000092,55.48997799999987,3857,DSZ,Al Warqa 5,78056,Dubai,51,Dubai,0,Al Warqa 5,0
25.192031000000092,55.49997799999987,3857,DSZ,Al Warqa 5,78056,Dubai,51,Dubai,0,Al Warqa 5,0
25.202031000000094,55.16997799999994,7721,DSZ,Umm Suqeim 1,0,Dubai,51,Dubai,0,Umm Suqeim 1,0
25.202031000000094,55.179977999999934,3846,DSZ,Jumeirah Road,51405,Dubai,51,Dubai,0,Jumeirah Road,0
25.202031000000094,55.18997799999993,3846,DSZ,Jumeirah Road,51405,Dubai,51,Dubai,0,Jumeirah Road,0
25.202031000000094,55.19997799999993,3846,DSZ,Jumeirah Road,51405,Dubai,51,Dubai,0,Jumeirah Road,0
25.202031000000094,55.20997799999993,3846,DSZ,Jumeirah Road,51405,Dubai,51,Dubai,0,Jumeirah Road,0
25.202031000000094,55.21997799999993,3846,DSZ,Jumeirah Road,51405,Dubai,51,Dubai,0,Jumeirah Road,0
25.202031000000094,55.229977999999925,3846,DSZ,Jumeirah Road,51405,Dubai,51,Dubai,0,Jumeirah Road,0
25.202031000000094,55.23997799999992,3842,DSZ,Jumeirah 2,51403,Dubai,51,Dubai,0,Jumeirah 2,0
25.202031000000094,55.24997799999992,3842,DSZ,Jumeirah 2,51403,Dubai,51,Dubai,0,Jumeirah 2,0
25.202031000000094,55.25997799999992,11019,DSZ,"Al Wasl, Jumeirah, Dubai",0,Dubai,51,Dubai,0,"Al Wasl, Jumeirah, Dubai",0
25.202031000000094,55.26997799999992,3802,DSZ,Downtown Dubai,51701,Dubai,51,Dubai,0,Downtown Dubai,0
25.202031000000094,55.279977999999915,3802,DSZ,Downtown Dubai,51701,Dubai,51,Dubai,0,Downtown Dubai,0
25.202031000000094,55.28997799999991,3802,DSZ,Downtown Dubai,51701,Dubai,51,Dubai,0,Downtown Dubai,0
25.202031000000094,55.29997799999991,7999,DSZ,"Design District, Dubai",0,Dubai,51,Dubai,0,"Design District, Dubai",0
25.202031000000094,55.30997799999991,7999,DSZ,"Design District, Dubai",0,Dubai,51,Dubai,0,"Design District, Dubai",0
25.202031000000094,55.31997799999991,4720,DSZ,Al Jaddaf,51507,Dubai,51,Dubai,0,Al Jaddaf,0
25.202031000000094,55.329977999999905,4720,DSZ,Al Jaddaf,51507,Dubai,51,Dubai,0,Al Jaddaf,0
25.202031000000094,55.3399779999999,3860,DSZ,Ras Al Khor,51610,Dubai,51,Dubai,0,Ras Al Khor,0
25.202031000000094,55.3499779999999,3860,DSZ,Ras Al Khor,51610,Dubai,51,Dubai,0,Ras Al Khor,0
25.202031000000094,55.3599779999999,3860,DSZ,Ras Al Khor,51610,Dubai,51,Dubai,0,Ras Al Khor,0
25.202031000000094,55.3699779999999,4715,DSZ,Al Waha,0,Dubai,51,Dubai,0,Al Waha,0
25.202031000000094,55.379977999999895,10429,DSZ,Nadd Al Hamar,0,Dubai,51,Dubai,0,Nadd Al Hamar,0
25.202031000000094,55.38997799999989,10429,DSZ,Nadd Al Hamar,0,Dubai,51,Dubai,0,Nadd Al Hamar,0
25.202031000000094,55.39997799999989,3854,DSZ,Al Warqa 2,78056,Dubai,51,Dubai,0,Al Warqa 2,0
25.202031000000094,55.40997799999989,3854,DSZ,Al Warqa 2,78056,Dubai,51,Dubai,0,Al Warqa 2,0
25.202031000000094,55.41997799999989,3854,DSZ,Al Warqa 2,78056,Dubai,51,Dubai,0,Al Warqa 2,0
25.202031000000094,55.429977999999885,3856,DSZ,Al Warqa 4,78056,Dubai,51,Dubai,0,Al Warqa 4,0
25.202031000000094,55.43997799999988,3856,DSZ,Al Warqa 4,78056,Dubai,51,Dubai,0,Al Warqa 4,0
25.202031000000094,55.44997799999988,3856,DSZ,Al Warqa 4,78056,Dubai,51,Dubai,0,Al Warqa 4,0
25.202031000000094,55.45997799999988,3857,DSZ,Al Warqa 5,78056,Dubai,51,Dubai,0,Al Warqa 5,0
25.202031000000094,55.46997799999988,3857,DSZ,Al Warqa 5,78056,Dubai,51,Dubai,0,Al Warqa 5,0
25.202031000000094,55.479977999999875,3857,DSZ,Al Warqa 5,78056,Dubai,51,Dubai,0,Al Warqa 5,0
25.202031000000094,55.48997799999987,3857,DSZ,Al Warqa 5,78056,Dubai,51,Dubai,0,Al Warqa 5,0
25.202031000000094,55.49997799999987,3857,DSZ,Al Warqa 5,78056,Dubai,51,Dubai,0,Al Warqa 5,0
25.212031000000096,55.179977999999934,3846,DSZ,Jumeirah Road,51405,Dubai,51,Dubai,0,Jumeirah Road,0
25.212031000000096,55.18997799999993,3846,DSZ,Jumeirah Road,51405,Dubai,51,Dubai,0,Jumeirah Road,0
25.212031000000096,55.19997799999993,3846,DSZ,Jumeirah Road,51405,Dubai,51,Dubai,0,Jumeirah Road,0
25.212031000000096,55.20997799999993,3846,DSZ,Jumeirah Road,51405,Dubai,51,Dubai,0,Jumeirah Road,0
25.212031000000096,55.21997799999993,3846,DSZ,Jumeirah Road,51405,Dubai,51,Dubai,0,Jumeirah Road,0
25.212031000000096,55.229977999999925,3842,DSZ,Jumeirah 2,51403,Dubai,51,Dubai,0,Jumeirah 2,0
25.212031000000096,55.23997799999992,3842,DSZ,Jumeirah 2,51403,Dubai,51,Dubai,0,Jumeirah 2,0
25.212031000000096,55.24997799999992,3841,DSZ,Jumeirah 1,51402,Dubai,51,Dubai,0,Jumeirah 1,0
25.212031000000096,55.25997799999992,4717,DSZ,Al Badaa,51407,Dubai,51,Dubai,0,Al Badaa,0
25.212031000000096,55.26997799999992,3830,DSZ,Dubai International Financial Centre,51703,Dubai,51,Dubai,0,Dubai International Financial Centre,0
25.212031000000096,55.279977999999915,3830,DSZ,Dubai International Financial Centre,51703,Dubai,51,Dubai,0,Dubai International Financial Centre,0
25.212031000000096,55.28997799999991,4723,DSZ,Za'abeel,0,Dubai,51,Dubai,0,Za'abeel,0
25.212031000000096,55.29997799999991,4723,DSZ,Za'abeel,0,Dubai,51,Dubai,0,Za'abeel,0
25.212031000000096,55.30997799999991,4723,DSZ,Za'abeel,0,Dubai,51,Dubai,0,Za'abeel,0
25.212031000000096,55.31997799999991,4720,DSZ,Al Jaddaf,51507,Dubai,51,Dubai,0,Al Jaddaf,0
25.212031000000096,55.329977999999905,4720,DSZ,Al Jaddaf,51507,Dubai,51,Dubai,0,Al Jaddaf,0
25.212031000000096,55.3399779999999,4720,DSZ,Al Jaddaf,51507,Dubai,51,Dubai,0,Al Jaddaf,0
25.212031000000096,55.3499779999999,3818,DSZ,Festival City,51807,Dubai,51,Dubai,0,Festival City,0
25.212031000000096,55.3599779999999,3818,DSZ,Festival City,51807,Dubai,51,Dubai,0,Festival City,0
25.212031000000096,55.3699779999999,4715,DSZ,Al Waha,0,Dubai,51,Dubai,0,Al Waha,0
25.212031000000096,55.379977999999895,4715,DSZ,Al Waha,0,Dubai,51,Dubai,0,Al Waha,0
25.212031000000096,55.38997799999989,7994,DSZ,Nad Shamma,0,Dubai,51,Dubai,0,Nad Shamma,0
25.212031000000096,55.39997799999989,3859,DSZ,Mirdif,51606,Dubai,51,Dubai,0,Mirdif,0
25.212031000000096,55.40997799999989,3859,DSZ,Mirdif,51606,Dubai,51,Dubai,0,Mirdif,0
25.212031000000096,55.41997799999989,3859,DSZ,Mirdif,51606,Dubai,51,Dubai,0,Mirdif,0
25.212031000000096,55.429977999999885,3854,DSZ,Al Warqa 2,78056,Dubai,51,Dubai,0,Al Warqa 2,0
25.212031000000096,55.43997799999988,3856,DSZ,Al Warqa 4,78056,Dubai,51,Dubai,0,Al Warqa 4,0
25.212031000000096,55.44997799999988,3856,DSZ,Al Warqa 4,78056,Dubai,51,Dubai,0,Al Warqa 4,0
25.212031000000096,55.45997799999988,3857,DSZ,Al Warqa 5,78056,Dubai,51,Dubai,0,Al Warqa 5,0
25.212031000000096,55.46997799999988,3857,DSZ,Al Warqa 5,78056,Dubai,51,Dubai,0,Al Warqa 5,0
25.212031000000096,55.479977999999875,3857,DSZ,Al Warqa 5,78056,Dubai,51,Dubai,0,Al Warqa 5,0
25.212031000000096,55.48997799999987,3857,DSZ,Al Warqa 5,78056,Dubai,51,Dubai,0,Al Warqa 5,0
25.212031000000096,55.49997799999987,3857,DSZ,Al Warqa 5,78056,Dubai,51,Dubai,0,Al Warqa 5,0
25.222031000000097,55.179977999999934,3846,DSZ,Jumeirah Road,51405,Dubai,51,Dubai,0,Jumeirah Road,0
25.222031000000097,55.18997799999993,3846,DSZ,Jumeirah Road,51405,Dubai,51,Dubai,0,Jumeirah Road,0
25.222031000000097,55.19997799999993,3846,DSZ,Jumeirah Road,51405,Dubai,51,Dubai,0,Jumeirah Road,0
25.222031000000097,55.20997799999993,3846,DSZ,Jumeirah Road,51405,Dubai,51,Dubai,0,Jumeirah Road,0
25.222031000000097,55.21997799999993,3842,DSZ,Jumeirah 2,51403,Dubai,51,Dubai,0,Jumeirah 2,0
25.222031000000097,55.229977999999925,3842,DSZ,Jumeirah 2,51403,Dubai,51,Dubai,0,Jumeirah 2,0
25.222031000000097,55.23997799999992,3841,DSZ,Jumeirah 1,51402,Dubai,51,Dubai,0,Jumeirah 1,0
25.222031000000097,55.24997799999992,3841,DSZ,Jumeirah 1,51402,Dubai,51,Dubai,0,Jumeirah 1,0
25.222031000000097,55.25997799999992,3841,DSZ,Jumeirah 1,51402,Dubai,51,Dubai,0,Jumeirah 1,0
25.222031000000097,55.26997799999992,3844,DSZ,Satwa,51407,Dubai,51,Dubai,0,Satwa,0
25.222031000000097,55.279977999999915,3829,DSZ,Trade Centre Area 2,51705,Dubai,51,Dubai,0,Trade Centre Area 2,0
25.222031000000097,55.28997799999991,3829,DSZ,Trade Centre Area 2,51705,Dubai,51,Dubai,0,Trade Centre Area 2,0
25.222031000000097,55.29997799999991,4723,DSZ,Za'abeel,0,Dubai,51,Dubai,0,Za'abeel,0
25.222031000000097,55.30997799999991,4723,DSZ,Za'abeel,0,Dubai,51,Dubai,0,Za'abeel,0
25.222031000000097,55.31997799999991,4720,DSZ,Al Jaddaf,51507,Dubai,51,Dubai,0,Al Jaddaf,0
25.222031000000097,55.329977999999905,4720,DSZ,Al Jaddaf,51507,Dubai,51,Dubai,0,Al Jaddaf,0
25.222031000000097,55.3399779999999,3818,DSZ,Festival City,51807,Dubai,51,Dubai,0,Festival City,0
25.222031000000097,55.3499779999999,3818,DSZ,Festival City,51807,Dubai,51,Dubai,0,Festival City,0
25.222031000000097,55.3599779999999,3818,DSZ,Festival City,51807,Dubai,51,Dubai,0,Festival City,0
25.222031000000097,55.3699779999999,7997,DSZ,Umm Ramool,0,Dubai,51,Dubai,0,Umm Ramool,0
25.222031000000097,55.379977999999895,7994,DSZ,Nad Shamma,0,Dubai,51,Dubai,0,Nad Shamma,0
25.222031000000097,55.38997799999989,3822,DSZ,Al Rashidiya,51810,Dubai,51,Dubai,0,Al Rashidiya,0
25.222031000000097,55.39997799999989,3859,DSZ,Mirdif,51606,Dubai,51,Dubai,0,Mirdif,0
25.222031000000097,55.40997799999989,3859,DSZ,Mirdif,51606,Dubai,51,Dubai,0,Mirdif,0
25.222031000000097,55.41997799999989,3859,DSZ,Mirdif,51606,Dubai,51,Dubai,0,Mirdif,0
25.222031000000097,55.429977999999885,3859,DSZ,Mirdif,51606,Dubai,51,Dubai,0,Mirdif,0
25.222031000000097,55.43997799999988,3859,DSZ,Mirdif,51606,Dubai,51,Dubai,0,Mirdif,0
25.222031000000097,55.44997799999988,8461,DSZ,Al Mizhar,0,Dubai,51,Dubai,0,Al Mizhar,0
25.222031000000097,55.45997799999988,8461,DSZ,Al Mizhar,0,Dubai,51,Dubai,0,Al Mizhar,0
25.222031000000097,55.46997799999988,8461,DSZ,Al Mizhar,0,Dubai,51,Dubai,0,Al Mizhar,0
25.222031000000097,55.479977999999875,8461,DSZ,Al Mizhar,0,Dubai,51,Dubai,0,Al Mizhar,0
25.222031000000097,55.48997799999987,8082,DSZ,"Industrial Area 18, Sharjah",0,Sharjah,56,Sharjah,0,"Industrial Area 18, Sharjah",0
25.222031000000097,55.49997799999987,8082,DSZ,"Industrial Area 18, Sharjah",0,Sharjah,56,Sharjah,0,"Industrial Area 18, Sharjah",0
25.222031000000097,55.50997799999987,8082,DSZ,"Industrial Area 18, Sharjah",0,Sharjah,56,Sharjah,0,"Industrial Area 18, Sharjah",0
25.222031000000097,55.51997799999987,8082,DSZ,"Industrial Area 18, Sharjah",0,Sharjah,56,Sharjah,0,"Industrial Area 18, Sharjah",0
25.222031000000097,55.529977999999865,8082,DSZ,"Industrial Area 18, Sharjah",0,Sharjah,56,Sharjah,0,"Industrial Area 18, Sharjah",0
25.222031000000097,55.53997799999986,8082,DSZ,"Industrial Area 18, Sharjah",0,Sharjah,56,Sharjah,0,"Industrial Area 18, Sharjah",0
25.2320310000001,55.179977999999934,3846,DSZ,Jumeirah Road,51405,Dubai,51,Dubai,0,Jumeirah Road,0
25.2320310000001,55.18997799999993,3846,DSZ,Jumeirah Road,51405,Dubai,51,Dubai,0,Jumeirah Road,0
25.2320310000001,55.19997799999993,3846,DSZ,Jumeirah Road,51405,Dubai,51,Dubai,0,Jumeirah Road,0
25.2320310000001,55.20997799999993,3846,DSZ,Jumeirah Road,51405,Dubai,51,Dubai,0,Jumeirah Road,0
25.2320310000001,55.21997799999993,3841,DSZ,Jumeirah 1,51402,Dubai,51,Dubai,0,Jumeirah 1,0
25.2320310000001,55.229977999999925,3841,DSZ,Jumeirah 1,51402,Dubai,51,Dubai,0,Jumeirah 1,0
25.2320310000001,55.23997799999992,3841,DSZ,Jumeirah 1,51402,Dubai,51,Dubai,0,Jumeirah 1,0
25.2320310000001,55.24997799999992,3841,DSZ,Jumeirah 1,51402,Dubai,51,Dubai,0,Jumeirah 1,0
25.2320310000001,55.25997799999992,3841,DSZ,Jumeirah 1,51402,Dubai,51,Dubai,0,Jumeirah 1,0
25.2320310000001,55.26997799999992,4719,DSZ,Al Hudaiba,51407,Dubai,51,Dubai,0,Al Hudaiba,0
25.2320310000001,55.279977999999915,4719,DSZ,Al Hudaiba,51407,Dubai,51,Dubai,0,Al Hudaiba,0
25.2320310000001,55.28997799999991,3828,DSZ,Trade Centre Area 1,51705,Dubai,51,Dubai,0,Trade Centre Area 1,0
25.2320310000001,55.29997799999991,7988,DSZ,Al Kifaf,0,Dubai,51,Dubai,0,Al Kifaf,0
25.2320310000001,55.30997799999991,3797,DSZ,Oud Metha,51507,Dubai,51,Dubai,0,Oud Metha,0
25.2320310000001,55.31997799999991,4724,DSZ,Dubai Healthcare City,82234,Dubai,51,Dubai,0,Dubai Healthcare City,0
25.2320310000001,55.329977999999905,4724,DSZ,Dubai Healthcare City,82234,Dubai,51,Dubai,0,Dubai Healthcare City,0
25.2320310000001,55.3399779999999,4724,DSZ,Dubai Healthcare City,82234,Dubai,51,Dubai,0,Dubai Healthcare City,0
25.2320310000001,55.3499779999999,3819,DSZ,Garhoud,51808,Dubai,51,Dubai,0,Garhoud,0
25.2320310000001,55.3599779999999,3819,DSZ,Garhoud,51808,Dubai,51,Dubai,0,Garhoud,0
25.2320310000001,55.3699779999999,7997,DSZ,Umm Ramool,0,Dubai,51,Dubai,0,Umm Ramool,0
25.2320310000001,55.379977999999895,7997,DSZ,Umm Ramool,0,Dubai,51,Dubai,0,Umm Ramool,0
25.2320310000001,55.38997799999989,3822,DSZ,Al Rashidiya,51810,Dubai,51,Dubai,0,Al Rashidiya,0
25.2320310000001,55.39997799999989,3822,DSZ,Al Rashidiya,51810,Dubai,51,Dubai,0,Al Rashidiya,0
25.2320310000001,55.40997799999989,3871,DSZ,Muhaisnah 1,78054,Dubai,51,Dubai,0,Muhaisnah 1,0
25.2320310000001,55.41997799999989,3859,DSZ,Mirdif,51606,Dubai,51,Dubai,0,Mirdif,0
25.2320310000001,55.429977999999885,3859,DSZ,Mirdif,51606,Dubai,51,Dubai,0,Mirdif,0
25.2320310000001,55.43997799999988,8461,DSZ,Al Mizhar,0,Dubai,51,Dubai,0,Al Mizhar,0
25.2320310000001,55.44997799999988,8461,DSZ,Al Mizhar,0,Dubai,51,Dubai,0,Al Mizhar,0
25.2320310000001,55.45997799999988,8461,DSZ,Al Mizhar,0,Dubai,51,Dubai,0,Al Mizhar,0
25.2320310000001,55.46997799999988,8461,DSZ,Al Mizhar,0,Dubai,51,Dubai,0,Al Mizhar,0
25.2320310000001,55.479977999999875,8461,DSZ,Al Mizhar,0,Dubai,51,Dubai,0,Al Mizhar,0
25.2320310000001,55.48997799999987,8082,DSZ,"Industrial Area 18, Sharjah",0,Sharjah,56,Sharjah,0,"Industrial Area 18, Sharjah",0
25.2320310000001,55.49997799999987,8082,DSZ,"Industrial Area 18, Sharjah",0,Sharjah,56,Sharjah,0,"Industrial Area 18, Sharjah",0
25.2320310000001,55.50997799999987,8082,DSZ,"Industrial Area 18, Sharjah",0,Sharjah,56,Sharjah,0,"Industrial Area 18, Sharjah",0
25.2320310000001,55.51997799999987,8082,DSZ,"Industrial Area 18, Sharjah",0,Sharjah,56,Sharjah,0,"Industrial Area 18, Sharjah",0
25.2320310000001,55.529977999999865,8082,DSZ,"Industrial Area 18, Sharjah",0,Sharjah,56,Sharjah,0,"Industrial Area 18, Sharjah",0
25.2320310000001,55.53997799999986,8091,DSZ,Al Noaf 4,0,Sharjah,56,Sharjah,0,Al Noaf 4,0
25.2320310000001,55.54997799999986,8091,DSZ,Al Noaf 4,0,Sharjah,56,Sharjah,0,Al Noaf 4,0
25.2420310000001,55.19997799999993,3842,DSZ,Jumeirah 2,51403,Dubai,51,Dubai,0,Jumeirah 2,0
25.2420310000001,55.20997799999993,3841,DSZ,Jumeirah 1,51402,Dubai,51,Dubai,0,Jumeirah 1,0
25.2420310000001,55.21997799999993,3841,DSZ,Jumeirah 1,51402,Dubai,51,Dubai,0,Jumeirah 1,0
25.2420310000001,55.229977999999925,3841,DSZ,Jumeirah 1,51402,Dubai,51,Dubai,0,Jumeirah 1,0
25.2420310000001,55.23997799999992,3841,DSZ,Jumeirah 1,51402,Dubai,51,Dubai,0,Jumeirah 1,0
25.2420310000001,55.24997799999992,3841,DSZ,Jumeirah 1,51402,Dubai,51,Dubai,0,Jumeirah 1,0
25.2420310000001,55.25997799999992,4722,DSZ,Al Mina,51407,Dubai,51,Dubai,0,Al Mina,0
25.2420310000001,55.26997799999992,4719,DSZ,Al Hudaiba,51407,Dubai,51,Dubai,0,Al Hudaiba,0
25.2420310000001,55.279977999999915,4719,DSZ,Al Hudaiba,51407,Dubai,51,Dubai,0,Al Hudaiba,0
25.2420310000001,55.28997799999991,4721,DSZ,Al Jafiliya,51407,Dubai,51,Dubai,0,Al Jafiliya,0
25.2420310000001,55.29997799999991,3792,DSZ,"Al Karama, Dubai",51502,Dubai,51,Dubai,0,"Al Karama, Dubai",0
25.2420310000001,55.30997799999991,3798,DSZ,Al Nasr,51507,Dubai,51,Dubai,0,Al Nasr,0
25.2420310000001,55.31997799999991,3800,DSZ,Umm Hurair 2,82234,Dubai,51,Dubai,0,Umm Hurair 2,0
25.2420310000001,55.329977999999905,3800,DSZ,Umm Hurair 2,82234,Dubai,51,Dubai,0,Umm Hurair 2,0
25.2420310000001,55.3399779999999,3816,DSZ,Deira City Centre Area,51805,Dubai,51,Dubai,0,Deira City Centre Area,0
25.2420310000001,55.3499779999999,3819,DSZ,Garhoud,51808,Dubai,51,Dubai,0,Garhoud,0
25.2420310000001,55.3599779999999,3819,DSZ,Garhoud,51808,Dubai,51,Dubai,0,Garhoud,0
25.2420310000001,55.3699779999999,3817,DSZ,Dubai International Airport Area,51806,Dubai,51,Dubai,0,Dubai International Airport Area,0
25.2420310000001,55.379977999999895,7997,DSZ,Umm Ramool,0,Dubai,51,Dubai,0,Umm Ramool,0
25.2420310000001,55.38997799999989,3813,DSZ,Al Twar 3,51609,Dubai,51,Dubai,0,Al Twar 3,0
25.2420310000001,55.39997799999989,3813,DSZ,Al Twar 3,51609,Dubai,51,Dubai,0,Al Twar 3,0
25.2420310000001,55.40997799999989,3871,DSZ,Muhaisnah 1,78054,Dubai,51,Dubai,0,Muhaisnah 1,0
25.2420310000001,55.41997799999989,3871,DSZ,Muhaisnah 1,78054,Dubai,51,Dubai,0,Muhaisnah 1,0
25.2420310000001,55.429977999999885,3871,DSZ,Muhaisnah 1,78054,Dubai,51,Dubai,0,Muhaisnah 1,0
25.2420310000001,55.43997799999988,8461,DSZ,Al Mizhar,0,Dubai,51,Dubai,0,Al Mizhar,0
25.2420310000001,55.44997799999988,8461,DSZ,Al Mizhar,0,Dubai,51,Dubai,0,Al Mizhar,0
25.2420310000001,55.45997799999988,8461,DSZ,Al Mizhar,0,Dubai,51,Dubai,0,Al Mizhar,0
25.2420310000001,55.46997799999988,8461,DSZ,Al Mizhar,0,Dubai,51,Dubai,0,Al Mizhar,0
25.2420310000001,55.479977999999875,8082,DSZ,"Industrial Area 18, Sharjah",0,Sharjah,56,Sharjah,0,"Industrial Area 18, Sharjah",0
25.2420310000001,55.48997799999987,8082,DSZ,"Industrial Area 18, Sharjah",0,Sharjah,56,Sharjah,0,"Industrial Area 18, Sharjah",0
25.2420310000001,55.49997799999987,8082,DSZ,"Industrial Area 18, Sharjah",0,Sharjah,56,Sharjah,0,"Industrial Area 18, Sharjah",0
25.2420310000001,55.50997799999987,8082,DSZ,"Industrial Area 18, Sharjah",0,Sharjah,56,Sharjah,0,"Industrial Area 18, Sharjah",0
25.2420310000001,55.51997799999987,8082,DSZ,"Industrial Area 18, Sharjah",0,Sharjah,56,Sharjah,0,"Industrial Area 18, Sharjah",0
25.2420310000001,55.529977999999865,8091,DSZ,Al Noaf 4,0,Sharjah,56,Sharjah,0,Al Noaf 4,0
25.2420310000001,55.53997799999986,8091,DSZ,Al Noaf 4,0,Sharjah,56,Sharjah,0,Al Noaf 4,0
25.2420310000001,55.54997799999986,8091,DSZ,Al Noaf 4,0,Sharjah,56,Sharjah,0,Al Noaf 4,0
25.252031000000102,55.20997799999993,3841,DSZ,Jumeirah 1,51402,Dubai,51,Dubai,0,Jumeirah 1,0
25.252031000000102,55.21997799999993,7998,DSZ,Dubai Maritime City,0,Dubai,51,Dubai,0,Dubai Maritime City,0
25.252031000000102,55.229977999999925,7998,DSZ,Dubai Maritime City,0,Dubai,51,Dubai,0,Dubai Maritime City,0
25.252031000000102,55.23997799999992,7998,DSZ,Dubai Maritime City,0,Dubai,51,Dubai,0,Dubai Maritime City,0
25.252031000000102,55.24997799999992,4722,DSZ,Al Mina,51407,Dubai,51,Dubai,0,Al Mina,0
25.252031000000102,55.25997799999992,4722,DSZ,Al Mina,51407,Dubai,51,Dubai,0,Al Mina,0
25.252031000000102,55.26997799999992,4722,DSZ,Al Mina,51407,Dubai,51,Dubai,0,Al Mina,0
25.252031000000102,55.279977999999915,4722,DSZ,Al Mina,51407,Dubai,51,Dubai,0,Al Mina,0
25.252031000000102,55.28997799999991,7990,DSZ,Al Raffa,0,Dubai,51,Dubai,0,Al Raffa,0
25.252031000000102,55.29997799999991,3795,DSZ,Bur Juman,51505,Dubai,51,Dubai,0,Bur Juman,0
25.252031000000102,55.30997799999991,3792,DSZ,"Al Karama, Dubai",51502,Dubai,51,Dubai,0,"Al Karama, Dubai",0
25.252031000000102,55.31997799999991,7995,DSZ,Port Saeed,0,Dubai,51,Dubai,0,Port Saeed,0
25.252031000000102,55.329977999999905,3816,DSZ,Deira City Centre Area,51805,Dubai,51,Dubai,0,Deira City Centre Area,0
25.252031000000102,55.3399779999999,3816,DSZ,Deira City Centre Area,51805,Dubai,51,Dubai,0,Deira City Centre Area,0
25.252031000000102,55.3599779999999,3817,DSZ,Dubai International Airport Area,51806,Dubai,51,Dubai,0,Dubai International Airport Area,0
25.252031000000102,55.3699779999999,3817,DSZ,Dubai International Airport Area,51806,Dubai,51,Dubai,0,Dubai International Airport Area,0
25.252031000000102,55.379977999999895,3812,DSZ,Al Twar 2,51609,Dubai,51,Dubai,0,Al Twar 2,0
25.252031000000102,55.38997799999989,3813,DSZ,Al Twar 3,51609,Dubai,51,Dubai,0,Al Twar 3,0
25.252031000000102,55.39997799999989,3813,DSZ,Al Twar 3,51609,Dubai,51,Dubai,0,Al Twar 3,0
25.252031000000102,55.40997799999989,3871,DSZ,Muhaisnah 1,78054,Dubai,51,Dubai,0,Muhaisnah 1,0
25.252031000000102,55.41997799999989,3871,DSZ,Muhaisnah 1,78054,Dubai,51,Dubai,0,Muhaisnah 1,0
25.252031000000102,55.429977999999885,3871,DSZ,Muhaisnah 1,78054,Dubai,51,Dubai,0,Muhaisnah 1,0
25.252031000000102,55.43997799999988,8461,DSZ,Al Mizhar,0,Dubai,51,Dubai,0,Al Mizhar,0
25.252031000000102,55.44997799999988,8461,DSZ,Al Mizhar,0,Dubai,51,Dubai,0,Al Mizhar,0
25.252031000000102,55.45997799999988,8461,DSZ,Al Mizhar,0,Dubai,51,Dubai,0,Al Mizhar,0
25.252031000000102,55.46997799999988,8461,DSZ,Al Mizhar,0,Dubai,51,Dubai,0,Al Mizhar,0
25.252031000000102,55.479977999999875,8082,DSZ,"Industrial Area 18, Sharjah",0,Sharjah,56,Sharjah,0,"Industrial Area 18, Sharjah",0
25.252031000000102,55.48997799999987,8082,DSZ,"Industrial Area 18, Sharjah",0,Sharjah,56,Sharjah,0,"Industrial Area 18, Sharjah",0
25.252031000000102,55.49997799999987,8082,DSZ,"Industrial Area 18, Sharjah",0,Sharjah,56,Sharjah,0,"Industrial Area 18, Sharjah",0
25.252031000000102,55.50997799999987,8082,DSZ,"Industrial Area 18, Sharjah",0,Sharjah,56,Sharjah,0,"Industrial Area 18, Sharjah",0
25.252031000000102,55.51997799999987,8091,DSZ,Al Noaf 4,0,Sharjah,56,Sharjah,0,Al Noaf 4,0
25.252031000000102,55.529977999999865,8091,DSZ,Al Noaf 4,0,Sharjah,56,Sharjah,0,Al Noaf 4,0
25.252031000000102,55.53997799999986,8091,DSZ,Al Noaf 4,0,Sharjah,56,Sharjah,0,Al Noaf 4,0
25.252031000000102,55.54997799999986,8091,DSZ,Al Noaf 4,0,Sharjah,56,Sharjah,0,Al Noaf 4,0
25.252031000000102,55.55997799999986,8095,DSZ,Qarayen 4,0,Sharjah,56,Sharjah,0,Qarayen 4,0
25.252031000000102,55.56997799999986,8095,DSZ,Qarayen 4,0,Sharjah,56,Sharjah,0,Qarayen 4,0
25.262031000000103,55.20997799999993,3841,DSZ,Jumeirah 1,51402,Dubai,51,Dubai,0,Jumeirah 1,0
25.262031000000103,55.21997799999993,7998,DSZ,Dubai Maritime City,0,Dubai,51,Dubai,0,Dubai Maritime City,0
25.262031000000103,55.229977999999925,7998,DSZ,Dubai Maritime City,0,Dubai,51,Dubai,0,Dubai Maritime City,0
25.262031000000103,55.23997799999992,7998,DSZ,Dubai Maritime City,0,Dubai,51,Dubai,0,Dubai Maritime City,0
25.262031000000103,55.24997799999992,7998,DSZ,Dubai Maritime City,0,Dubai,51,Dubai,0,Dubai Maritime City,0
25.262031000000103,55.25997799999992,7998,DSZ,Dubai Maritime City,0,Dubai,51,Dubai,0,Dubai Maritime City,0
25.262031000000103,55.26997799999992,7998,DSZ,Dubai Maritime City,0,Dubai,51,Dubai,0,Dubai Maritime City,0
25.262031000000103,55.279977999999915,7990,DSZ,Al Raffa,0,Dubai,51,Dubai,0,Al Raffa,0
25.262031000000103,55.28997799999991,3796,DSZ,Meena Bazaar,51506,Dubai,51,Dubai,0,Meena Bazaar,0
25.262031000000103,55.29997799999991,4718,DSZ,Al Hamriya (OPC),51506,Dubai,51,Dubai,0,Al Hamriya (OPC),0
25.262031000000103,55.30997799999991,3810,DSZ,Al Rigga,51803,Dubai,51,Dubai,0,Al Rigga,0
25.262031000000103,55.31997799999991,7987,DSZ,"Al Buteen, Dubai",0,Dubai,51,Dubai,0,"Al Buteen, Dubai",0
25.262031000000103,55.329977999999905,3804,DSZ,Al Khabaisi,81072,Dubai,51,Dubai,0,Al Khabaisi,0
25.262031000000103,55.3399779999999,3804,DSZ,Al Khabaisi,81072,Dubai,51,Dubai,0,Al Khabaisi,0
25.262031000000103,55.3499779999999,3804,DSZ,Al Khabaisi,81072,Dubai,51,Dubai,0,Al Khabaisi,0
25.262031000000103,55.3599779999999,3811,DSZ,Al Twar 1,51609,Dubai,51,Dubai,0,Al Twar 1,0
25.262031000000103,55.3699779999999,4725,DSZ,Dubai Airport Free Zone,51609,Dubai,51,Dubai,0,Dubai Airport Free Zone,0
25.262031000000103,55.379977999999895,3812,DSZ,Al Twar 2,51609,Dubai,51,Dubai,0,Al Twar 2,0
25.262031000000103,55.38997799999989,3812,DSZ,Al Twar 2,51609,Dubai,51,Dubai,0,Al Twar 2,0
25.262031000000103,55.39997799999989,3877,DSZ,Al Qusais 3,51609,Dubai,51,Dubai,0,Al Qusais 3,0
25.262031000000103,55.40997799999989,3872,DSZ,Muhaisnah 2,78054,Dubai,51,Dubai,0,Muhaisnah 2,0
25.262031000000103,55.41997799999989,3872,DSZ,Muhaisnah 2,78054,Dubai,51,Dubai,0,Muhaisnah 2,0
25.262031000000103,55.429977999999885,3872,DSZ,Muhaisnah 2,78054,Dubai,51,Dubai,0,Muhaisnah 2,0
25.262031000000103,55.43997799999988,8462,DSZ,Oud Al Muteena,0,Dubai,51,Dubai,0,Oud Al Muteena,0
25.262031000000103,55.44997799999988,8462,DSZ,Oud Al Muteena,0,Dubai,51,Dubai,0,Oud Al Muteena,0
25.262031000000103,55.45997799999988,8462,DSZ,Oud Al Muteena,0,Dubai,51,Dubai,0,Oud Al Muteena,0
25.262031000000103,55.46997799999988,8462,DSZ,Oud Al Muteena,0,Dubai,51,Dubai,0,Oud Al Muteena,0
25.262031000000103,55.479977999999875,8087,DSZ,Al Juraina 4,0,Sharjah,56,Sharjah,0,Al Juraina 4,0
25.262031000000103,55.48997799999987,8082,DSZ,"Industrial Area 18, Sharjah",0,Sharjah,56,Sharjah,0,"Industrial Area 18, Sharjah",0
25.262031000000103,55.49997799999987,8082,DSZ,"Industrial Area 18, Sharjah",0,Sharjah,56,Sharjah,0,"Industrial Area 18, Sharjah",0
25.262031000000103,55.50997799999987,8091,DSZ,Al Noaf 4,0,Sharjah,56,Sharjah,0,Al Noaf 4,0
25.262031000000103,55.51997799999987,8091,DSZ,Al Noaf 4,0,Sharjah,56,Sharjah,0,Al Noaf 4,0
25.262031000000103,55.529977999999865,8091,DSZ,Al Noaf 4,0,Sharjah,56,Sharjah,0,Al Noaf 4,0
25.262031000000103,55.53997799999986,8095,DSZ,Qarayen 4,0,Sharjah,56,Sharjah,0,Qarayen 4,0
25.262031000000103,55.54997799999986,8095,DSZ,Qarayen 4,0,Sharjah,56,Sharjah,0,Qarayen 4,0
25.262031000000103,55.55997799999986,8095,DSZ,Qarayen 4,0,Sharjah,56,Sharjah,0,Qarayen 4,0
25.262031000000103,55.56997799999986,8095,DSZ,Qarayen 4,0,Sharjah,56,Sharjah,0,Qarayen 4,0
25.262031000000103,55.579977999999855,8093,DSZ,Qarayen 2,0,Sharjah,56,Sharjah,0,Qarayen 2,0
25.272031000000105,55.21997799999993,7998,DSZ,Dubai Maritime City,0,Dubai,51,Dubai,0,Dubai Maritime City,0
25.272031000000105,55.229977999999925,7998,DSZ,Dubai Maritime City,0,Dubai,51,Dubai,0,Dubai Maritime City,0
25.272031000000105,55.23997799999992,7998,DSZ,Dubai Maritime City,0,Dubai,51,Dubai,0,Dubai Maritime City,0
25.272031000000105,55.24997799999992,7998,DSZ,Dubai Maritime City,0,Dubai,51,Dubai,0,Dubai Maritime City,0
25.272031000000105,55.25997799999992,7998,DSZ,Dubai Maritime City,0,Dubai,51,Dubai,0,Dubai Maritime City,0
25.272031000000105,55.26997799999992,7998,DSZ,Dubai Maritime City,0,Dubai,51,Dubai,0,Dubai Maritime City,0
25.272031000000105,55.279977999999915,7998,DSZ,Dubai Maritime City,0,Dubai,51,Dubai,0,Dubai Maritime City,0
25.272031000000105,55.28997799999991,3809,DSZ,Al Ras,51802,Dubai,51,Dubai,0,Al Ras,0
25.272031000000105,55.29997799999991,7991,DSZ,"Al Sabkha, Dubai",0,Dubai,51,Dubai,0,"Al Sabkha, Dubai",0
25.272031000000105,55.30997799999991,3814,DSZ,"Baniyas, Dubai",51804,Dubai,51,Dubai,0,"Baniyas, Dubai",0
25.272031000000105,55.31997799999991,3808,DSZ,Al Muteena,51801,Dubai,51,Dubai,0,Al Muteena,0
25.272031000000105,55.329977999999905,3805,DSZ,Al Muraqqabat Road,82230,Dubai,51,Dubai,0,Al Muraqqabat Road,0
25.272031000000105,55.3399779999999,3804,DSZ,Al Khabaisi,81072,Dubai,51,Dubai,0,Al Khabaisi,0
25.272031000000105,55.3499779999999,7993,DSZ,Hor Al Anz East,0,Dubai,51,Dubai,0,Hor Al Anz East,0
25.272031000000105,55.3599779999999,3811,DSZ,Al Twar 1,51609,Dubai,51,Dubai,0,Al Twar 1,0
25.272031000000105,55.3699779999999,3811,DSZ,Al Twar 1,51609,Dubai,51,Dubai,0,Al Twar 1,0
25.272031000000105,55.379977999999895,3876,DSZ,Al Qusais 2,51609,Dubai,51,Dubai,0,Al Qusais 2,0
25.272031000000105,55.38997799999989,3876,DSZ,Al Qusais 2,51609,Dubai,51,Dubai,0,Al Qusais 2,0
25.272031000000105,55.39997799999989,3873,DSZ,Muhaisnah 3,78054,Dubai,51,Dubai,0,Muhaisnah 3,0
25.272031000000105,55.40997799999989,3873,DSZ,Muhaisnah 3,78054,Dubai,51,Dubai,0,Muhaisnah 3,0
25.272031000000105,55.41997799999989,3872,DSZ,Muhaisnah 2,78054,Dubai,51,Dubai,0,Muhaisnah 2,0
25.272031000000105,55.429977999999885,3872,DSZ,Muhaisnah 2,78054,Dubai,51,Dubai,0,Muhaisnah 2,0
25.272031000000105,55.43997799999988,8462,DSZ,Oud Al Muteena,0,Dubai,51,Dubai,0,Oud Al Muteena,0
25.272031000000105,55.44997799999988,8462,DSZ,Oud Al Muteena,0,Dubai,51,Dubai,0,Oud Al Muteena,0
25.272031000000105,55.45997799999988,8462,DSZ,Oud Al Muteena,0,Dubai,51,Dubai,0,Oud Al Muteena,0
25.272031000000105,55.46997799999988,8083,DSZ,University of Sharjah,0,Sharjah,56,Sharjah,0,University of Sharjah,0
25.272031000000105,55.479977999999875,8087,DSZ,Al Juraina 4,0,Sharjah,56,Sharjah,0,Al Juraina 4,0
25.272031000000105,55.48997799999987,8090,DSZ,Al Noaf 3,0,Sharjah,56,Sharjah,0,Al Noaf 3,0
25.272031000000105,55.49997799999987,8090,DSZ,Al Noaf 3,0,Sharjah,56,Sharjah,0,Al Noaf 3,0
25.272031000000105,55.50997799999987,8091,DSZ,Al Noaf 4,0,Sharjah,56,Sharjah,0,Al Noaf 4,0
25.272031000000105,55.51997799999987,8089,DSZ,Al Noaf 2,0,Sharjah,56,Sharjah,0,Al Noaf 2,0
25.272031000000105,55.529977999999865,8095,DSZ,Qarayen 4,0,Sharjah,56,Sharjah,0,Qarayen 4,0
25.272031000000105,55.53997799999986,8095,DSZ,Qarayen 4,0,Sharjah,56,Sharjah,0,Qarayen 4,0
25.272031000000105,55.54997799999986,8095,DSZ,Qarayen 4,0,Sharjah,56,Sharjah,0,Qarayen 4,0
25.272031000000105,55.55997799999986,8095,DSZ,Qarayen 4,0,Sharjah,56,Sharjah,0,Qarayen 4,0
25.272031000000105,55.56997799999986,8095,DSZ,Qarayen 4,0,Sharjah,56,Sharjah,0,Qarayen 4,0
25.272031000000105,55.579977999999855,8093,DSZ,Qarayen 2,0,Sharjah,56,Sharjah,0,Qarayen 2,0
25.282031000000107,55.21997799999993,7998,DSZ,Dubai Maritime City,0,Dubai,51,Dubai,0,Dubai Maritime City,0
25.282031000000107,55.229977999999925,7998,DSZ,Dubai Maritime City,0,Dubai,51,Dubai,0,Dubai Maritime City,0
25.282031000000107,55.23997799999992,7998,DSZ,Dubai Maritime City,0,Dubai,51,Dubai,0,Dubai Maritime City,0
25.282031000000107,55.24997799999992,7998,DSZ,Dubai Maritime City,0,Dubai,51,Dubai,0,Dubai Maritime City,0
25.282031000000107,55.25997799999992,7998,DSZ,Dubai Maritime City,0,Dubai,51,Dubai,0,Dubai Maritime City,0
25.282031000000107,55.26997799999992,7998,DSZ,Dubai Maritime City,0,Dubai,51,Dubai,0,Dubai Maritime City,0
25.282031000000107,55.279977999999915,7998,DSZ,Dubai Maritime City,0,Dubai,51,Dubai,0,Dubai Maritime City,0
25.282031000000107,55.28997799999991,3809,DSZ,Al Ras,51802,Dubai,51,Dubai,0,Al Ras,0
25.282031000000107,55.29997799999991,7989,DSZ,Al Murar,0,Dubai,51,Dubai,0,Al Murar,0
25.282031000000107,55.30997799999991,7989,DSZ,Al Murar,0,Dubai,51,Dubai,0,Al Murar,0
25.282031000000107,55.31997799999991,7986,DSZ,Al Baraha,0,Dubai,51,Dubai,0,Al Baraha,0
25.282031000000107,55.329977999999905,3803,DSZ,Abu Hail,82232,Dubai,51,Dubai,0,Abu Hail,0
25.282031000000107,55.3399779999999,7992,DSZ,"Al Waheda, Dubai",0,Dubai,51,Dubai,0,"Al Waheda, Dubai",0
25.282031000000107,55.3499779999999,7993,DSZ,Hor Al Anz East,0,Dubai,51,Dubai,0,Hor Al Anz East,0
25.282031000000107,55.3599779999999,7993,DSZ,Hor Al Anz East,0,Dubai,51,Dubai,0,Hor Al Anz East,0
25.282031000000107,55.3699779999999,3875,DSZ,Al Qusais 1,51609,Dubai,51,Dubai,0,Al Qusais 1,0
25.282031000000107,55.379977999999895,3875,DSZ,Al Qusais 1,51609,Dubai,51,Dubai,0,Al Qusais 1,0
25.282031000000107,55.38997799999989,7982,DSZ,Al Qusais Industrial 2,0,Dubai,51,Dubai,0,Al Qusais Industrial 2,0
25.282031000000107,55.39997799999989,7982,DSZ,Al Qusais Industrial 2,0,Dubai,51,Dubai,0,Al Qusais Industrial 2,0
25.282031000000107,55.40997799999989,3874,DSZ,Muhaisnah 4,78054,Dubai,51,Dubai,0,Muhaisnah 4,0
25.282031000000107,55.41997799999989,7985,DSZ,Al Qusais Industrial 5,0,Dubai,51,Dubai,0,Al Qusais Industrial 5,0
25.282031000000107,55.429977999999885,8079,DSZ,"Industrial Area 15, Sharjah",0,Sharjah,56,Sharjah,0,"Industrial Area 15, Sharjah",0
25.282031000000107,55.43997799999988,8079,DSZ,"Industrial Area 15, Sharjah",0,Sharjah,56,Sharjah,0,"Industrial Area 15, Sharjah",0
25.282031000000107,55.44997799999988,8081,DSZ,"Industrial Area 17, Sharjah",0,Sharjah,56,Sharjah,0,"Industrial Area 17, Sharjah",0
25.282031000000107,55.45997799999988,8081,DSZ,"Industrial Area 17, Sharjah",0,Sharjah,56,Sharjah,0,"Industrial Area 17, Sharjah",0
25.282031000000107,55.46997799999988,8083,DSZ,University of Sharjah,0,Sharjah,56,Sharjah,0,University of Sharjah,0
25.282031000000107,55.479977999999875,8087,DSZ,Al Juraina 4,0,Sharjah,56,Sharjah,0,Al Juraina 4,0
25.282031000000107,55.48997799999987,8086,DSZ,Al Juraina 3,0,Sharjah,56,Sharjah,0,Al Juraina 3,0
25.282031000000107,55.49997799999987,8088,DSZ,Al Noaf 1,0,Sharjah,56,Sharjah,0,Al Noaf 1,0
25.282031000000107,55.50997799999987,8089,DSZ,Al Noaf 2,0,Sharjah,56,Sharjah,0,Al Noaf 2,0
25.282031000000107,55.51997799999987,8095,DSZ,Qarayen 4,0,Sharjah,56,Sharjah,0,Qarayen 4,0
25.282031000000107,55.529977999999865,8095,DSZ,Qarayen 4,0,Sharjah,56,Sharjah,0,Qarayen 4,0
25.282031000000107,55.53997799999986,8095,DSZ,Qarayen 4,0,Sharjah,56,Sharjah,0,Qarayen 4,0
25.282031000000107,55.54997799999986,8094,DSZ,Qarayen 3,0,Sharjah,56,Sharjah,0,Qarayen 3,0
25.282031000000107,55.55997799999986,8093,DSZ,Qarayen 2,0,Sharjah,56,Sharjah,0,Qarayen 2,0
25.282031000000107,55.56997799999986,8093,DSZ,Qarayen 2,0,Sharjah,56,Sharjah,0,Qarayen 2,0
25.282031000000107,55.579977999999855,8093,DSZ,Qarayen 2,0,Sharjah,56,Sharjah,0,Qarayen 2,0
25.292031000000108,55.21997799999993,7998,DSZ,Dubai Maritime City,0,Dubai,51,Dubai,0,Dubai Maritime City,0
25.292031000000108,55.229977999999925,7998,DSZ,Dubai Maritime City,0,Dubai,51,Dubai,0,Dubai Maritime City,0
25.292031000000108,55.23997799999992,7998,DSZ,Dubai Maritime City,0,Dubai,51,Dubai,0,Dubai Maritime City,0
25.292031000000108,55.24997799999992,7998,DSZ,Dubai Maritime City,0,Dubai,51,Dubai,0,Dubai Maritime City,0
25.292031000000108,55.25997799999992,7998,DSZ,Dubai Maritime City,0,Dubai,51,Dubai,0,Dubai Maritime City,0
25.292031000000108,55.26997799999992,7998,DSZ,Dubai Maritime City,0,Dubai,51,Dubai,0,Dubai Maritime City,0
25.292031000000108,55.279977999999915,7998,DSZ,Dubai Maritime City,0,Dubai,51,Dubai,0,Dubai Maritime City,0
25.292031000000108,55.28997799999991,7989,DSZ,Al Murar,0,Dubai,51,Dubai,0,Al Murar,0
25.292031000000108,55.29997799999991,7989,DSZ,Al Murar,0,Dubai,51,Dubai,0,Al Murar,0
25.292031000000108,55.30997799999991,3815,DSZ,Corniche Deira,82232,Dubai,51,Dubai,0,Corniche Deira,0
25.292031000000108,55.31997799999991,3815,DSZ,Corniche Deira,82232,Dubai,51,Dubai,0,Corniche Deira,0
25.292031000000108,55.329977999999905,3803,DSZ,Abu Hail,82232,Dubai,51,Dubai,0,Abu Hail,0
25.292031000000108,55.3399779999999,7992,DSZ,"Al Waheda, Dubai",0,Dubai,51,Dubai,0,"Al Waheda, Dubai",0
25.292031000000108,55.3499779999999,7993,DSZ,Hor Al Anz East,0,Dubai,51,Dubai,0,Hor Al Anz East,0
25.292031000000108,55.3599779999999,10475,DSZ,"Al Nahda 1, Dubai",0,Dubai,51,Dubai,0,"Al Nahda 1, Dubai",0
25.292031000000108,55.3699779999999,10475,DSZ,"Al Nahda 1, Dubai",0,Dubai,51,Dubai,0,"Al Nahda 1, Dubai",0
25.292031000000108,55.379977999999895,3869,DSZ,"Al Nahda 2, Dubai",51602,Dubai,51,Dubai,0,"Al Nahda 2, Dubai",0
25.292031000000108,55.38997799999989,7981,DSZ,Al Qusais Industrial 1,0,Dubai,51,Dubai,0,Al Qusais Industrial 1,0
25.292031000000108,55.39997799999989,7984,DSZ,Al Qusais Industrial 4,0,Dubai,51,Dubai,0,Al Qusais Industrial 4,0
25.292031000000108,55.40997799999989,7985,DSZ,Al Qusais Industrial 5,0,Dubai,51,Dubai,0,Al Qusais Industrial 5,0
25.292031000000108,55.41997799999989,8074,DSZ,"Industrial Area 10, Sharjah",0,Sharjah,56,Sharjah,0,"Industrial Area 10, Sharjah",0
25.292031000000108,55.429977999999885,8075,DSZ,"Industrial Area 11, Sharjah",0,Sharjah,56,Sharjah,0,"Industrial Area 11, Sharjah",0
25.292031000000108,55.43997799999988,8079,DSZ,"Industrial Area 15, Sharjah",0,Sharjah,56,Sharjah,0,"Industrial Area 15, Sharjah",0
25.292031000000108,55.44997799999988,8081,DSZ,"Industrial Area 17, Sharjah",0,Sharjah,56,Sharjah,0,"Industrial Area 17, Sharjah",0
25.292031000000108,55.45997799999988,8097,DSZ,Muwailih Commercial,0,Sharjah,56,Sharjah,0,Muwailih Commercial,0
25.292031000000108,55.46997799999988,8083,DSZ,University of Sharjah,0,Sharjah,56,Sharjah,0,University of Sharjah,0
25.292031000000108,55.479977999999875,8086,DSZ,Al Juraina 3,0,Sharjah,56,Sharjah,0,Al Juraina 3,0
25.292031000000108,55.48997799999987,8086,DSZ,Al Juraina 3,0,Sharjah,56,Sharjah,0,Al Juraina 3,0
25.292031000000108,55.49997799999987,8085,DSZ,Al Juraina 2,0,Sharjah,56,Sharjah,0,Al Juraina 2,0
25.292031000000108,55.50997799999987,8096,DSZ,Qarayen 5,0,Sharjah,56,Sharjah,0,Qarayen 5,0
25.292031000000108,55.51997799999987,8094,DSZ,Qarayen 3,0,Sharjah,56,Sharjah,0,Qarayen 3,0
25.292031000000108,55.529977999999865,8094,DSZ,Qarayen 3,0,Sharjah,56,Sharjah,0,Qarayen 3,0
25.292031000000108,55.53997799999986,8094,DSZ,Qarayen 3,0,Sharjah,56,Sharjah,0,Qarayen 3,0
25.292031000000108,55.54997799999986,8093,DSZ,Qarayen 2,0,Sharjah,56,Sharjah,0,Qarayen 2,0
25.292031000000108,55.55997799999986,8093,DSZ,Qarayen 2,0,Sharjah,56,Sharjah,0,Qarayen 2,0
25.292031000000108,55.56997799999986,8093,DSZ,Qarayen 2,0,Sharjah,56,Sharjah,0,Qarayen 2,0
25.292031000000108,55.579977999999855,8093,DSZ,Qarayen 2,0,Sharjah,56,Sharjah,0,Qarayen 2,0
25.30203100000011,55.21997799999993,7998,DSZ,Dubai Maritime City,0,Dubai,51,Dubai,0,Dubai Maritime City,0
25.30203100000011,55.229977999999925,7998,DSZ,Dubai Maritime City,0,Dubai,51,Dubai,0,Dubai Maritime City,0
25.30203100000011,55.23997799999992,7998,DSZ,Dubai Maritime City,0,Dubai,51,Dubai,0,Dubai Maritime City,0
25.30203100000011,55.24997799999992,7998,DSZ,Dubai Maritime City,0,Dubai,51,Dubai,0,Dubai Maritime City,0
25.30203100000011,55.25997799999992,7998,DSZ,Dubai Maritime City,0,Dubai,51,Dubai,0,Dubai Maritime City,0
25.30203100000011,55.26997799999992,7998,DSZ,Dubai Maritime City,0,Dubai,51,Dubai,0,Dubai Maritime City,0
25.30203100000011,55.279977999999915,7998,DSZ,Dubai Maritime City,0,Dubai,51,Dubai,0,Dubai Maritime City,0
25.30203100000011,55.28997799999991,3815,DSZ,Corniche Deira,82232,Dubai,51,Dubai,0,Corniche Deira,0
25.30203100000011,55.29997799999991,3815,DSZ,Corniche Deira,82232,Dubai,51,Dubai,0,Corniche Deira,0
25.30203100000011,55.30997799999991,3815,DSZ,Corniche Deira,82232,Dubai,51,Dubai,0,Corniche Deira,0
25.30203100000011,55.31997799999991,3815,DSZ,Corniche Deira,82232,Dubai,51,Dubai,0,Corniche Deira,0
25.30203100000011,55.329977999999905,3870,DSZ,"Al Mamzar, Dubai",78055,Dubai,51,Dubai,0,"Al Mamzar, Dubai",0
25.30203100000011,55.3399779999999,3870,DSZ,"Al Mamzar, Dubai",78055,Dubai,51,Dubai,0,"Al Mamzar, Dubai",0
25.30203100000011,55.3499779999999,3870,DSZ,"Al Mamzar, Dubai",78055,Dubai,51,Dubai,0,"Al Mamzar, Dubai",0
25.30203100000011,55.3599779999999,8056,DSZ,"Al Mamzar, Sharjah",0,Sharjah,56,Sharjah,0,"Al Mamzar, Sharjah",0
25.30203100000011,55.3699779999999,8064,DSZ,"Al Nahda, Sharjah",0,Sharjah,56,Sharjah,0,"Al Nahda, Sharjah",0
25.30203100000011,55.379977999999895,8064,DSZ,"Al Nahda, Sharjah",0,Sharjah,56,Sharjah,0,"Al Nahda, Sharjah",0
25.30203100000011,55.38997799999989,8072,DSZ,"Industrial Area 8, Sharjah",0,Sharjah,56,Sharjah,0,"Industrial Area 8, Sharjah",0
25.30203100000011,55.39997799999989,8073,DSZ,"Industrial Area 9, Sharjah",0,Sharjah,56,Sharjah,0,"Industrial Area 9, Sharjah",0
25.30203100000011,55.40997799999989,8067,DSZ,"Industrial Area 3, Sharjah",0,Sharjah,56,Sharjah,0,"Industrial Area 3, Sharjah",0
25.30203100000011,55.41997799999989,8074,DSZ,"Industrial Area 10, Sharjah",0,Sharjah,56,Sharjah,0,"Industrial Area 10, Sharjah",0
25.30203100000011,55.429977999999885,8075,DSZ,"Industrial Area 11, Sharjah",0,Sharjah,56,Sharjah,0,"Industrial Area 11, Sharjah",0
25.30203100000011,55.43997799999988,8077,DSZ,"Industrial Area 13, Sharjah",0,Sharjah,56,Sharjah,0,"Industrial Area 13, Sharjah",0
25.30203100000011,55.44997799999988,8097,DSZ,Muwailih Commercial,0,Sharjah,56,Sharjah,0,Muwailih Commercial,0
25.30203100000011,55.45997799999988,8097,DSZ,Muwailih Commercial,0,Sharjah,56,Sharjah,0,Muwailih Commercial,0
25.30203100000011,55.46997799999988,11018,DSZ,"Al Zahia, Outer Sharjah, Sharjah",0,Sharjah,56,Sharjah,0,"Al Zahia, Outer Sharjah, Sharjah",0
25.30203100000011,55.479977999999875,28269,DSZ,American University of Sharjah,0,Sharjah,56,Sharjah,0,American University of Sharjah,0
25.30203100000011,55.48997799999987,8085,DSZ,Al Juraina 2,0,Sharjah,56,Sharjah,0,Al Juraina 2,0
25.30203100000011,55.49997799999987,8085,DSZ,Al Juraina 2,0,Sharjah,56,Sharjah,0,Al Juraina 2,0
25.30203100000011,55.50997799999987,8096,DSZ,Qarayen 5,0,Sharjah,56,Sharjah,0,Qarayen 5,0
25.30203100000011,55.51997799999987,8092,DSZ,Qarayen 1,0,Sharjah,56,Sharjah,0,Qarayen 1,0
25.30203100000011,55.529977999999865,8093,DSZ,Qarayen 2,0,Sharjah,56,Sharjah,0,Qarayen 2,0
25.30203100000011,55.53997799999986,8093,DSZ,Qarayen 2,0,Sharjah,56,Sharjah,0,Qarayen 2,0
25.30203100000011,55.54997799999986,8093,DSZ,Qarayen 2,0,Sharjah,56,Sharjah,0,Qarayen 2,0
25.30203100000011,55.55997799999986,8093,DSZ,Qarayen 2,0,Sharjah,56,Sharjah,0,Qarayen 2,0
25.30203100000011,55.56997799999986,8093,DSZ,Qarayen 2,0,Sharjah,56,Sharjah,0,Qarayen 2,0
25.30203100000011,55.579977999999855,8093,DSZ,Qarayen 2,0,Sharjah,56,Sharjah,0,Qarayen 2,0
25.30203100000011,55.58997799999985,10501,DSZ,"Al Rahmaniya, Outer Sharjah, Sharjah",0,Sharjah,56,Sharjah,0,"Al Rahmaniya, Outer Sharjah, Sharjah",0
25.30203100000011,55.59997799999985,10501,DSZ,"Al Rahmaniya, Outer Sharjah, Sharjah",0,Sharjah,56,Sharjah,0,"Al Rahmaniya, Outer Sharjah, Sharjah",0
25.30203100000011,55.60997799999985,10501,DSZ,"Al Rahmaniya, Outer Sharjah, Sharjah",0,Sharjah,56,Sharjah,0,"Al Rahmaniya, Outer Sharjah, Sharjah",0
25.30203100000011,55.61997799999985,10501,DSZ,"Al Rahmaniya, Outer Sharjah, Sharjah",0,Sharjah,56,Sharjah,0,"Al Rahmaniya, Outer Sharjah, Sharjah",0
25.31203100000011,55.21997799999993,7998,DSZ,Dubai Maritime City,0,Dubai,51,Dubai,0,Dubai Maritime City,0
25.31203100000011,55.229977999999925,7998,DSZ,Dubai Maritime City,0,Dubai,51,Dubai,0,Dubai Maritime City,0
25.31203100000011,55.23997799999992,7998,DSZ,Dubai Maritime City,0,Dubai,51,Dubai,0,Dubai Maritime City,0
25.31203100000011,55.24997799999992,7998,DSZ,Dubai Maritime City,0,Dubai,51,Dubai,0,Dubai Maritime City,0
25.31203100000011,55.25997799999992,7998,DSZ,Dubai Maritime City,0,Dubai,51,Dubai,0,Dubai Maritime City,0
25.31203100000011,55.26997799999992,7998,DSZ,Dubai Maritime City,0,Dubai,51,Dubai,0,Dubai Maritime City,0
25.31203100000011,55.279977999999915,3815,DSZ,Corniche Deira,82232,Dubai,51,Dubai,0,Corniche Deira,0
25.31203100000011,55.28997799999991,3815,DSZ,Corniche Deira,82232,Dubai,51,Dubai,0,Corniche Deira,0
25.31203100000011,55.29997799999991,3815,DSZ,Corniche Deira,82232,Dubai,51,Dubai,0,Corniche Deira,0
25.31203100000011,55.30997799999991,3815,DSZ,Corniche Deira,82232,Dubai,51,Dubai,0,Corniche Deira,0
25.31203100000011,55.31997799999991,3870,DSZ,"Al Mamzar, Dubai",78055,Dubai,51,Dubai,0,"Al Mamzar, Dubai",0
25.31203100000011,55.329977999999905,3870,DSZ,"Al Mamzar, Dubai",78055,Dubai,51,Dubai,0,"Al Mamzar, Dubai",0
25.31203100000011,55.3399779999999,3870,DSZ,"Al Mamzar, Dubai",78055,Dubai,51,Dubai,0,"Al Mamzar, Dubai",0
25.31203100000011,55.3499779999999,8056,DSZ,"Al Mamzar, Sharjah",0,Sharjah,56,Sharjah,0,"Al Mamzar, Sharjah",0
25.31203100000011,55.3599779999999,8056,DSZ,"Al Mamzar, Sharjah",0,Sharjah,56,Sharjah,0,"Al Mamzar, Sharjah",0
25.31203100000011,55.3699779999999,8060,DSZ,Expo Center Sharjah,0,Sharjah,56,Sharjah,0,Expo Center Sharjah,0
25.31203100000011,55.379977999999895,8071,DSZ,"Industrial Area 7, Sharjah",0,Sharjah,56,Sharjah,0,"Industrial Area 7, Sharjah",0
25.31203100000011,55.38997799999989,8071,DSZ,"Industrial Area 7, Sharjah",0,Sharjah,56,Sharjah,0,"Industrial Area 7, Sharjah",0
25.31203100000011,55.39997799999989,8066,DSZ,"Industrial Area 2, Sharjah",0,Sharjah,56,Sharjah,0,"Industrial Area 2, Sharjah",0
25.31203100000011,55.40997799999989,8067,DSZ,"Industrial Area 3, Sharjah",0,Sharjah,56,Sharjah,0,"Industrial Area 3, Sharjah",0
25.31203100000011,55.41997799999989,8070,DSZ,"Industrial Area 6, Sharjah",0,Sharjah,56,Sharjah,0,"Industrial Area 6, Sharjah",0
25.31203100000011,55.429977999999885,8076,DSZ,"Industrial Area 12, Sharjah",0,Sharjah,56,Sharjah,0,"Industrial Area 12, Sharjah",0
25.31203100000011,55.43997799999988,8077,DSZ,"Industrial Area 13, Sharjah",0,Sharjah,56,Sharjah,0,"Industrial Area 13, Sharjah",0
25.31203100000011,55.44997799999988,8097,DSZ,Muwailih Commercial,0,Sharjah,56,Sharjah,0,Muwailih Commercial,0
25.31203100000011,55.45997799999988,11018,DSZ,"Al Zahia, Outer Sharjah, Sharjah",0,Sharjah,56,Sharjah,0,"Al Zahia, Outer Sharjah, Sharjah",0
25.31203100000011,55.46997799999988,11018,DSZ,"Al Zahia, Outer Sharjah, Sharjah",0,Sharjah,56,Sharjah,0,"Al Zahia, Outer Sharjah, Sharjah",0
25.31203100000011,55.479977999999875,28269,DSZ,American University of Sharjah,0,Sharjah,56,Sharjah,0,American University of Sharjah,0
25.31203100000011,55.48997799999987,28269,DSZ,American University of Sharjah,0,Sharjah,56,Sharjah,0,American University of Sharjah,0
25.31203100000011,55.49997799999987,8084,DSZ,Al Juraina 1,0,Sharjah,56,Sharjah,0,Al Juraina 1,0
25.31203100000011,55.50997799999987,8084,DSZ,Al Juraina 1,0,Sharjah,56,Sharjah,0,Al Juraina 1,0
25.31203100000011,55.51997799999987,8092,DSZ,Qarayen 1,0,Sharjah,56,Sharjah,0,Qarayen 1,0
25.31203100000011,55.529977999999865,8093,DSZ,Qarayen 2,0,Sharjah,56,Sharjah,0,Qarayen 2,0
25.31203100000011,55.53997799999986,8093,DSZ,Qarayen 2,0,Sharjah,56,Sharjah,0,Qarayen 2,0
25.31203100000011,55.54997799999986,8093,DSZ,Qarayen 2,0,Sharjah,56,Sharjah,0,Qarayen 2,0
25.31203100000011,55.55997799999986,8093,DSZ,Qarayen 2,0,Sharjah,56,Sharjah,0,Qarayen 2,0
25.31203100000011,55.56997799999986,8093,DSZ,Qarayen 2,0,Sharjah,56,Sharjah,0,Qarayen 2,0
25.31203100000011,55.579977999999855,10501,DSZ,"Al Rahmaniya, Outer Sharjah, Sharjah",0,Sharjah,56,Sharjah,0,"Al Rahmaniya, Outer Sharjah, Sharjah",0
25.31203100000011,55.58997799999985,10501,DSZ,"Al Rahmaniya, Outer Sharjah, Sharjah",0,Sharjah,56,Sharjah,0,"Al Rahmaniya, Outer Sharjah, Sharjah",0
25.31203100000011,55.59997799999985,10501,DSZ,"Al Rahmaniya, Outer Sharjah, Sharjah",0,Sharjah,56,Sharjah,0,"Al Rahmaniya, Outer Sharjah, Sharjah",0
25.31203100000011,55.60997799999985,10501,DSZ,"Al Rahmaniya, Outer Sharjah, Sharjah",0,Sharjah,56,Sharjah,0,"Al Rahmaniya, Outer Sharjah, Sharjah",0
25.31203100000011,55.61997799999985,10501,DSZ,"Al Rahmaniya, Outer Sharjah, Sharjah",0,Sharjah,56,Sharjah,0,"Al Rahmaniya, Outer Sharjah, Sharjah",0
25.322031000000113,55.26997799999992,3815,DSZ,Corniche Deira,82232,Dubai,51,Dubai,0,Corniche Deira,0
25.322031000000113,55.279977999999915,3815,DSZ,Corniche Deira,82232,Dubai,51,Dubai,0,Corniche Deira,0
25.322031000000113,55.28997799999991,3815,DSZ,Corniche Deira,82232,Dubai,51,Dubai,0,Corniche Deira,0
25.322031000000113,55.29997799999991,3815,DSZ,Corniche Deira,82232,Dubai,51,Dubai,0,Corniche Deira,0
25.322031000000113,55.30997799999991,3870,DSZ,"Al Mamzar, Dubai",78055,Dubai,51,Dubai,0,"Al Mamzar, Dubai",0
25.322031000000113,55.31997799999991,3870,DSZ,"Al Mamzar, Dubai",78055,Dubai,51,Dubai,0,"Al Mamzar, Dubai",0
25.322031000000113,55.329977999999905,3870,DSZ,"Al Mamzar, Dubai",78055,Dubai,51,Dubai,0,"Al Mamzar, Dubai",0
25.322031000000113,55.3399779999999,3870,DSZ,"Al Mamzar, Dubai",78055,Dubai,51,Dubai,0,"Al Mamzar, Dubai",0
25.322031000000113,55.3499779999999,8057,DSZ,Al Habib Island,0,Sharjah,56,Sharjah,0,Al Habib Island,0
25.322031000000113,55.3599779999999,8061,DSZ,Sharjah Beach Area,0,Sharjah,56,Sharjah,0,Sharjah Beach Area,0
25.322031000000113,55.3699779999999,8058,DSZ,Al Qasba,0,Sharjah,56,Sharjah,0,Al Qasba,0
25.322031000000113,55.379977999999895,8058,DSZ,Al Qasba,0,Sharjah,56,Sharjah,0,Al Qasba,0
25.322031000000113,55.39997799999989,8065,DSZ,"Industrial Area 1, Sharjah",0,Sharjah,56,Sharjah,0,"Industrial Area 1, Sharjah",0
25.322031000000113,55.40997799999989,8069,DSZ,"Industrial Area 5, Sharjah",0,Sharjah,56,Sharjah,0,"Industrial Area 5, Sharjah",0
25.322031000000113,55.41997799999989,8070,DSZ,"Industrial Area 6, Sharjah",0,Sharjah,56,Sharjah,0,"Industrial Area 6, Sharjah",0
25.322031000000113,55.429977999999885,8070,DSZ,"Industrial Area 6, Sharjah",0,Sharjah,56,Sharjah,0,"Industrial Area 6, Sharjah",0
25.322031000000113,55.43997799999988,8024,DSZ,Al Darari,0,Sharjah,56,Sharjah,0,Al Darari,0
25.322031000000113,55.44997799999988,8026,DSZ,Al Tarfa,0,Sharjah,56,Sharjah,0,Al Tarfa,0
25.322031000000113,55.45997799999988,11018,DSZ,"Al Zahia, Outer Sharjah, Sharjah",0,Sharjah,56,Sharjah,0,"Al Zahia, Outer Sharjah, Sharjah",0
25.322031000000113,55.46997799999988,11018,DSZ,"Al Zahia, Outer Sharjah, Sharjah",0,Sharjah,56,Sharjah,0,"Al Zahia, Outer Sharjah, Sharjah",0
25.322031000000113,55.479977999999875,8098,DSZ,"SAIF Zone, Sharjah",0,Sharjah,56,Sharjah,0,"SAIF Zone, Sharjah",0
25.322031000000113,55.48997799999987,28269,DSZ,American University of Sharjah,0,Sharjah,56,Sharjah,0,American University of Sharjah,0
25.322031000000113,55.49997799999987,28269,DSZ,American University of Sharjah,0,Sharjah,56,Sharjah,0,American University of Sharjah,0
25.322031000000113,55.50997799999987,8084,DSZ,Al Juraina 1,0,Sharjah,56,Sharjah,0,Al Juraina 1,0
25.322031000000113,55.51997799999987,8084,DSZ,Al Juraina 1,0,Sharjah,56,Sharjah,0,Al Juraina 1,0
25.322031000000113,55.529977999999865,8093,DSZ,Qarayen 2,0,Sharjah,56,Sharjah,0,Qarayen 2,0
25.322031000000113,55.53997799999986,8093,DSZ,Qarayen 2,0,Sharjah,56,Sharjah,0,Qarayen 2,0
25.322031000000113,55.54997799999986,8093,DSZ,Qarayen 2,0,Sharjah,56,Sharjah,0,Qarayen 2,0
25.322031000000113,55.55997799999986,8093,DSZ,Qarayen 2,0,Sharjah,56,Sharjah,0,Qarayen 2,0
25.322031000000113,55.56997799999986,10501,DSZ,"Al Rahmaniya, Outer Sharjah, Sharjah",0,Sharjah,56,Sharjah,0,"Al Rahmaniya, Outer Sharjah, Sharjah",0
25.322031000000113,55.579977999999855,10501,DSZ,"Al Rahmaniya, Outer Sharjah, Sharjah",0,Sharjah,56,Sharjah,0,"Al Rahmaniya, Outer Sharjah, Sharjah",0
25.322031000000113,55.58997799999985,10501,DSZ,"Al Rahmaniya, Outer Sharjah, Sharjah",0,Sharjah,56,Sharjah,0,"Al Rahmaniya, Outer Sharjah, Sharjah",0
25.322031000000113,55.59997799999985,10501,DSZ,"Al Rahmaniya, Outer Sharjah, Sharjah",0,Sharjah,56,Sharjah,0,"Al Rahmaniya, Outer Sharjah, Sharjah",0
25.322031000000113,55.60997799999985,10501,DSZ,"Al Rahmaniya, Outer Sharjah, Sharjah",0,Sharjah,56,Sharjah,0,"Al Rahmaniya, Outer Sharjah, Sharjah",0
25.322031000000113,55.61997799999985,10501,DSZ,"Al Rahmaniya, Outer Sharjah, Sharjah",0,Sharjah,56,Sharjah,0,"Al Rahmaniya, Outer Sharjah, Sharjah",0
25.332031000000114,55.26997799999992,3815,DSZ,Corniche Deira,82232,Dubai,51,Dubai,0,Corniche Deira,0
25.332031000000114,55.279977999999915,3815,DSZ,Corniche Deira,82232,Dubai,51,Dubai,0,Corniche Deira,0
25.332031000000114,55.28997799999991,3815,DSZ,Corniche Deira,82232,Dubai,51,Dubai,0,Corniche Deira,0
25.332031000000114,55.29997799999991,3815,DSZ,Corniche Deira,82232,Dubai,51,Dubai,0,Corniche Deira,0
25.332031000000114,55.30997799999991,3870,DSZ,"Al Mamzar, Dubai",78055,Dubai,51,Dubai,0,"Al Mamzar, Dubai",0
25.332031000000114,55.31997799999991,3870,DSZ,"Al Mamzar, Dubai",78055,Dubai,51,Dubai,0,"Al Mamzar, Dubai",0
25.332031000000114,55.329977999999905,8059,DSZ,"Al Meena, Sharjah",0,Sharjah,56,Sharjah,0,"Al Meena, Sharjah",0
25.332031000000114,55.3399779999999,8059,DSZ,"Al Meena, Sharjah",0,Sharjah,56,Sharjah,0,"Al Meena, Sharjah",0
25.332031000000114,55.3499779999999,8059,DSZ,"Al Meena, Sharjah",0,Sharjah,56,Sharjah,0,"Al Meena, Sharjah",0
25.332031000000114,55.3599779999999,8059,DSZ,"Al Meena, Sharjah",0,Sharjah,56,Sharjah,0,"Al Meena, Sharjah",0
25.332031000000114,55.3699779999999,8054,DSZ,Al Majaz 3,0,Sharjah,56,Sharjah,0,Al Majaz 3,0
25.332031000000114,55.379977999999895,8054,DSZ,Al Majaz 3,0,Sharjah,56,Sharjah,0,Al Majaz 3,0
25.332031000000114,55.38997799999989,8052,DSZ,Al Majaz 1,0,Sharjah,56,Sharjah,0,Al Majaz 1,0
25.332031000000114,55.39997799999989,8068,DSZ,"Industrial Area 4, Sharjah",0,Sharjah,56,Sharjah,0,"Industrial Area 4, Sharjah",0
25.332031000000114,55.40997799999989,8069,DSZ,"Industrial Area 5, Sharjah",0,Sharjah,56,Sharjah,0,"Industrial Area 5, Sharjah",0
25.332031000000114,55.41997799999989,8010,DSZ,Samnan,0,Sharjah,56,Sharjah,0,Samnan,0
25.332031000000114,55.429977999999885,8023,DSZ,Al Shahba,0,Sharjah,56,Sharjah,0,Al Shahba,0
25.332031000000114,55.43997799999988,8024,DSZ,Al Darari,0,Sharjah,56,Sharjah,0,Al Darari,0
25.332031000000114,55.44997799999988,8027,DSZ,Al Tala'a,0,Sharjah,56,Sharjah,0,Al Tala'a,0
25.332031000000114,55.45997799999988,8022,DSZ,Al Rifa'a,0,Sharjah,56,Sharjah,0,Al Rifa'a,0
25.332031000000114,55.46997799999988,8022,DSZ,Al Rifa'a,0,Sharjah,56,Sharjah,0,Al Rifa'a,0
25.332031000000114,55.479977999999875,8098,DSZ,"SAIF Zone, Sharjah",0,Sharjah,56,Sharjah,0,"SAIF Zone, Sharjah",0
25.332031000000114,55.48997799999987,8098,DSZ,"SAIF Zone, Sharjah",0,Sharjah,56,Sharjah,0,"SAIF Zone, Sharjah",0
25.332031000000114,55.49997799999987,8098,DSZ,"SAIF Zone, Sharjah",0,Sharjah,56,Sharjah,0,"SAIF Zone, Sharjah",0
25.332031000000114,55.50997799999987,8084,DSZ,Al Juraina 1,0,Sharjah,56,Sharjah,0,Al Juraina 1,0
25.332031000000114,55.51997799999987,8084,DSZ,Al Juraina 1,0,Sharjah,56,Sharjah,0,Al Juraina 1,0
25.332031000000114,55.529977999999865,8093,DSZ,Qarayen 2,0,Sharjah,56,Sharjah,0,Qarayen 2,0
25.332031000000114,55.53997799999986,8093,DSZ,Qarayen 2,0,Sharjah,56,Sharjah,0,Qarayen 2,0
25.332031000000114,55.54997799999986,10501,DSZ,"Al Rahmaniya, Outer Sharjah, Sharjah",0,Sharjah,56,Sharjah,0,"Al Rahmaniya, Outer Sharjah, Sharjah",0
25.332031000000114,55.55997799999986,10501,DSZ,"Al Rahmaniya, Outer Sharjah, Sharjah",0,Sharjah,56,Sharjah,0,"Al Rahmaniya, Outer Sharjah, Sharjah",0
25.332031000000114,55.56997799999986,10501,DSZ,"Al Rahmaniya, Outer Sharjah, Sharjah",0,Sharjah,56,Sharjah,0,"Al Rahmaniya, Outer Sharjah, Sharjah",0
25.332031000000114,55.579977999999855,10501,DSZ,"Al Rahmaniya, Outer Sharjah, Sharjah",0,Sharjah,56,Sharjah,0,"Al Rahmaniya, Outer Sharjah, Sharjah",0
25.332031000000114,55.58997799999985,10501,DSZ,"Al Rahmaniya, Outer Sharjah, Sharjah",0,Sharjah,56,Sharjah,0,"Al Rahmaniya, Outer Sharjah, Sharjah",0
25.332031000000114,55.59997799999985,10501,DSZ,"Al Rahmaniya, Outer Sharjah, Sharjah",0,Sharjah,56,Sharjah,0,"Al Rahmaniya, Outer Sharjah, Sharjah",0
25.332031000000114,55.60997799999985,10501,DSZ,"Al Rahmaniya, Outer Sharjah, Sharjah",0,Sharjah,56,Sharjah,0,"Al Rahmaniya, Outer Sharjah, Sharjah",0
25.332031000000114,55.61997799999985,10501,DSZ,"Al Rahmaniya, Outer Sharjah, Sharjah",0,Sharjah,56,Sharjah,0,"Al Rahmaniya, Outer Sharjah, Sharjah",0
25.342031000000116,55.29997799999991,3870,DSZ,"Al Mamzar, Dubai",78055,Dubai,51,Dubai,0,"Al Mamzar, Dubai",0
25.342031000000116,55.30997799999991,3870,DSZ,"Al Mamzar, Dubai",78055,Dubai,51,Dubai,0,"Al Mamzar, Dubai",0
25.342031000000116,55.31997799999991,8059,DSZ,"Al Meena, Sharjah",0,Sharjah,56,Sharjah,0,"Al Meena, Sharjah",0
25.342031000000116,55.329977999999905,8059,DSZ,"Al Meena, Sharjah",0,Sharjah,56,Sharjah,0,"Al Meena, Sharjah",0
25.342031000000116,55.3399779999999,8059,DSZ,"Al Meena, Sharjah",0,Sharjah,56,Sharjah,0,"Al Meena, Sharjah",0
25.342031000000116,55.3499779999999,8059,DSZ,"Al Meena, Sharjah",0,Sharjah,56,Sharjah,0,"Al Meena, Sharjah",0
25.342031000000116,55.3599779999999,8063,DSZ,"Al Khaledia Suburb, Sharjah",0,Sharjah,56,Sharjah,0,"Al Khaledia Suburb, Sharjah",0
25.342031000000116,55.3699779999999,8063,DSZ,"Al Khaledia Suburb, Sharjah",0,Sharjah,56,Sharjah,0,"Al Khaledia Suburb, Sharjah",0
25.342031000000116,55.379977999999895,8052,DSZ,Al Majaz 1,0,Sharjah,56,Sharjah,0,Al Majaz 1,0
25.342031000000116,55.38997799999989,8003,DSZ,Al Nud,0,Sharjah,56,Sharjah,0,Al Nud,0
25.342031000000116,55.39997799999989,8002,DSZ,"Al Bu Daniq, Mega Mall",0,Sharjah,56,Sharjah,0,"Al Bu Daniq, Mega Mall",0
25.342031000000116,55.40997799999989,8009,DSZ,"Al Ghubaiba, Sharjah",0,Sharjah,56,Sharjah,0,"Al Ghubaiba, Sharjah",0
25.342031000000116,55.41997799999989,8010,DSZ,Samnan,0,Sharjah,56,Sharjah,0,Samnan,0
25.342031000000116,55.429977999999885,8011,DSZ,Al Abar,0,Sharjah,56,Sharjah,0,Al Abar ,0
25.342031000000116,55.43997799999988,8025,DSZ,Al Khezamia,0,Sharjah,56,Sharjah,0,Al Khezamia,0
25.342031000000116,55.44997799999988,8027,DSZ,Al Tala'a,0,Sharjah,56,Sharjah,0,Al Tala'a,0
25.342031000000116,55.45997799999988,8031,DSZ,Al Yash,0,Sharjah,56,Sharjah,0,Al Yash,0
25.342031000000116,55.46997799999988,8031,DSZ,Al Yash,0,Sharjah,56,Sharjah,0,Al Yash,0
25.342031000000116,55.479977999999875,8098,DSZ,"SAIF Zone, Sharjah",0,Sharjah,56,Sharjah,0,"SAIF Zone, Sharjah",0
25.342031000000116,55.48997799999987,8098,DSZ,"SAIF Zone, Sharjah",0,Sharjah,56,Sharjah,0,"SAIF Zone, Sharjah",0
25.342031000000116,55.49997799999987,8098,DSZ,"SAIF Zone, Sharjah",0,Sharjah,56,Sharjah,0,"SAIF Zone, Sharjah",0
25.342031000000116,55.50997799999987,8548,DSZ,Al Tallah 2,0,Ajman,92,Ajman,0,Al Tallah 2,0
25.342031000000116,55.51997799999987,8548,DSZ,Al Tallah 2,0,Ajman,92,Ajman,0,Al Tallah 2,0
25.342031000000116,55.529977999999865,8547,DSZ,Al Talla 1,0,Ajman,92,Ajman,0,Al Talla 1,0
25.342031000000116,55.53997799999986,8547,DSZ,Al Talla 1,0,Ajman,92,Ajman,0,Al Talla 1,0
25.342031000000116,55.54997799999986,10501,DSZ,"Al Rahmaniya, Outer Sharjah, Sharjah",0,Sharjah,56,Sharjah,0,"Al Rahmaniya, Outer Sharjah, Sharjah",0
25.342031000000116,55.55997799999986,10501,DSZ,"Al Rahmaniya, Outer Sharjah, Sharjah",0,Sharjah,56,Sharjah,0,"Al Rahmaniya, Outer Sharjah, Sharjah",0
25.342031000000116,55.56997799999986,10501,DSZ,"Al Rahmaniya, Outer Sharjah, Sharjah",0,Sharjah,56,Sharjah,0,"Al Rahmaniya, Outer Sharjah, Sharjah",0
25.342031000000116,55.579977999999855,10501,DSZ,"Al Rahmaniya, Outer Sharjah, Sharjah",0,Sharjah,56,Sharjah,0,"Al Rahmaniya, Outer Sharjah, Sharjah",0
25.342031000000116,55.58997799999985,10501,DSZ,"Al Rahmaniya, Outer Sharjah, Sharjah",0,Sharjah,56,Sharjah,0,"Al Rahmaniya, Outer Sharjah, Sharjah",0
25.342031000000116,55.59997799999985,10501,DSZ,"Al Rahmaniya, Outer Sharjah, Sharjah",0,Sharjah,56,Sharjah,0,"Al Rahmaniya, Outer Sharjah, Sharjah",0
25.342031000000116,55.60997799999985,10501,DSZ,"Al Rahmaniya, Outer Sharjah, Sharjah",0,Sharjah,56,Sharjah,0,"Al Rahmaniya, Outer Sharjah, Sharjah",0
25.342031000000116,55.61997799999985,10501,DSZ,"Al Rahmaniya, Outer Sharjah, Sharjah",0,Sharjah,56,Sharjah,0,"Al Rahmaniya, Outer Sharjah, Sharjah",0
25.352031000000117,55.30997799999991,8056,DSZ,"Al Mamzar, Sharjah",0,Sharjah,56,Sharjah,0,"Al Mamzar, Sharjah",0
25.352031000000117,55.31997799999991,8059,DSZ,"Al Meena, Sharjah",0,Sharjah,56,Sharjah,0,"Al Meena, Sharjah",0
25.352031000000117,55.329977999999905,8059,DSZ,"Al Meena, Sharjah",0,Sharjah,56,Sharjah,0,"Al Meena, Sharjah",0
25.352031000000117,55.3399779999999,8059,DSZ,"Al Meena, Sharjah",0,Sharjah,56,Sharjah,0,"Al Meena, Sharjah",0
25.352031000000117,55.3499779999999,8063,DSZ,"Al Khaledia Suburb, Sharjah",0,Sharjah,56,Sharjah,0,"Al Khaledia Suburb, Sharjah",0
25.352031000000117,55.3599779999999,8062,DSZ,Al Layyeh Suburb,0,Sharjah,56,Sharjah,0,Al Layyeh Suburb ,0
25.352031000000117,55.3699779999999,8062,DSZ,Al Layyeh Suburb,0,Sharjah,56,Sharjah,0,Al Layyeh Suburb ,0
25.352031000000117,55.379977999999895,8040,DSZ,"Al Jubail , Sharjah",0,Sharjah,56,Sharjah,0,"Al Jubail , Sharjah",0
25.352031000000117,55.38997799999989,8004,DSZ,"Al Soor, Sharjah",0,Sharjah,56,Sharjah,0,"Al Soor, Sharjah",0
25.352031000000117,55.39997799999989,8006,DSZ,"Al Manakh , Sharjah",0,Sharjah,56,Sharjah,0,"Al Manakh , Sharjah",0
25.352031000000117,55.40997799999989,8008,DSZ,Al Yarmook,0,Sharjah,56,Sharjah,0,Al Yarmook ,0
25.352031000000117,55.41997799999989,8012,DSZ,Dasman,0,Sharjah,56,Sharjah,0,Dasman ,0
25.352031000000117,55.429977999999885,8011,DSZ,Al Abar,0,Sharjah,56,Sharjah,0,Al Abar ,0
25.352031000000117,55.43997799999988,8033,DSZ,Al Goaz,0,Sharjah,56,Sharjah,0,Al Goaz,0
25.352031000000117,55.44997799999988,8033,DSZ,Al Goaz,0,Sharjah,56,Sharjah,0,Al Goaz,0
25.352031000000117,55.45997799999988,8028,DSZ,Al Ramaqiya,0,Sharjah,56,Sharjah,0,Al Ramaqiya ,0
25.352031000000117,55.46997799999988,8032,DSZ,Muwafjah,0,Sharjah,56,Sharjah,0,Muwafjah,0
25.352031000000117,55.479977999999875,8032,DSZ,Muwafjah,0,Sharjah,56,Sharjah,0,Muwafjah,0
25.352031000000117,55.48997799999987,8542,DSZ,Al Muwaihat 3,0,Ajman,92,Ajman,0,Al Muwaihat 3,0
25.352031000000117,55.49997799999987,8548,DSZ,Al Tallah 2,0,Ajman,92,Ajman,0,Al Tallah 2,0
25.352031000000117,55.50997799999987,8548,DSZ,Al Tallah 2,0,Ajman,92,Ajman,0,Al Tallah 2,0
25.352031000000117,55.51997799999987,8548,DSZ,Al Tallah 2,0,Ajman,92,Ajman,0,Al Tallah 2,0
25.352031000000117,55.529977999999865,8547,DSZ,Al Talla 1,0,Ajman,92,Ajman,0,Al Talla 1,0
25.352031000000117,55.53997799999986,8547,DSZ,Al Talla 1,0,Ajman,92,Ajman,0,Al Talla 1,0
25.352031000000117,55.54997799999986,8544,DSZ,Al Muntazi 2,0,Ajman,92,Ajman,0,Al Muntazi 2,0
25.352031000000117,55.55997799999986,10501,DSZ,"Al Rahmaniya, Outer Sharjah, Sharjah",0,Sharjah,56,Sharjah,0,"Al Rahmaniya, Outer Sharjah, Sharjah",0
25.352031000000117,55.56997799999986,10501,DSZ,"Al Rahmaniya, Outer Sharjah, Sharjah",0,Sharjah,56,Sharjah,0,"Al Rahmaniya, Outer Sharjah, Sharjah",0
25.352031000000117,55.579977999999855,10501,DSZ,"Al Rahmaniya, Outer Sharjah, Sharjah",0,Sharjah,56,Sharjah,0,"Al Rahmaniya, Outer Sharjah, Sharjah",0
25.352031000000117,55.58997799999985,10501,DSZ,"Al Rahmaniya, Outer Sharjah, Sharjah",0,Sharjah,56,Sharjah,0,"Al Rahmaniya, Outer Sharjah, Sharjah",0
25.352031000000117,55.59997799999985,10501,DSZ,"Al Rahmaniya, Outer Sharjah, Sharjah",0,Sharjah,56,Sharjah,0,"Al Rahmaniya, Outer Sharjah, Sharjah",0
25.352031000000117,55.60997799999985,10501,DSZ,"Al Rahmaniya, Outer Sharjah, Sharjah",0,Sharjah,56,Sharjah,0,"Al Rahmaniya, Outer Sharjah, Sharjah",0
25.352031000000117,55.61997799999985,10501,DSZ,"Al Rahmaniya, Outer Sharjah, Sharjah",0,Sharjah,56,Sharjah,0,"Al Rahmaniya, Outer Sharjah, Sharjah",0
25.352031000000117,55.629977999999845,8551,DSZ,"Al Helio 2, Ajman",0,Ajman,92,Ajman,0,"Al Helio 2, Ajman",0
25.352031000000117,55.63997799999984,8551,DSZ,"Al Helio 2, Ajman",0,Ajman,92,Ajman,0,"Al Helio 2, Ajman",0
25.36203100000012,55.31997799999991,8059,DSZ,"Al Meena, Sharjah",0,Sharjah,56,Sharjah,0,"Al Meena, Sharjah",0
25.36203100000012,55.329977999999905,8059,DSZ,"Al Meena, Sharjah",0,Sharjah,56,Sharjah,0,"Al Meena, Sharjah",0
25.36203100000012,55.3399779999999,8062,DSZ,Al Layyeh Suburb,0,Sharjah,56,Sharjah,0,Al Layyeh Suburb ,0
25.36203100000012,55.3499779999999,8062,DSZ,Al Layyeh Suburb,0,Sharjah,56,Sharjah,0,Al Layyeh Suburb ,0
25.36203100000012,55.3599779999999,8062,DSZ,Al Layyeh Suburb,0,Sharjah,56,Sharjah,0,Al Layyeh Suburb ,0
25.36203100000012,55.3699779999999,8062,DSZ,Al Layyeh Suburb,0,Sharjah,56,Sharjah,0,Al Layyeh Suburb ,0
25.36203100000012,55.379977999999895,8062,DSZ,Al Layyeh Suburb,0,Sharjah,56,Sharjah,0,Al Layyeh Suburb ,0
25.36203100000012,55.38997799999989,8037,DSZ,Al Shuwaihean,0,Sharjah,56,Sharjah,0,Al Shuwaihean,0
25.36203100000012,55.39997799999989,8042,DSZ,Maysaloon,0,Sharjah,56,Sharjah,0,Maysaloon ,0
25.36203100000012,55.40997799999989,8007,DSZ,Al Fayha,0,Sharjah,56,Sharjah,0,Al Fayha,0
25.36203100000012,55.41997799999989,8015,DSZ,Al Ramla East,0,Sharjah,56,Sharjah,0,Al Ramla East ,0
25.36203100000012,55.429977999999885,8014,DSZ,Al Jazzat,0,Sharjah,56,Sharjah,0,Al Jazzat,0
25.36203100000012,55.43997799999988,8016,DSZ,Al Falaj,0,Sharjah,56,Sharjah,0,Al Falaj ,0
25.36203100000012,55.44997799999988,8029,DSZ,Al Ramtha,0,Sharjah,56,Sharjah,0,Al Ramtha,0
25.36203100000012,55.45997799999988,8028,DSZ,Al Ramaqiya,0,Sharjah,56,Sharjah,0,Al Ramaqiya ,0
25.36203100000012,55.46997799999988,8028,DSZ,Al Ramaqiya,0,Sharjah,56,Sharjah,0,Al Ramaqiya ,0
25.36203100000012,55.479977999999875,8542,DSZ,Al Muwaihat 3,0,Ajman,92,Ajman,0,Al Muwaihat 3,0
25.36203100000012,55.48997799999987,8542,DSZ,Al Muwaihat 3,0,Ajman,92,Ajman,0,Al Muwaihat 3,0
25.36203100000012,55.49997799999987,8548,DSZ,Al Tallah 2,0,Ajman,92,Ajman,0,Al Tallah 2,0
25.36203100000012,55.50997799999987,8548,DSZ,Al Tallah 2,0,Ajman,92,Ajman,0,Al Tallah 2,0
25.36203100000012,55.51997799999987,8547,DSZ,Al Talla 1,0,Ajman,92,Ajman,0,Al Talla 1,0
25.36203100000012,55.529977999999865,8547,DSZ,Al Talla 1,0,Ajman,92,Ajman,0,Al Talla 1,0
25.36203100000012,55.53997799999986,8544,DSZ,Al Muntazi 2,0,Ajman,92,Ajman,0,Al Muntazi 2,0
25.36203100000012,55.54997799999986,8544,DSZ,Al Muntazi 2,0,Ajman,92,Ajman,0,Al Muntazi 2,0
25.36203100000012,55.55997799999986,8554,DSZ,Al Yasmeen,0,Ajman,92,Ajman,0,Al Yasmeen,0
25.36203100000012,55.56997799999986,8554,DSZ,Al Yasmeen,0,Ajman,92,Ajman,0,Al Yasmeen,0
25.36203100000012,55.579977999999855,8554,DSZ,Al Yasmeen,0,Ajman,92,Ajman,0,Al Yasmeen,0
25.36203100000012,55.58997799999985,10501,DSZ,"Al Rahmaniya, Outer Sharjah, Sharjah",0,Sharjah,56,Sharjah,0,"Al Rahmaniya, Outer Sharjah, Sharjah",0
25.36203100000012,55.59997799999985,10501,DSZ,"Al Rahmaniya, Outer Sharjah, Sharjah",0,Sharjah,56,Sharjah,0,"Al Rahmaniya, Outer Sharjah, Sharjah",0
25.36203100000012,55.60997799999985,8551,DSZ,"Al Helio 2, Ajman",0,Ajman,92,Ajman,0,"Al Helio 2, Ajman",0
25.36203100000012,55.61997799999985,8551,DSZ,"Al Helio 2, Ajman",0,Ajman,92,Ajman,0,"Al Helio 2, Ajman",0
25.36203100000012,55.629977999999845,8551,DSZ,"Al Helio 2, Ajman",0,Ajman,92,Ajman,0,"Al Helio 2, Ajman",0
25.36203100000012,55.63997799999984,8551,DSZ,"Al Helio 2, Ajman",0,Ajman,92,Ajman,0,"Al Helio 2, Ajman",0
25.36203100000012,55.64997799999984,8552,DSZ,Al Heliow,0,Ajman,92,Ajman,0,Al Heliow,0
25.37203100000012,55.31997799999991,8059,DSZ,"Al Meena, Sharjah",0,Sharjah,56,Sharjah,0,"Al Meena, Sharjah",0
25.37203100000012,55.329977999999905,8062,DSZ,Al Layyeh Suburb,0,Sharjah,56,Sharjah,0,Al Layyeh Suburb ,0
25.37203100000012,55.3399779999999,8062,DSZ,Al Layyeh Suburb,0,Sharjah,56,Sharjah,0,Al Layyeh Suburb ,0
25.37203100000012,55.3499779999999,8062,DSZ,Al Layyeh Suburb,0,Sharjah,56,Sharjah,0,Al Layyeh Suburb ,0
25.37203100000012,55.3599779999999,8062,DSZ,Al Layyeh Suburb,0,Sharjah,56,Sharjah,0,Al Layyeh Suburb ,0
25.37203100000012,55.3699779999999,8062,DSZ,Al Layyeh Suburb,0,Sharjah,56,Sharjah,0,Al Layyeh Suburb ,0
25.37203100000012,55.379977999999895,8034,DSZ,Al Mujarrah,0,Sharjah,56,Sharjah,0,Al Mujarrah ,0
25.37203100000012,55.38997799999989,8043,DSZ,"Al Seef, Sharjah",0,Sharjah,56,Sharjah,0,"Al Seef, Sharjah",0
25.37203100000012,55.39997799999989,8045,DSZ,"Bu Tina, Sharjah",0,Sharjah,56,Sharjah,0,"Bu Tina, Sharjah",0
25.37203100000012,55.40997799999989,8041,DSZ,Al Nasserya,0,Sharjah,56,Sharjah,0,Al Nasserya,0
25.37203100000012,55.41997799999989,8020,DSZ,Al Hazannah,0,Sharjah,56,Sharjah,0,Al Hazannah ,0
25.37203100000012,55.429977999999885,8014,DSZ,Al Jazzat,0,Sharjah,56,Sharjah,0,Al Jazzat,0
25.37203100000012,55.43997799999988,8018,DSZ,Al Ghafia,0,Sharjah,56,Sharjah,0,Al Ghafia,0
25.37203100000012,55.44997799999988,8017,DSZ,Al Azra,0,Sharjah,56,Sharjah,0,Al Azra ,0
25.37203100000012,55.45997799999988,8029,DSZ,Al Ramtha,0,Sharjah,56,Sharjah,0,Al Ramtha,0
25.37203100000012,55.46997799999988,8539,DSZ,Ajman Industrial 2,0,Ajman,92,Ajman,0,Ajman Industrial 2,0
25.37203100000012,55.479977999999875,8539,DSZ,Ajman Industrial 2,0,Ajman,92,Ajman,0,Ajman Industrial 2,0
25.37203100000012,55.48997799999987,8542,DSZ,Al Muwaihat 3,0,Ajman,92,Ajman,0,Al Muwaihat 3,0
25.37203100000012,55.49997799999987,8541,DSZ,Al Mwaihat 2,0,Ajman,92,Ajman,0,Al Mwaihat 2,0
25.37203100000012,55.50997799999987,8548,DSZ,Al Tallah 2,0,Ajman,92,Ajman,0,Al Tallah 2,0
25.37203100000012,55.51997799999987,8547,DSZ,Al Talla 1,0,Ajman,92,Ajman,0,Al Talla 1,0
25.37203100000012,55.529977999999865,8547,DSZ,Al Talla 1,0,Ajman,92,Ajman,0,Al Talla 1,0
25.37203100000012,55.53997799999986,8544,DSZ,Al Muntazi 2,0,Ajman,92,Ajman,0,Al Muntazi 2,0
25.37203100000012,55.54997799999986,8544,DSZ,Al Muntazi 2,0,Ajman,92,Ajman,0,Al Muntazi 2,0
25.37203100000012,55.55997799999986,8544,DSZ,Al Muntazi 2,0,Ajman,92,Ajman,0,Al Muntazi 2,0
25.37203100000012,55.56997799999986,8554,DSZ,Al Yasmeen,0,Ajman,92,Ajman,0,Al Yasmeen,0
25.37203100000012,55.579977999999855,8554,DSZ,Al Yasmeen,0,Ajman,92,Ajman,0,Al Yasmeen,0
25.37203100000012,55.58997799999985,8554,DSZ,Al Yasmeen,0,Ajman,92,Ajman,0,Al Yasmeen,0
25.37203100000012,55.59997799999985,8551,DSZ,"Al Helio 2, Ajman",0,Ajman,92,Ajman,0,"Al Helio 2, Ajman",0
25.37203100000012,55.60997799999985,8551,DSZ,"Al Helio 2, Ajman",0,Ajman,92,Ajman,0,"Al Helio 2, Ajman",0
25.37203100000012,55.61997799999985,8551,DSZ,"Al Helio 2, Ajman",0,Ajman,92,Ajman,0,"Al Helio 2, Ajman",0
25.37203100000012,55.629977999999845,8551,DSZ,"Al Helio 2, Ajman",0,Ajman,92,Ajman,0,"Al Helio 2, Ajman",0
25.37203100000012,55.63997799999984,8551,DSZ,"Al Helio 2, Ajman",0,Ajman,92,Ajman,0,"Al Helio 2, Ajman",0
25.37203100000012,55.64997799999984,8552,DSZ,Al Heliow,0,Ajman,92,Ajman,0,Al Heliow,0
